{
"type": "FeatureCollection",
"name": "bhopal",
"crs": { "type": "name", "properties": { "name": "urn:ogc:def:crs:OGC:1.3:CRS84" } },
"features": [
{ "type": "Feature", "properties": { "segment": 1, "name": "Bhopal_1", "length_km": 1.62 }, "geometry": { "type": "MultiLineString", "coordinates": [ [ [ 77.398787168799231, 23.255915575622396 ], [ 77.398916238399977, 23.257194899686116 ], [ 77.399035185068868, 23.257225012583593 ], [ 77.399084482482834, 23.257247292324763 ], [ 77.399121382425079, 23.257273305134639 ], [ 77.399322058424275, 23.25740432779051 ], [ 77.399674641170364, 23.257248458116052 ], [ 77.399919296475545, 23.257076729909866 ], [ 77.399963988908425, 23.257066893633013 ], [ 77.400046226857626, 23.257054868002864 ], [ 77.4000950597855, 23.25704846800873 ], [ 77.400116876467607, 23.257046519173656 ], [ 77.400118189874789, 23.257040138043841 ], [ 77.400116972097351, 23.256311255662876 ], [ 77.402732119199911, 23.256307120212231 ], [ 77.403163688761154, 23.256291762713495 ], [ 77.403774244302539, 23.256276288060839 ], [ 77.404301400476172, 23.256310215213318 ], [ 77.405075416507898, 23.256273855854438 ], [ 77.404993930865132, 23.255736691455514 ], [ 77.405073224733258, 23.255727318541439 ], [ 77.404903508408452, 23.255008501811677 ], [ 77.404862018155427, 23.255015729984702 ], [ 77.404817953143606, 23.255012010119827 ], [ 77.40478662999621, 23.254989416319773 ], [ 77.404760798516733, 23.254954794018285 ], [ 77.40421065018252, 23.255095411278454 ], [ 77.403784363298968, 23.255239233289643 ], [ 77.40321626020858, 23.25538480960974 ], [ 77.402691468218734, 23.255482534388165 ], [ 77.402487648390846, 23.255520212713368 ], [ 77.402387644185993, 23.255532511475479 ], [ 77.402292223097419, 23.255540432792426 ], [ 77.402210860194899, 23.255552446135056 ], [ 77.401932011793718, 23.255599785937004 ], [ 77.401081676978549, 23.255752781489448 ], [ 77.400669556080743, 23.25584199976009 ], [ 77.400243269336585, 23.25588399293397 ], [ 77.398787183347821, 23.255915561727679 ] ] ] } },
{ "type": "Feature", "properties": { "segment": 2, "name": "Bhopal_2", "length_km": 1.32 }, "geometry": { "type": "MultiLineString", "coordinates": [ [ [ 77.399327638873288, 23.257396386007674 ], [ 77.399535482524371, 23.257510983333564 ], [ 77.399692887144781, 23.257609734542708 ], [ 77.399814573608481, 23.257760106321289 ], [ 77.40013583704301, 23.2578101665191 ], [ 77.400186539539121, 23.258045429767691 ], [ 77.400582984883229, 23.257989389563999 ], [ 77.400958324227958, 23.257957956147198 ], [ 77.4010758166784, 23.257945929029656 ], [ 77.401323823830239, 23.257956912973039 ], [ 77.401493568844089, 23.257979687791114 ], [ 77.402762592238119, 23.258027479844969 ], [ 77.403787505230781, 23.25803607011327 ], [ 77.404303184638607, 23.258049788800392 ], [ 77.404724221658611, 23.258208256248626 ], [ 77.405050778455575, 23.258266635648088 ], [ 77.404727577344687, 23.258203976166818 ], [ 77.404328387320106, 23.25805151704623 ], [ 77.404303633292315, 23.258042910343573 ], [ 77.404303512996961, 23.258004325600389 ], [ 77.404299968503381, 23.257583627525801 ], [ 77.404296463591038, 23.25728001744724 ], [ 77.404295744452966, 23.257093166829346 ], [ 77.404302487157551, 23.256316720319706 ], [ 77.403758676868932, 23.256276054866408 ], [ 77.403773102750904, 23.257080209819229 ], [ 77.403229574033801, 23.257094734486444 ], [ 77.40272614262301, 23.257071071504971 ], [ 77.401952805452481, 23.25707253169713 ], [ 77.401126801327521, 23.25706781827359 ], [ 77.401118650462109, 23.257068212171554 ], [ 77.40113516012066, 23.257485492593126 ], [ 77.401028231221559, 23.257582964506724 ], [ 77.401076399231385, 23.257945920117411 ], [ 77.400582152027411, 23.257988746152236 ], [ 77.4002773479409, 23.257075427258822 ], [ 77.40012231427356, 23.257041051966667 ], [ 77.400103930371074, 23.256307486794892 ], [ 77.400118303917111, 23.257044882129456 ], [ 77.399927594016134, 23.257068257752696 ], [ 77.399688804915726, 23.25723773768231 ], [ 77.399327579699616, 23.257396386912273 ] ] ] } },
{ "type": "Feature", "properties": { "segment": 3, "name": "Bhopal_3", "length_km": 1.12 }, "geometry": { "type": "MultiLineString", "coordinates": [ [ [ 77.403768128169915, 23.256271107811056 ], [ 77.404307936650568, 23.25630605146079 ], [ 77.405077581453114, 23.256271806236587 ], [ 77.405054509766231, 23.258261585762742 ], [ 77.405117484383481, 23.258419657211629 ], [ 77.405569470853237, 23.258574429234901 ], [ 77.405568624717532, 23.258755535476975 ], [ 77.404325910982934, 23.258754794583421 ], [ 77.404073527413914, 23.258761614051945 ], [ 77.403745980281428, 23.258775490789763 ], [ 77.403495248195085, 23.25877539317904 ], [ 77.403252315284206, 23.258774519466819 ], [ 77.402734864209762, 23.258754222571728 ], [ 77.402726818213566, 23.256311631079846 ], [ 77.403768271149616, 23.256271105621337 ] ] ] } },
{ "type": "Feature", "properties": { "segment": 4, "name": "Bhopal_4", "length_km": 1.89 }, "geometry": { "type": "MultiLineString", "coordinates": [ [ [ 77.398914996205548, 23.257190611428328 ], [ 77.398915578756174, 23.257190602524378 ], [ 77.398925786142044, 23.257239979815893 ], [ 77.39896228302068, 23.257455860977963 ], [ 77.39895600747235, 23.257626093027792 ], [ 77.398957330689925, 23.257895275532068 ], [ 77.398933706782401, 23.258268213192384 ], [ 77.398896041677006, 23.258507840917662 ], [ 77.398804357169638, 23.258724604466309 ], [ 77.398678489815168, 23.258984962861199 ], [ 77.398631944715547, 23.259119198798853 ], [ 77.398772915335869, 23.259181652850298 ], [ 77.398852947944235, 23.260136637525331 ], [ 77.398952721047053, 23.261022404346868 ], [ 77.398977686210543, 23.261375216562595 ], [ 77.398992901641279, 23.261443899835726 ], [ 77.399004034876342, 23.261544949825094 ], [ 77.399936994293739, 23.261578064365334 ], [ 77.401559329158971, 23.261579088778188 ], [ 77.401574278092852, 23.261437798018576 ], [ 77.401745221503731, 23.2614518572355 ], [ 77.40186107089383, 23.261574647270976 ], [ 77.401963212609488, 23.261594227247286 ], [ 77.401967038138991, 23.261286267057738 ], [ 77.401943767358631, 23.258967197145726 ], [ 77.402231338404135, 23.258924737672249 ], [ 77.402370510716082, 23.258735668559698 ], [ 77.402734531471168, 23.258755471849007 ], [ 77.40236946981733, 23.25873043431281 ], [ 77.402377342545037, 23.258565502070898 ], [ 77.402307774564676, 23.258487959889347 ], [ 77.402214904485774, 23.258410774336472 ], [ 77.402098744531187, 23.258399630538335 ], [ 77.40197389451717, 23.258391311673286 ], [ 77.401851808931781, 23.258407178610025 ], [ 77.401793611357078, 23.258411299669387 ], [ 77.40175525923226, 23.258417270629209 ], [ 77.401702964381812, 23.258425608562305 ], [ 77.40165674592572, 23.258447852016019 ], [ 77.401643603664311, 23.258754943792464 ], [ 77.400979322142035, 23.258756738899645 ], [ 77.400545756208587, 23.258766871280606 ], [ 77.399707184125958, 23.258795446081482 ], [ 77.399521331584424, 23.258782537146505 ], [ 77.399070718496304, 23.258774335868186 ], [ 77.39880672594667, 23.258726721882518 ], [ 77.398898371902447, 23.258507805300237 ], [ 77.39893133801236, 23.258266095777461 ], [ 77.398938191772544, 23.258128159224583 ], [ 77.398959815098991, 23.257903852044944 ], [ 77.398955968924312, 23.257623939995124 ], [ 77.39896232156849, 23.257458014010663 ], [ 77.398921164282058, 23.257242204080697 ], [ 77.398911537831239, 23.257177490404874 ], [ 77.398912723822818, 23.25719387659338 ] ] ] } },
{ "type": "Feature", "properties": { "segment": 5, "name": "Bhopal_5", "length_km": 1.41 }, "geometry": { "type": "MultiLineString", "coordinates": [ [ [ 77.40008072202869, 23.259587713887381 ], [ 77.400056581820493, 23.259776591380266 ], [ 77.399984570427392, 23.260091828754948 ], [ 77.39994702362516, 23.260269159198671 ], [ 77.399952449714988, 23.26041345632698 ], [ 77.399985988623513, 23.260488196083863 ], [ 77.400164670166845, 23.260576466627512 ], [ 77.400436969177747, 23.260709681643931 ], [ 77.400741386317534, 23.260864718090165 ], [ 77.400936437108584, 23.260915110954635 ], [ 77.400988304370827, 23.260929192936089 ], [ 77.401043477612404, 23.260942786803302 ], [ 77.40119191966474, 23.260981860769352 ], [ 77.401256601085791, 23.261023966317584 ], [ 77.401287042324697, 23.261044720008989 ], [ 77.401342871789396, 23.261081710783742 ], [ 77.401372911156045, 23.261132877907166 ], [ 77.401424589298756, 23.261215652501352 ], [ 77.40155351933538, 23.261434187099763 ], [ 77.401742956823142, 23.261449833001059 ], [ 77.40186005387875, 23.26157333978955 ], [ 77.401963686012778, 23.261594220001331 ], [ 77.401962921021848, 23.260929007407391 ], [ 77.402415416132229, 23.260906531960821 ], [ 77.402735610573018, 23.260805814147556 ], [ 77.402744322012879, 23.261115792973754 ], [ 77.403244721937966, 23.261201161329254 ], [ 77.403827330025322, 23.261276811479231 ], [ 77.403789384685581, 23.260947556712566 ], [ 77.404329712031966, 23.260962537025353 ], [ 77.404859017934555, 23.261000942015318 ], [ 77.404883738632634, 23.26046510709919 ], [ 77.404845805097352, 23.259499968484675 ], [ 77.403351500339667, 23.259499601556925 ], [ 77.402738009187914, 23.259487851944726 ], [ 77.401401745708171, 23.259495618390858 ], [ 77.400427170522491, 23.259510527776701 ], [ 77.400085221772187, 23.259583416397124 ] ] ] } },
{ "type": "Feature", "properties": { "segment": 6, "name": "Bhopal_6", "length_km": 0.54 }, "geometry": { "type": "MultiLineString", "coordinates": [ [ [ 77.404892432635165, 23.260475217938723 ], [ 77.404065693274944, 23.260471547063787 ], [ 77.403823718749251, 23.260467126472836 ], [ 77.403771223378939, 23.260482830417299 ], [ 77.403256107309275, 23.260452792708232 ], [ 77.402739622613623, 23.260470992889715 ], [ 77.402736399847157, 23.260014829893056 ], [ 77.402735220084054, 23.259487874817484 ], [ 77.403251530890884, 23.259502996341542 ], [ 77.403248387697147, 23.260002277790758 ], [ 77.403783448694398, 23.259979434203824 ], [ 77.404328427975855, 23.259998420891904 ], [ 77.404868371934967, 23.259992262152512 ], [ 77.404882351962854, 23.260475966247313 ] ] ] } },
{ "type": "Feature", "properties": { "segment": 7, "name": "Bhopal_7", "length_km": 1.27 }, "geometry": { "type": "MultiLineString", "coordinates": [ [ [ 77.401963836402075, 23.261594354422897 ], [ 77.403351647628568, 23.261566477133591 ], [ 77.404957168213784, 23.261559265560447 ], [ 77.404913254513744, 23.261381013506842 ], [ 77.405031787327943, 23.261313635686815 ], [ 77.405077511298288, 23.260649126934318 ], [ 77.4050571410164, 23.259514409266913 ], [ 77.405175498953255, 23.259313862747927 ], [ 77.405568592199174, 23.259014161614214 ], [ 77.405549324500726, 23.258892228886467 ], [ 77.405568391948108, 23.258755757801936 ], [ 77.404883780439008, 23.258750818151245 ], [ 77.404196499009899, 23.258757250472559 ], [ 77.403467244961504, 23.258772517735505 ], [ 77.402737476174536, 23.258759106390933 ], [ 77.402738425549444, 23.260798843116365 ], [ 77.40241666179287, 23.260900918558839 ], [ 77.401967420740547, 23.260924709865051 ], [ 77.401963866479946, 23.261594381307198 ] ] ] } },
{ "type": "Feature", "properties": { "segment": 8, "name": "Bhopal_8", "length_km": 0.86 }, "geometry": { "type": "MultiLineString", "coordinates": [ [ [ 77.401145350395353, 23.258755846403822 ], [ 77.401079426481289, 23.257961762526048 ], [ 77.4010149263231, 23.257579624603434 ], [ 77.401121897123133, 23.257485792352174 ], [ 77.401119257578884, 23.257059251865751 ], [ 77.401130339004737, 23.256306956165933 ], [ 77.401134271509704, 23.255949006682929 ], [ 77.401045704004673, 23.255708603698942 ], [ 77.401908255638062, 23.255584771742313 ], [ 77.401943052877385, 23.256289024544653 ], [ 77.401941455455727, 23.256694710272399 ], [ 77.401943410503051, 23.257051170556238 ], [ 77.401945039967288, 23.25800793247658 ], [ 77.401976605270363, 23.258396250428977 ], [ 77.401855607598307, 23.258407793481844 ], [ 77.40171177447921, 23.258413225036371 ], [ 77.401659937917458, 23.258447130164519 ], [ 77.401644862848016, 23.258760173969154 ], [ 77.401145315184223, 23.258755814930105 ] ] ] } }
]
}
