{
"type": "FeatureCollection",
"name": "bhopal_junctions",
"crs": { "type": "name", "properties": { "name": "urn:ogc:def:crs:EPSG::32643" } },
"features": [
{ "type": "Feature", "properties": { "path": "Bhopal_1", "jtype": "Y_or_T", "status": "confirmed", "R": 2.96, "arms": 3, "charge": -0.5 }, "geometry": { "type": "Point", "coordinates": [ 745474.785000000032596, 2574045.703000000212342 ] } },
{ "type": "Feature", "properties": { "path": "Bhopal_1", "jtype": "Y_or_T", "status": "confirmed", "R": 2.96, "arms": 3, "charge": -0.5 }, "geometry": { "type": "Point", "coordinates": [ 745426.533000000054017, 2574022.404999999795109 ] } },
{ "type": "Feature", "properties": { "path": "Bhopal_1", "jtype": "Y_or_T", "status": "confirmed", "R": 2.96, "arms": 3, "charge": -0.5 }, "geometry": { "type": "Point", "coordinates": [ 745552.533000000054017, 2574008.004999999888241 ] } },
{ "type": "Feature", "properties": { "path": "Bhopal_1", "jtype": "ambiguous", "status": "confirmed", "R": 2.96, "arms": 2, "charge": 0.0 }, "geometry": { "type": "Point", "coordinates": [ 745551.781000000075437, 2573953.673 ] } },
{ "type": "Feature", "properties": { "path": "Bhopal_1", "jtype": "plus", "status": "confirmed", "R": 2.96, "arms": 3, "charge": -0.5 }, "geometry": { "type": "Point", "coordinates": [ 746058.9330000000773, 2573928.504999999888241 ] } },
{ "type": "Feature", "properties": { "path": "Bhopal_1", "jtype": "plus", "status": "confirmed", "R": 2.96, "arms": 4, "charge": -0.5 }, "geometry": { "type": "Point", "coordinates": [ 745928.733, 2573928.504999999888241 ] } },
{ "type": "Feature", "properties": { "path": "Bhopal_1", "jtype": "Y_or_T", "status": "confirmed", "R": 2.96, "arms": 3, "charge": -0.5 }, "geometry": { "type": "Point", "coordinates": [ 745553.4330000000773, 2573925.504999999888241 ] } },
{ "type": "Feature", "properties": { "path": "Bhopal_1", "jtype": "Y_or_T", "status": "confirmed", "R": 2.96, "arms": 3, "charge": -0.5 }, "geometry": { "type": "Point", "coordinates": [ 745980.876000000047497, 2573931.444999999832362 ] } },
{ "type": "Feature", "properties": { "path": "Bhopal_1", "jtype": "Y_or_T", "status": "confirmed", "R": 2.96, "arms": 2, "charge": 0.5 }, "geometry": { "type": "Point", "coordinates": [ 746010.865, 2573928.105 ] } },
{ "type": "Feature", "properties": { "path": "Bhopal_1", "jtype": "Y_or_T", "status": "confirmed", "R": 2.96, "arms": 3, "charge": -0.5 }, "geometry": { "type": "Point", "coordinates": [ 745868.733, 2573929.705 ] } },
{ "type": "Feature", "properties": { "path": "Bhopal_1", "jtype": "Y_or_T", "status": "confirmed", "R": 2.96, "arms": 2, "charge": 0.5 }, "geometry": { "type": "Point", "coordinates": [ 745861.047000000020489, 2573925.379999999888241 ] } },
{ "type": "Feature", "properties": { "path": "Bhopal_1", "jtype": "plus", "status": "confirmed", "R": 2.96, "arms": 4, "charge": -0.5 }, "geometry": { "type": "Point", "coordinates": [ 745821.108, 2573925.992999999783933 ] } },
{ "type": "Feature", "properties": { "path": "Bhopal_1", "jtype": "Y_or_T", "status": "confirmed", "R": 2.96, "arms": 2, "charge": -0.5 }, "geometry": { "type": "Point", "coordinates": [ 746051.733, 2573870.305000000167638 ] } },
{ "type": "Feature", "properties": { "path": "Bhopal_1", "jtype": "Y_or_T", "status": "confirmed", "R": 2.96, "arms": 3, "charge": -0.5 }, "geometry": { "type": "Point", "coordinates": [ 745922.733, 2573813.004999999888241 ] } },
{ "type": "Feature", "properties": { "path": "Bhopal_1", "jtype": "Y_or_T", "status": "confirmed", "R": 2.96, "arms": 1, "charge": -0.5 }, "geometry": { "type": "Point", "coordinates": [ 746053.833000000100583, 2573804.004999999888241 ] } },
{ "type": "Feature", "properties": { "path": "Bhopal_1", "jtype": "Y_or_T", "status": "confirmed", "R": 2.96, "arms": 1, "charge": -0.5 }, "geometry": { "type": "Point", "coordinates": [ 746034.333000000100583, 2573791.254999999888241 ] } },
{ "type": "Feature", "properties": { "path": "Bhopal_1", "jtype": "Y_or_T", "status": "confirmed", "R": 2.96, "arms": 1, "charge": -0.5 }, "geometry": { "type": "Point", "coordinates": [ 746051.583000000100583, 2573788.855 ] } },
{ "type": "Feature", "properties": { "path": "Bhopal_1", "jtype": "Y_or_T", "status": "confirmed", "R": 2.96, "arms": 2, "charge": -0.5 }, "geometry": { "type": "Point", "coordinates": [ 746028.1830000000773, 2573778.955 ] } },
{ "type": "Feature", "properties": { "path": "Bhopal_1", "jtype": "plus", "status": "confirmed", "R": 3.74, "arms": 4, "charge": -0.5 }, "geometry": { "type": "Point", "coordinates": [ 745740.1830000000773, 2573928.654999999795109 ] } },
{ "type": "Feature", "properties": { "path": "Bhopal_1", "jtype": "Y_or_T", "status": "confirmed", "R": 3.39, "arms": 3, "charge": -0.5 }, "geometry": { "type": "Point", "coordinates": [ 745656.333000000100583, 2573928.205 ] } },
{ "type": "Feature", "properties": { "path": "Bhopal_1", "jtype": "Y_or_T", "status": "confirmed", "R": 4.37, "arms": 2, "charge": 0.5 }, "geometry": { "type": "Point", "coordinates": [ 745628.733, 2573870.305000000167638 ] } },
{ "type": "Feature", "properties": { "path": "Bhopal_1", "jtype": "Y_or_T", "status": "discovered", "R": 3.33, "arms": 3, "charge": 0.5 }, "geometry": { "type": "Point", "coordinates": [ 745929.195000000065193, 2573937.467999999877065 ] } },
{ "type": "Feature", "properties": { "path": "Bhopal_1", "jtype": "Y_or_T", "status": "discovered", "R": 2.96, "arms": 3, "charge": 0.5 }, "geometry": { "type": "Point", "coordinates": [ 745927.874000000068918, 2573920.219 ] } },
{ "type": "Feature", "properties": { "path": "Bhopal_1", "jtype": "Y_or_T", "status": "discovered", "R": 2.96, "arms": 3, "charge": 0.5 }, "geometry": { "type": "Point", "coordinates": [ 745739.087999999988824, 2573935.534 ] } },
{ "type": "Feature", "properties": { "path": "Bhopal_2", "jtype": "plus", "status": "confirmed", "R": 2.0, "arms": 4, "charge": -0.5 }, "geometry": { "type": "Point", "coordinates": [ 746056.354999999981374, 2574147.518000000156462 ] } },
{ "type": "Feature", "properties": { "path": "Bhopal_2", "jtype": "Y_or_T", "status": "confirmed", "R": 2.0, "arms": 3, "charge": -0.5 }, "geometry": { "type": "Point", "coordinates": [ 746033.255, 2574148.418 ] } },
{ "type": "Feature", "properties": { "path": "Bhopal_2", "jtype": "Y_or_T", "status": "confirmed", "R": 2.0, "arms": 2, "charge": -0.5 }, "geometry": { "type": "Point", "coordinates": [ 746013.45499999995809, 2574140.617999999783933 ] } },
{ "type": "Feature", "properties": { "path": "Bhopal_2", "jtype": "Y_or_T", "status": "confirmed", "R": 2.0, "arms": 3, "charge": -0.5 }, "geometry": { "type": "Point", "coordinates": [ 746005.354999999981374, 2574136.418 ] } },
{ "type": "Feature", "properties": { "path": "Bhopal_2", "jtype": "plus", "status": "confirmed", "R": 2.0, "arms": 2, "charge": -0.5 }, "geometry": { "type": "Point", "coordinates": [ 745979.854999999981374, 2574129.217999999877065 ] } },
{ "type": "Feature", "properties": { "path": "Bhopal_2", "jtype": "Y_or_T", "status": "confirmed", "R": 2.89, "arms": 2, "charge": 0.5 }, "geometry": { "type": "Point", "coordinates": [ 745817.37, 2574131.776 ] } },
{ "type": "Feature", "properties": { "path": "Bhopal_2", "jtype": "plus", "status": "confirmed", "R": 2.0, "arms": 4, "charge": -0.5 }, "geometry": { "type": "Point", "coordinates": [ 745818.005, 2574120.367999999783933 ] } },
{ "type": "Feature", "properties": { "path": "Bhopal_2", "jtype": "plus", "status": "confirmed", "R": 2.0, "arms": 4, "charge": -0.5 }, "geometry": { "type": "Point", "coordinates": [ 745925.404999999911524, 2574122.768000000156462 ] } },
{ "type": "Feature", "properties": { "path": "Bhopal_2", "jtype": "plus", "status": "confirmed", "R": 2.0, "arms": 3, "charge": -0.5 }, "geometry": { "type": "Point", "coordinates": [ 745977.154999999911524, 2574125.018000000156462 ] } },
{ "type": "Feature", "properties": { "path": "Bhopal_2", "jtype": "Y_or_T", "status": "confirmed", "R": 2.0, "arms": 3, "charge": -0.5 }, "geometry": { "type": "Point", "coordinates": [ 745552.654999999911524, 2574116.318 ] } },
{ "type": "Feature", "properties": { "path": "Bhopal_2", "jtype": "Y_or_T", "status": "confirmed", "R": 2.0, "arms": 3, "charge": -0.5 }, "geometry": { "type": "Point", "coordinates": [ 745980.154999999911524, 2573999.018000000156462 ] } },
{ "type": "Feature", "properties": { "path": "Bhopal_2", "jtype": "plus", "status": "confirmed", "R": 2.0, "arms": 3, "charge": -0.5 }, "geometry": { "type": "Point", "coordinates": [ 745738.654999999911524, 2574118.717999999877065 ] } },
{ "type": "Feature", "properties": { "path": "Bhopal_2", "jtype": "Y_or_T", "status": "confirmed", "R": 2.0, "arms": 3, "charge": -0.5 }, "geometry": { "type": "Point", "coordinates": [ 745612.054999999934807, 2574113.018000000156462 ] } },
{ "type": "Feature", "properties": { "path": "Bhopal_2", "jtype": "Y_or_T", "status": "confirmed", "R": 2.0, "arms": 3, "charge": -0.5 }, "geometry": { "type": "Point", "coordinates": [ 745597.054999999934807, 2574111.818 ] } },
{ "type": "Feature", "properties": { "path": "Bhopal_2", "jtype": "Y_or_T", "status": "confirmed", "R": 2.0, "arms": 3, "charge": -0.5 }, "geometry": { "type": "Point", "coordinates": [ 745547.854999999981374, 2574092.918 ] } },
{ "type": "Feature", "properties": { "path": "Bhopal_2", "jtype": "plus", "status": "confirmed", "R": 2.0, "arms": 3, "charge": -0.5 }, "geometry": { "type": "Point", "coordinates": [ 745648.654999999911524, 2574109.717999999877065 ] } },
{ "type": "Feature", "properties": { "path": "Bhopal_2", "jtype": "Y_or_T", "status": "confirmed", "R": 2.0, "arms": 3, "charge": -0.5 }, "geometry": { "type": "Point", "coordinates": [ 745655.854999999981374, 2574009.518000000156462 ] } },
{ "type": "Feature", "properties": { "path": "Bhopal_2", "jtype": "Y_or_T", "status": "confirmed", "R": 2.0, "arms": 3, "charge": -0.5 }, "geometry": { "type": "Point", "coordinates": [ 745519.354999999981374, 2574087.217999999877065 ] } },
{ "type": "Feature", "properties": { "path": "Bhopal_2", "jtype": "Y_or_T", "status": "confirmed", "R": 2.0, "arms": 3, "charge": -0.5 }, "geometry": { "type": "Point", "coordinates": [ 745497.309999999939464, 2574059.543 ] } },
{ "type": "Feature", "properties": { "path": "Bhopal_2", "jtype": "Y_or_T", "status": "confirmed", "R": 2.0, "arms": 3, "charge": -0.5 }, "geometry": { "type": "Point", "coordinates": [ 745472.854999999981374, 2574046.117999999783933 ] } },
{ "type": "Feature", "properties": { "path": "Bhopal_2", "jtype": "Y_or_T", "status": "confirmed", "R": 2.0, "arms": 3, "charge": -0.5 }, "geometry": { "type": "Point", "coordinates": [ 745578.755, 2574043.117999999783933 ] } },
{ "type": "Feature", "properties": { "path": "Bhopal_2", "jtype": "Y_or_T", "status": "confirmed", "R": 2.0, "arms": 3, "charge": -0.5 }, "geometry": { "type": "Point", "coordinates": [ 745552.054999999934807, 2574008.318 ] } },
{ "type": "Feature", "properties": { "path": "Bhopal_2", "jtype": "Y_or_T", "status": "confirmed", "R": 2.0, "arms": 3, "charge": -0.5 }, "geometry": { "type": "Point", "coordinates": [ 745924.95499999995809, 2574016.717999999877065 ] } },
{ "type": "Feature", "properties": { "path": "Bhopal_2", "jtype": "plus", "status": "confirmed", "R": 2.0, "arms": 3, "charge": -0.5 }, "geometry": { "type": "Point", "coordinates": [ 745819.505, 2574014.768000000156462 ] } },
{ "type": "Feature", "properties": { "path": "Bhopal_2", "jtype": "Y_or_T", "status": "confirmed", "R": 2.0, "arms": 3, "charge": -0.5 }, "geometry": { "type": "Point", "coordinates": [ 745887.605999999912456, 2574014.852 ] } },
{ "type": "Feature", "properties": { "path": "Bhopal_2", "jtype": "plus", "status": "confirmed", "R": 2.0, "arms": 4, "charge": -0.5 }, "geometry": { "type": "Point", "coordinates": [ 745927.054999999934807, 2573927.918 ] } },
{ "type": "Feature", "properties": { "path": "Bhopal_2", "jtype": "Y_or_T", "status": "confirmed", "R": 2.0, "arms": 3, "charge": -0.5 }, "geometry": { "type": "Point", "coordinates": [ 745551.755, 2573954.318 ] } },
{ "type": "Feature", "properties": { "path": "Bhopal_2", "jtype": "Y_or_T", "status": "confirmed", "R": 2.0, "arms": 3, "charge": -0.5 }, "geometry": { "type": "Point", "coordinates": [ 745979.255, 2573932.418 ] } },
{ "type": "Feature", "properties": { "path": "Bhopal_2", "jtype": "Y_or_T", "status": "confirmed", "R": 2.0, "arms": 3, "charge": -0.5 }, "geometry": { "type": "Point", "coordinates": [ 745552.654999999911524, 2573926.117999999783933 ] } },
{ "type": "Feature", "properties": { "path": "Bhopal_2", "jtype": "plus", "status": "confirmed", "R": 4.88, "arms": 4, "charge": -0.5 }, "geometry": { "type": "Point", "coordinates": [ 745866.904999999911524, 2574015.068 ] } },
{ "type": "Feature", "properties": { "path": "Bhopal_2", "jtype": "plus", "status": "confirmed", "R": 3.39, "arms": 4, "charge": -0.5 }, "geometry": { "type": "Point", "coordinates": [ 745736.854999999981374, 2574013.717999999877065 ] } },
{ "type": "Feature", "properties": { "path": "Bhopal_2", "jtype": "Y_or_T", "status": "discovered", "R": 5.99, "arms": 3, "charge": -0.5 }, "geometry": { "type": "Point", "coordinates": [ 745869.218, 2574123.168 ] } },
{ "type": "Feature", "properties": { "path": "Bhopal_3", "jtype": "Y_or_T", "status": "confirmed", "R": 2.51, "arms": 3, "charge": -0.5 }, "geometry": { "type": "Point", "coordinates": [ 746105.94800000009127, 2574206.799000000115484 ] } },
{ "type": "Feature", "properties": { "path": "Bhopal_3", "jtype": "Y_or_T", "status": "confirmed", "R": 2.51, "arms": 3, "charge": -0.5 }, "geometry": { "type": "Point", "coordinates": [ 746107.150000000023283, 2574182.220000000204891 ] } },
{ "type": "Feature", "properties": { "path": "Bhopal_3", "jtype": "ambiguous", "status": "confirmed", "R": 2.51, "arms": 2, "charge": 0.0 }, "geometry": { "type": "Point", "coordinates": [ 745870.335000000079162, 2574203.338 ] } },
{ "type": "Feature", "properties": { "path": "Bhopal_3", "jtype": "Y_or_T", "status": "confirmed", "R": 2.51, "arms": 2, "charge": -0.5 }, "geometry": { "type": "Point", "coordinates": [ 745817.350000000093132, 2574200.220000000204891 ] } },
{ "type": "Feature", "properties": { "path": "Bhopal_3", "jtype": "Y_or_T", "status": "confirmed", "R": 2.51, "arms": 2, "charge": 0.5 }, "geometry": { "type": "Point", "coordinates": [ 745925.361000000033528, 2574202.070000000298023 ] } },
{ "type": "Feature", "properties": { "path": "Bhopal_3", "jtype": "Y_or_T", "status": "confirmed", "R": 2.51, "arms": 3, "charge": -0.5 }, "geometry": { "type": "Point", "coordinates": [ 745818.591000000014901, 2574067.49100000038743 ] } },
{ "type": "Feature", "properties": { "path": "Bhopal_3", "jtype": "plus", "status": "confirmed", "R": 2.51, "arms": 4, "charge": 0.0 }, "geometry": { "type": "Point", "coordinates": [ 746058.550000000046566, 2573929.620000000111759 ] } },
{ "type": "Feature", "properties": { "path": "Bhopal_3", "jtype": "Y_or_T", "status": "confirmed", "R": 2.51, "arms": 2, "charge": -0.5 }, "geometry": { "type": "Point", "coordinates": [ 745980.889000000082888, 2573932.049000000115484 ] } },
{ "type": "Feature", "properties": { "path": "Bhopal_3", "jtype": "plus", "status": "confirmed", "R": 2.51, "arms": 4, "charge": -0.5 }, "geometry": { "type": "Point", "coordinates": [ 745928.200000000069849, 2573928.420000000391155 ] } },
{ "type": "Feature", "properties": { "path": "Bhopal_3", "jtype": "Y_or_T", "status": "confirmed", "R": 2.51, "arms": 3, "charge": -0.5 }, "geometry": { "type": "Point", "coordinates": [ 745867.494000000064261, 2573929.354000000283122 ] } },
{ "type": "Feature", "properties": { "path": "Bhopal_3", "jtype": "Y_or_T", "status": "confirmed", "R": 2.51, "arms": 2, "charge": -0.5 }, "geometry": { "type": "Point", "coordinates": [ 745862.050000000046566, 2573926.320000000298023 ] } },
{ "type": "Feature", "properties": { "path": "Bhopal_3", "jtype": "Y_or_T", "status": "confirmed", "R": 2.51, "arms": 3, "charge": -0.5 }, "geometry": { "type": "Point", "coordinates": [ 745927.450000000069849, 2573875.02 ] } },
{ "type": "Feature", "properties": { "path": "Bhopal_3", "jtype": "Y_or_T", "status": "confirmed", "R": 3.01, "arms": 3, "charge": -0.5 }, "geometry": { "type": "Point", "coordinates": [ 745821.51300000003539, 2573931.345000000204891 ] } },
{ "type": "Feature", "properties": { "path": "Bhopal_3", "jtype": "Y_or_T", "status": "confirmed", "R": 8.55, "arms": 2, "charge": -0.5 }, "geometry": { "type": "Point", "coordinates": [ 746057.800000000046566, 2574151.470000000204891 ] } },
{ "type": "Feature", "properties": { "path": "Bhopal_3", "jtype": "plus", "status": "discovered", "R": 6.29, "arms": 3, "charge": -0.0 }, "geometry": { "type": "Point", "coordinates": [ 746066.115000000107102, 2573970.180000000167638 ] } },
{ "type": "Feature", "properties": { "path": "Bhopal_3", "jtype": "Y_or_T", "status": "discovered", "R": 3.67, "arms": 3, "charge": 0.0 }, "geometry": { "type": "Point", "coordinates": [ 745980.445000000065193, 2574206.371000000275671 ] } },
{ "type": "Feature", "properties": { "path": "Bhopal_4", "jtype": "Y_or_T", "status": "confirmed", "R": 2.53, "arms": 3, "charge": -0.5 }, "geometry": { "type": "Point", "coordinates": [ 745739.466000000014901, 2574518.494 ] } },
{ "type": "Feature", "properties": { "path": "Bhopal_4", "jtype": "Y_or_T", "status": "confirmed", "R": 2.53, "arms": 3, "charge": -0.5 }, "geometry": { "type": "Point", "coordinates": [ 745691.165999999968335, 2574495.994 ] } },
{ "type": "Feature", "properties": { "path": "Bhopal_4", "jtype": "Y_or_T", "status": "confirmed", "R": 2.53, "arms": 2, "charge": -0.5 }, "geometry": { "type": "Point", "coordinates": [ 745433.165999999968335, 2574511.293999999761581 ] } },
{ "type": "Feature", "properties": { "path": "Bhopal_4", "jtype": "ambiguous", "status": "confirmed", "R": 2.53, "arms": 2, "charge": 0.0 }, "geometry": { "type": "Point", "coordinates": [ 745738.865999999921769, 2574377.193999999668449 ] } },
{ "type": "Feature", "properties": { "path": "Bhopal_4", "jtype": "Y_or_T", "status": "confirmed", "R": 2.53, "arms": 3, "charge": -0.5 }, "geometry": { "type": "Point", "coordinates": [ 745739.131999999983236, 2574334.69 ] } },
{ "type": "Feature", "properties": { "path": "Bhopal_4", "jtype": "Y_or_T", "status": "confirmed", "R": 2.53, "arms": 3, "charge": -0.5 }, "geometry": { "type": "Point", "coordinates": [ 745737.066, 2574281.494 ] } },
{ "type": "Feature", "properties": { "path": "Bhopal_4", "jtype": "Y_or_T", "status": "confirmed", "R": 2.53, "arms": 3, "charge": 0.5 }, "geometry": { "type": "Point", "coordinates": [ 745394.765999999945052, 2574239.193999999668449 ] } },
{ "type": "Feature", "properties": { "path": "Bhopal_4", "jtype": "Y_or_T", "status": "confirmed", "R": 2.53, "arms": 3, "charge": -0.5 }, "geometry": { "type": "Point", "coordinates": [ 745735.865999999921769, 2574228.994 ] } },
{ "type": "Feature", "properties": { "path": "Bhopal_4", "jtype": "Y_or_T", "status": "confirmed", "R": 2.53, "arms": 3, "charge": -0.5 }, "geometry": { "type": "Point", "coordinates": [ 745409.466000000014901, 2574193.594 ] } },
{ "type": "Feature", "properties": { "path": "Bhopal_4", "jtype": "Y_or_T", "status": "confirmed", "R": 2.53, "arms": 3, "charge": -0.5 }, "geometry": { "type": "Point", "coordinates": [ 745782.365999999921769, 2574198.094 ] } },
{ "type": "Feature", "properties": { "path": "Bhopal_4", "jtype": "ambiguous", "status": "confirmed", "R": 3.75, "arms": 2, "charge": -0.0 }, "geometry": { "type": "Point", "coordinates": [ 745688.691, 2574204.244 ] } },
{ "type": "Feature", "properties": { "path": "Bhopal_4", "jtype": "Y_or_T", "status": "confirmed", "R": 3.36, "arms": 2, "charge": -0.5 }, "geometry": { "type": "Point", "coordinates": [ 745736.973, 2574161.697999999858439 ] } },
{ "type": "Feature", "properties": { "path": "Bhopal_4", "jtype": "ambiguous", "status": "confirmed", "R": 2.53, "arms": 2, "charge": 0.0 }, "geometry": { "type": "Point", "coordinates": [ 745653.870999999926426, 2574202.259999999776483 ] } },
{ "type": "Feature", "properties": { "path": "Bhopal_4", "jtype": "Y_or_T", "status": "confirmed", "R": 2.53, "arms": 2, "charge": -0.5 }, "geometry": { "type": "Point", "coordinates": [ 745551.382999999914318, 2574199.571999999694526 ] } },
{ "type": "Feature", "properties": { "path": "Bhopal_4", "jtype": "Y_or_T", "status": "confirmed", "R": 3.04, "arms": 3, "charge": -0.5 }, "geometry": { "type": "Point", "coordinates": [ 745690.204000000027008, 2574509.666999999899417 ] } },
{ "type": "Feature", "properties": { "path": "Bhopal_4", "jtype": "Y_or_T", "status": "confirmed", "R": 3.04, "arms": 3, "charge": -0.5 }, "geometry": { "type": "Point", "coordinates": [ 745704.875, 2574200.582 ] } },
{ "type": "Feature", "properties": { "path": "Bhopal_4", "jtype": "ambiguous", "status": "confirmed", "R": 3.04, "arms": 2, "charge": 0.0 }, "geometry": { "type": "Point", "coordinates": [ 745739.355999999912456, 2574149.74599999981001 ] } },
{ "type": "Feature", "properties": { "path": "Bhopal_4", "jtype": "Y_or_T", "status": "confirmed", "R": 3.04, "arms": 3, "charge": -0.5 }, "geometry": { "type": "Point", "coordinates": [ 745742.642999999923632, 2574145.429 ] } },
{ "type": "Feature", "properties": { "path": "Bhopal_4", "jtype": "Y_or_T", "status": "confirmed", "R": 6.0, "arms": 2, "charge": -0.5 }, "geometry": { "type": "Point", "coordinates": [ 745400.466000000014901, 2574244.594 ] } },
{ "type": "Feature", "properties": { "path": "Bhopal_4", "jtype": "plus", "status": "confirmed", "R": 3.19, "arms": 3, "charge": -0.5 }, "geometry": { "type": "Point", "coordinates": [ 745817.765999999945052, 2574200.494 ] } },
{ "type": "Feature", "properties": { "path": "Bhopal_5", "jtype": "Y_or_T", "status": "confirmed", "R": 1.78, "arms": 3, "charge": -0.5 }, "geometry": { "type": "Point", "coordinates": [ 745691.090000000083819, 2574512.390999999828637 ] } },
{ "type": "Feature", "properties": { "path": "Bhopal_5", "jtype": "plus", "status": "confirmed", "R": 1.78, "arms": 4, "charge": -0.5 }, "geometry": { "type": "Point", "coordinates": [ 745740.065000000060536, 2574517.866 ] } },
{ "type": "Feature", "properties": { "path": "Bhopal_5", "jtype": "Y_or_T", "status": "confirmed", "R": 1.78, "arms": 3, "charge": -0.5 }, "geometry": { "type": "Point", "coordinates": [ 745740.290000000037253, 2574441.890999999828637 ] } },
{ "type": "Feature", "properties": { "path": "Bhopal_5", "jtype": "plus", "status": "confirmed", "R": 1.78, "arms": 3, "charge": -0.5 }, "geometry": { "type": "Point", "coordinates": [ 745692.440000000060536, 2574495.290999999735504 ] } },
{ "type": "Feature", "properties": { "path": "Bhopal_5", "jtype": "Y_or_T", "status": "confirmed", "R": 1.78, "arms": 3, "charge": -0.5 }, "geometry": { "type": "Point", "coordinates": [ 745660.610000000102445, 2574448.972 ] } },
{ "type": "Feature", "properties": { "path": "Bhopal_5", "jtype": "Y_or_T", "status": "confirmed", "R": 1.78, "arms": 3, "charge": -0.5 }, "geometry": { "type": "Point", "coordinates": [ 745928.39000000001397, 2574472.790999999735504 ] } },
{ "type": "Feature", "properties": { "path": "Bhopal_5", "jtype": "Y_or_T", "status": "confirmed", "R": 1.78, "arms": 3, "charge": -0.5 }, "geometry": { "type": "Point", "coordinates": [ 745928.690000000060536, 2574447.290999999735504 ] } },
{ "type": "Feature", "properties": { "path": "Bhopal_5", "jtype": "Y_or_T", "status": "confirmed", "R": 1.78, "arms": 3, "charge": -0.5 }, "geometry": { "type": "Point", "coordinates": [ 745817.690000000060536, 2574459.290999999735504 ] } },
{ "type": "Feature", "properties": { "path": "Bhopal_5", "jtype": "Y_or_T", "status": "confirmed", "R": 1.78, "arms": 3, "charge": -0.5 }, "geometry": { "type": "Point", "coordinates": [ 745817.090000000083819, 2574431.390999999828637 ] } },
{ "type": "Feature", "properties": { "path": "Bhopal_5", "jtype": "Y_or_T", "status": "confirmed", "R": 1.78, "arms": 3, "charge": -0.5 }, "geometry": { "type": "Point", "coordinates": [ 746035.190000000060536, 2574446.991 ] } },
{ "type": "Feature", "properties": { "path": "Bhopal_5", "jtype": "Y_or_T", "status": "confirmed", "R": 1.78, "arms": 3, "charge": -0.5 }, "geometry": { "type": "Point", "coordinates": [ 745616.39000000001397, 2574436.491 ] } },
{ "type": "Feature", "properties": { "path": "Bhopal_5", "jtype": "plus", "status": "confirmed", "R": 1.78, "arms": 4, "charge": -1.0 }, "geometry": { "type": "Point", "coordinates": [ 746036.690000000060536, 2574389.991 ] } },
{ "type": "Feature", "properties": { "path": "Bhopal_5", "jtype": "Y_or_T", "status": "confirmed", "R": 1.78, "arms": 3, "charge": 0.5 }, "geometry": { "type": "Point", "coordinates": [ 745790.862000000081025, 2574440.866 ] } },
{ "type": "Feature", "properties": { "path": "Bhopal_5", "jtype": "Y_or_T", "status": "confirmed", "R": 1.78, "arms": 3, "charge": -0.5 }, "geometry": { "type": "Point", "coordinates": [ 745580.99, 2574419.091 ] } },
{ "type": "Feature", "properties": { "path": "Bhopal_5", "jtype": "Y_or_T", "status": "confirmed", "R": 1.78, "arms": 3, "charge": -0.5 }, "geometry": { "type": "Point", "coordinates": [ 745535.690000000060536, 2574392.091 ] } },
{ "type": "Feature", "properties": { "path": "Bhopal_5", "jtype": "plus", "status": "confirmed", "R": 1.78, "arms": 4, "charge": -0.5 }, "geometry": { "type": "Point", "coordinates": [ 746035.25, 2574336.051 ] } },
{ "type": "Feature", "properties": { "path": "Bhopal_5", "jtype": "Y_or_T", "status": "confirmed", "R": 1.78, "arms": 3, "charge": -0.5 }, "geometry": { "type": "Point", "coordinates": [ 745543.190000000060536, 2574288.591 ] } },
{ "type": "Feature", "properties": { "path": "Bhopal_5", "jtype": "Y_or_T", "status": "confirmed", "R": 1.78, "arms": 3, "charge": -0.5 }, "geometry": { "type": "Point", "coordinates": [ 746034.290000000037253, 2574287.691000000108033 ] } },
{ "type": "Feature", "properties": { "path": "Bhopal_5", "jtype": "plus", "status": "confirmed", "R": 1.78, "arms": 4, "charge": -0.5 }, "geometry": { "type": "Point", "coordinates": [ 745925.090000000083819, 2574283.191000000108033 ] } },
{ "type": "Feature", "properties": { "path": "Bhopal_5", "jtype": "plus", "status": "confirmed", "R": 1.78, "arms": 4, "charge": -0.5 }, "geometry": { "type": "Point", "coordinates": [ 745738.790000000037253, 2574282.890999999828637 ] } },
{ "type": "Feature", "properties": { "path": "Bhopal_5", "jtype": "Y_or_T", "status": "confirmed", "R": 1.78, "arms": 2, "charge": -0.5 }, "geometry": { "type": "Point", "coordinates": [ 745631.863000000012107, 2574281.983 ] } },
{ "type": "Feature", "properties": { "path": "Bhopal_5", "jtype": "plus", "status": "confirmed", "R": 1.78, "arms": 4, "charge": -0.5 }, "geometry": { "type": "Point", "coordinates": [ 745871.99, 2574283.191000000108033 ] } },
{ "type": "Feature", "properties": { "path": "Bhopal_5", "jtype": "Y_or_T", "status": "confirmed", "R": 1.78, "arms": 3, "charge": 0.5 }, "geometry": { "type": "Point", "coordinates": [ 745979.792000000015832, 2574280.233 ] } },
{ "type": "Feature", "properties": { "path": "Bhopal_5", "jtype": "Y_or_T", "status": "confirmed", "R": 1.78, "arms": 3, "charge": 0.0 }, "geometry": { "type": "Point", "coordinates": [ 745657.813000000081956, 2574284.395 ] } },
{ "type": "Feature", "properties": { "path": "Bhopal_5", "jtype": "Y_or_T", "status": "confirmed", "R": 1.78, "arms": 3, "charge": -0.5 }, "geometry": { "type": "Point", "coordinates": [ 745696.227000000071712, 2574283.287 ] } },
{ "type": "Feature", "properties": { "path": "Bhopal_5", "jtype": "Y_or_T", "status": "confirmed", "R": 1.78, "arms": 3, "charge": -0.0 }, "geometry": { "type": "Point", "coordinates": [ 745779.101000000024214, 2574282.992 ] } },
{ "type": "Feature", "properties": { "path": "Bhopal_5", "jtype": "Y_or_T", "status": "confirmed", "R": 2.14, "arms": 3, "charge": 0.5 }, "geometry": { "type": "Point", "coordinates": [ 745745.691, 2574518.410999999847263 ] } },
{ "type": "Feature", "properties": { "path": "Bhopal_5", "jtype": "plus", "status": "confirmed", "R": 3.24, "arms": 3, "charge": -0.5 }, "geometry": { "type": "Point", "coordinates": [ 745868.090000000083819, 2574467.991 ] } },
{ "type": "Feature", "properties": { "path": "Bhopal_5", "jtype": "Y_or_T", "status": "confirmed", "R": 2.55, "arms": 2, "charge": -0.5 }, "geometry": { "type": "Point", "coordinates": [ 745607.39000000001397, 2574432.290999999735504 ] } },
{ "type": "Feature", "properties": { "path": "Bhopal_5", "jtype": "Y_or_T", "status": "confirmed", "R": 2.42, "arms": 3, "charge": -0.5 }, "geometry": { "type": "Point", "coordinates": [ 745560.89000000001397, 2574406.790999999735504 ] } },
{ "type": "Feature", "properties": { "path": "Bhopal_5", "jtype": "plus", "status": "confirmed", "R": 3.74, "arms": 4, "charge": -0.5 }, "geometry": { "type": "Point", "coordinates": [ 745534.040000000037253, 2574368.841 ] } },
{ "type": "Feature", "properties": { "path": "Bhopal_5", "jtype": "Y_or_T", "status": "confirmed", "R": 3.35, "arms": 3, "charge": -0.5 }, "geometry": { "type": "Point", "coordinates": [ 745820.090000000083819, 2574280.790999999735504 ] } },
{ "type": "Feature", "properties": { "path": "Bhopal_6", "jtype": "plus", "status": "confirmed", "R": 1.78, "arms": 4, "charge": -0.5 }, "geometry": { "type": "Point", "coordinates": [ 745924.957999999984168, 2574388.648999999742955 ] } },
{ "type": "Feature", "properties": { "path": "Bhopal_6", "jtype": "Y_or_T", "status": "confirmed", "R": 1.78, "arms": 3, "charge": -0.5 }, "geometry": { "type": "Point", "coordinates": [ 745818.907999999937601, 2574388.648999999742955 ] } },
{ "type": "Feature", "properties": { "path": "Bhopal_6", "jtype": "plus", "status": "confirmed", "R": 1.78, "arms": 4, "charge": -1.0 }, "geometry": { "type": "Point", "coordinates": [ 746037.007999999914318, 2574389.548999999649823 ] } },
{ "type": "Feature", "properties": { "path": "Bhopal_6", "jtype": "plus", "status": "confirmed", "R": 1.78, "arms": 4, "charge": -0.5 }, "geometry": { "type": "Point", "coordinates": [ 746035.358, 2574335.699 ] } },
{ "type": "Feature", "properties": { "path": "Bhopal_6", "jtype": "Y_or_T", "status": "confirmed", "R": 1.78, "arms": 3, "charge": -0.5 }, "geometry": { "type": "Point", "coordinates": [ 745871.108, 2574335.849 ] } },
{ "type": "Feature", "properties": { "path": "Bhopal_6", "jtype": "Y_or_T", "status": "confirmed", "R": 1.78, "arms": 3, "charge": -0.5 }, "geometry": { "type": "Point", "coordinates": [ 745816.807999999960884, 2574333.148999999742955 ] } },
{ "type": "Feature", "properties": { "path": "Bhopal_6", "jtype": "plus", "status": "confirmed", "R": 1.78, "arms": 3, "charge": -0.5 }, "geometry": { "type": "Point", "coordinates": [ 745819.207999999984168, 2574281.849 ] } },
{ "type": "Feature", "properties": { "path": "Bhopal_6", "jtype": "Y_or_T", "status": "confirmed", "R": 2.13, "arms": 2, "charge": -0.5 }, "geometry": { "type": "Point", "coordinates": [ 745870.326, 2574285.940999999642372 ] } },
{ "type": "Feature", "properties": { "path": "Bhopal_6", "jtype": "plus", "status": "confirmed", "R": 4.48, "arms": 4, "charge": -0.5 }, "geometry": { "type": "Point", "coordinates": [ 745871.257999999914318, 2574389.998999999836087 ] } },
{ "type": "Feature", "properties": { "path": "Bhopal_6", "jtype": "plus", "status": "confirmed", "R": 4.8, "arms": 4, "charge": -0.5 }, "geometry": { "type": "Point", "coordinates": [ 745925.108, 2574336.298999999649823 ] } },
{ "type": "Feature", "properties": { "path": "Bhopal_7", "jtype": "Y_or_T", "status": "confirmed", "R": 2.27, "arms": 3, "charge": -0.5 }, "geometry": { "type": "Point", "coordinates": [ 745776.974000000045635, 2574518.214999999850988 ] } },
{ "type": "Feature", "properties": { "path": "Bhopal_7", "jtype": "Y_or_T", "status": "confirmed", "R": 2.27, "arms": 3, "charge": -0.5 }, "geometry": { "type": "Point", "coordinates": [ 746043.074000000022352, 2574515.514999999664724 ] } },
{ "type": "Feature", "properties": { "path": "Bhopal_7", "jtype": "Y_or_T", "status": "confirmed", "R": 2.27, "arms": 3, "charge": -0.5 }, "geometry": { "type": "Point", "coordinates": [ 745736.474000000045635, 2574516.114999999757856 ] } },
{ "type": "Feature", "properties": { "path": "Bhopal_7", "jtype": "Y_or_T", "status": "confirmed", "R": 2.27, "arms": 3, "charge": -0.5 }, "geometry": { "type": "Point", "coordinates": [ 745737.974000000045635, 2574440.514999999664724 ] } },
{ "type": "Feature", "properties": { "path": "Bhopal_7", "jtype": "Y_or_T", "status": "confirmed", "R": 2.27, "arms": 3, "charge": 0.5 }, "geometry": { "type": "Point", "coordinates": [ 745815.374000000068918, 2574431.214999999850988 ] } },
{ "type": "Feature", "properties": { "path": "Bhopal_7", "jtype": "Y_or_T", "status": "confirmed", "R": 2.27, "arms": 3, "charge": -0.5 }, "geometry": { "type": "Point", "coordinates": [ 745816.730000000097789, 2574333.753 ] } },
{ "type": "Feature", "properties": { "path": "Bhopal_7", "jtype": "Y_or_T", "status": "confirmed", "R": 2.27, "arms": 2, "charge": -0.5 }, "geometry": { "type": "Point", "coordinates": [ 746067.674, 2574280.315 ] } },
{ "type": "Feature", "properties": { "path": "Bhopal_7", "jtype": "plus", "status": "confirmed", "R": 2.27, "arms": 4, "charge": -0.5 }, "geometry": { "type": "Point", "coordinates": [ 745819.574000000022352, 2574281.214999999850988 ] } },
{ "type": "Feature", "properties": { "path": "Bhopal_7", "jtype": "plus", "status": "confirmed", "R": 2.27, "arms": 4, "charge": -0.5 }, "geometry": { "type": "Point", "coordinates": [ 745819.124000000068918, 2574200.665 ] } },
{ "type": "Feature", "properties": { "path": "Bhopal_7", "jtype": "Y_or_T", "status": "confirmed", "R": 2.27, "arms": 3, "charge": 0.5 }, "geometry": { "type": "Point", "coordinates": [ 746108.546000000089407, 2574230.184999999590218 ] } },
{ "type": "Feature", "properties": { "path": "Bhopal_7", "jtype": "Y_or_T", "status": "confirmed", "R": 2.27, "arms": 3, "charge": 0.0 }, "geometry": { "type": "Point", "coordinates": [ 746108.174, 2574207.415 ] } },
{ "type": "Feature", "properties": { "path": "Bhopal_7", "jtype": "Y_or_T", "status": "confirmed", "R": 2.27, "arms": 3, "charge": -0.5 }, "geometry": { "type": "Point", "coordinates": [ 745927.874000000068918, 2574202.915 ] } },
{ "type": "Feature", "properties": { "path": "Bhopal_7", "jtype": "Y_or_T", "status": "confirmed", "R": 2.27, "arms": 3, "charge": -0.5 }, "geometry": { "type": "Point", "coordinates": [ 745983.974000000045635, 2574203.214999999850988 ] } },
{ "type": "Feature", "properties": { "path": "Bhopal_7", "jtype": "Y_or_T", "status": "confirmed", "R": 2.27, "arms": 2, "charge": -0.5 }, "geometry": { "type": "Point", "coordinates": [ 745872.93100000009872, 2574203.197999999858439 ] } },
{ "type": "Feature", "properties": { "path": "Bhopal_7", "jtype": "ambiguous", "status": "confirmed", "R": 3.35, "arms": 2, "charge": 0.0 }, "geometry": { "type": "Point", "coordinates": [ 745821.374000000068918, 2574514.614999999757856 ] } },
{ "type": "Feature", "properties": { "path": "Bhopal_7", "jtype": "ambiguous", "status": "confirmed", "R": 4.37, "arms": 2, "charge": 0.0 }, "geometry": { "type": "Point", "coordinates": [ 745942.274000000092201, 2574514.014999999664724 ] } },
{ "type": "Feature", "properties": { "path": "Bhopal_7", "jtype": "plus", "status": "confirmed", "R": 5.53, "arms": 4, "charge": -0.5 }, "geometry": { "type": "Point", "coordinates": [ 746060.774000000092201, 2574340.014999999664724 ] } },
{ "type": "Feature", "properties": { "path": "Bhopal_8", "jtype": "Y_or_T", "status": "confirmed", "R": 2.01, "arms": 3, "charge": -0.5 }, "geometry": { "type": "Point", "coordinates": [ 745654.535999999963678, 2574200.484000000171363 ] } },
{ "type": "Feature", "properties": { "path": "Bhopal_8", "jtype": "Y_or_T", "status": "confirmed", "R": 2.01, "arms": 3, "charge": -0.5 }, "geometry": { "type": "Point", "coordinates": [ 745688.736000000033528, 2574201.384 ] } },
{ "type": "Feature", "properties": { "path": "Bhopal_8", "jtype": "plus", "status": "confirmed", "R": 2.01, "arms": 4, "charge": -0.5 }, "geometry": { "type": "Point", "coordinates": [ 745649.135999999940395, 2574110.784 ] } },
{ "type": "Feature", "properties": { "path": "Bhopal_8", "jtype": "Y_or_T", "status": "confirmed", "R": 2.01, "arms": 2, "charge": -0.5 }, "geometry": { "type": "Point", "coordinates": [ 745704.635999999940395, 2574167.784 ] } },
{ "type": "Feature", "properties": { "path": "Bhopal_8", "jtype": "Y_or_T", "status": "confirmed", "R": 2.01, "arms": 3, "charge": -0.5 }, "geometry": { "type": "Point", "coordinates": [ 745739.135999999940395, 2574141.083999999798834 ] } },
{ "type": "Feature", "properties": { "path": "Bhopal_8", "jtype": "plus", "status": "confirmed", "R": 2.01, "arms": 4, "charge": -0.5 }, "geometry": { "type": "Point", "coordinates": [ 745738.535999999963678, 2574118.134 ] } },
{ "type": "Feature", "properties": { "path": "Bhopal_8", "jtype": "Y_or_T", "status": "confirmed", "R": 2.01, "arms": 3, "charge": -0.5 }, "geometry": { "type": "Point", "coordinates": [ 745738.236000000033528, 2574089.484000000171363 ] } },
{ "type": "Feature", "properties": { "path": "Bhopal_8", "jtype": "Y_or_T", "status": "confirmed", "R": 2.01, "arms": 3, "charge": -0.5 }, "geometry": { "type": "Point", "coordinates": [ 745655.135999999940395, 2574010.284 ] } },
{ "type": "Feature", "properties": { "path": "Bhopal_8", "jtype": "plus", "status": "confirmed", "R": 2.01, "arms": 4, "charge": -0.5 }, "geometry": { "type": "Point", "coordinates": [ 745737.035999999963678, 2574014.183999999891967 ] } },
{ "type": "Feature", "properties": { "path": "Bhopal_8", "jtype": "plus", "status": "confirmed", "R": 2.01, "arms": 4, "charge": -0.5 }, "geometry": { "type": "Point", "coordinates": [ 745739.435999999986961, 2573961.683999999891967 ] } },
{ "type": "Feature", "properties": { "path": "Bhopal_8", "jtype": "plus", "status": "confirmed", "R": 2.01, "arms": 4, "charge": -0.5 }, "geometry": { "type": "Point", "coordinates": [ 745737.935999999986961, 2573956.884 ] } },
{ "type": "Feature", "properties": { "path": "Bhopal_8", "jtype": "plus", "status": "confirmed", "R": 2.01, "arms": 4, "charge": -0.5 }, "geometry": { "type": "Point", "coordinates": [ 745739.135999999940395, 2573928.984000000171363 ] } },
{ "type": "Feature", "properties": { "path": "Bhopal_8", "jtype": "Y_or_T", "status": "confirmed", "R": 2.01, "arms": 3, "charge": -0.5 }, "geometry": { "type": "Point", "coordinates": [ 745653.935999999986961, 2573949.683999999891967 ] } },
{ "type": "Feature", "properties": { "path": "Bhopal_8", "jtype": "plus", "status": "confirmed", "R": 2.01, "arms": 4, "charge": -0.5 }, "geometry": { "type": "Point", "coordinates": [ 745654.236000000033528, 2573928.984000000171363 ] } },
{ "type": "Feature", "properties": { "path": "Bhopal_8", "jtype": "Y_or_T", "status": "confirmed", "R": 2.01, "arms": 3, "charge": -0.5 }, "geometry": { "type": "Point", "coordinates": [ 745647.635999999940395, 2573868.083999999798834 ] } },
{ "type": "Feature", "properties": { "path": "Bhopal_8", "jtype": "plus", "status": "confirmed", "R": 2.01, "arms": 4, "charge": -0.5 }, "geometry": { "type": "Point", "coordinates": [ 745735.535999999963678, 2573850.083999999798834 ] } },
{ "type": "Feature", "properties": { "path": "Bhopal_8", "jtype": "Y_or_T", "status": "confirmed", "R": 2.01, "arms": 3, "charge": -0.5 }, "geometry": { "type": "Point", "coordinates": [ 745694.135999999940395, 2573855.484000000171363 ] } },
{ "type": "Feature", "properties": { "path": "Bhopal_8", "jtype": "Y_or_T", "status": "confirmed", "R": 2.01, "arms": 3, "charge": -0.5 }, "geometry": { "type": "Point", "coordinates": [ 745774.836000000010245, 2573842.583999999798834 ] } },
{ "type": "Feature", "properties": { "path": "Bhopal_8", "jtype": "Y_or_T", "status": "confirmed", "R": 2.41, "arms": 2, "charge": 0.5 }, "geometry": { "type": "Point", "coordinates": [ 745703.082999999984168, 2574198.066999999806285 ] } },
{ "type": "Feature", "properties": { "path": "Bhopal_8", "jtype": "Y_or_T", "status": "confirmed", "R": 2.41, "arms": 2, "charge": -0.5 }, "geometry": { "type": "Point", "coordinates": [ 745698.824999999953434, 2574201.896999999880791 ] } },
{ "type": "Feature", "properties": { "path": "Bhopal_8", "jtype": "Y_or_T", "status": "discovered", "R": 2.01, "arms": 3, "charge": 0.0 }, "geometry": { "type": "Point", "coordinates": [ 745738.461999999941327, 2573844.853999999817461 ] } }
]
}
