{
"type": "FeatureCollection",
"name": "chandigarh_junctions",
"crs": { "type": "name", "properties": { "name": "urn:ogc:def:crs:EPSG::32643" } },
"features": [
{ "type": "Feature", "properties": { "path": "Chandigarh_01", "jtype": "Y_or_T", "status": "confirmed", "R": 2.26, "arms": 2, "charge": -0.5 }, "geometry": { "type": "Point", "coordinates": [ 670849.349000000045635, 3400836.863000000361353 ] } },
{ "type": "Feature", "properties": { "path": "Chandigarh_01", "jtype": "Y_or_T", "status": "confirmed", "R": 2.26, "arms": 1, "charge": -0.5 }, "geometry": { "type": "Point", "coordinates": [ 670933.949000000022352, 3400819.163000000175089 ] } },
{ "type": "Feature", "properties": { "path": "Chandigarh_01", "jtype": "Y_or_T", "status": "confirmed", "R": 2.26, "arms": 2, "charge": -0.5 }, "geometry": { "type": "Point", "coordinates": [ 670875.449000000022352, 3400807.763000000268221 ] } },
{ "type": "Feature", "properties": { "path": "Chandigarh_01", "jtype": "Y_or_T", "status": "confirmed", "R": 2.26, "arms": 2, "charge": 0.5 }, "geometry": { "type": "Point", "coordinates": [ 670905.449000000022352, 3400803.863000000361353 ] } },
{ "type": "Feature", "properties": { "path": "Chandigarh_01", "jtype": "ambiguous", "status": "confirmed", "R": 3.39, "arms": 2, "charge": -0.0 }, "geometry": { "type": "Point", "coordinates": [ 670935.084000000031665, 3400810.432 ] } },
{ "type": "Feature", "properties": { "path": "Chandigarh_01", "jtype": "Y_or_T", "status": "confirmed", "R": 2.26, "arms": 2, "charge": 0.5 }, "geometry": { "type": "Point", "coordinates": [ 670860.749000000068918, 3400795.763000000268221 ] } },
{ "type": "Feature", "properties": { "path": "Chandigarh_01", "jtype": "Y_or_T", "status": "confirmed", "R": 2.26, "arms": 1, "charge": -0.5 }, "geometry": { "type": "Point", "coordinates": [ 670929.245, 3400804.46100000012666 ] } },
{ "type": "Feature", "properties": { "path": "Chandigarh_01", "jtype": "Y_or_T", "status": "confirmed", "R": 2.26, "arms": 1, "charge": -0.5 }, "geometry": { "type": "Point", "coordinates": [ 670916.849000000045635, 3400789.163000000175089 ] } },
{ "type": "Feature", "properties": { "path": "Chandigarh_01", "jtype": "ambiguous", "status": "confirmed", "R": 3.21, "arms": 1, "charge": -0.0 }, "geometry": { "type": "Point", "coordinates": [ 670925.5, 3400745.767 ] } },
{ "type": "Feature", "properties": { "path": "Chandigarh_01", "jtype": "Y_or_T", "status": "confirmed", "R": 2.26, "arms": 1, "charge": -0.5 }, "geometry": { "type": "Point", "coordinates": [ 670913.849000000045635, 3400760.363000000361353 ] } },
{ "type": "Feature", "properties": { "path": "Chandigarh_01", "jtype": "Y_or_T", "status": "confirmed", "R": 2.26, "arms": 2, "charge": -0.5 }, "geometry": { "type": "Point", "coordinates": [ 670857.149000000092201, 3400766.363000000361353 ] } },
{ "type": "Feature", "properties": { "path": "Chandigarh_01", "jtype": "Y_or_T", "status": "confirmed", "R": 2.26, "arms": 2, "charge": -0.5 }, "geometry": { "type": "Point", "coordinates": [ 670867.949000000022352, 3400751.963 ] } },
{ "type": "Feature", "properties": { "path": "Chandigarh_01", "jtype": "Y_or_T", "status": "confirmed", "R": 2.26, "arms": 1, "charge": 0.5 }, "geometry": { "type": "Point", "coordinates": [ 670899.449000000022352, 3400748.063 ] } },
{ "type": "Feature", "properties": { "path": "Chandigarh_01", "jtype": "Y_or_T", "status": "confirmed", "R": 2.71, "arms": 1, "charge": -0.5 }, "geometry": { "type": "Point", "coordinates": [ 670916.162000000011176, 3400730.928000000305474 ] } },
{ "type": "Feature", "properties": { "path": "Chandigarh_01", "jtype": "ring", "status": "ring", "R": 11.29, "arms": 0, "charge": -0.5 }, "geometry": { "type": "Point", "coordinates": [ 670886.875, 3400776.966 ] } },
{ "type": "Feature", "properties": { "path": "Chandigarh_01", "jtype": "Y_or_T", "status": "discovered", "R": 2.55, "arms": 3, "charge": 0.0 }, "geometry": { "type": "Point", "coordinates": [ 670934.399000000092201, 3400800.642 ] } },
{ "type": "Feature", "properties": { "path": "Chandigarh_01", "jtype": "Y_or_T", "status": "discovered", "R": 2.46, "arms": 3, "charge": 0.0 }, "geometry": { "type": "Point", "coordinates": [ 670933.964000000036322, 3400792.94400000013411 ] } },
{ "type": "Feature", "properties": { "path": "Chandigarh_02", "jtype": "ambiguous", "status": "confirmed", "R": 3.89, "arms": 2, "charge": -0.0 }, "geometry": { "type": "Point", "coordinates": [ 670943.211000000010245, 3400825.889 ] } },
{ "type": "Feature", "properties": { "path": "Chandigarh_03", "jtype": "Y_or_T", "status": "confirmed", "R": 3.74, "arms": 2, "charge": -0.5 }, "geometry": { "type": "Point", "coordinates": [ 671060.324999999953434, 3400907.959000000264496 ] } },
{ "type": "Feature", "properties": { "path": "Chandigarh_03", "jtype": "Y_or_T", "status": "confirmed", "R": 3.74, "arms": 3, "charge": 0.0 }, "geometry": { "type": "Point", "coordinates": [ 671031.542999999946915, 3400885.298000000417233 ] } },
{ "type": "Feature", "properties": { "path": "Chandigarh_05", "jtype": "ambiguous", "status": "confirmed", "R": 3.67, "arms": 2, "charge": -0.0 }, "geometry": { "type": "Point", "coordinates": [ 671241.92000000004191, 3401043.8019999996759 ] } },
{ "type": "Feature", "properties": { "path": "Chandigarh_06", "jtype": "Y_or_T", "status": "confirmed", "R": 3.55, "arms": 1, "charge": -0.5 }, "geometry": { "type": "Point", "coordinates": [ 671390.331, 3401171.128999999724329 ] } },
{ "type": "Feature", "properties": { "path": "Chandigarh_06", "jtype": "Y_or_T", "status": "confirmed", "R": 5.86, "arms": 2, "charge": -0.5 }, "geometry": { "type": "Point", "coordinates": [ 671375.976000000024214, 3401169.17 ] } },
{ "type": "Feature", "properties": { "path": "Chandigarh_06", "jtype": "Y_or_T", "status": "confirmed", "R": 3.55, "arms": 1, "charge": -0.5 }, "geometry": { "type": "Point", "coordinates": [ 671392.131000000052154, 3401163.478999999817461 ] } },
{ "type": "Feature", "properties": { "path": "Chandigarh_06", "jtype": "Y_or_T", "status": "confirmed", "R": 3.55, "arms": 2, "charge": -0.5 }, "geometry": { "type": "Point", "coordinates": [ 671370.530999999959022, 3401139.478999999817461 ] } },
{ "type": "Feature", "properties": { "path": "Chandigarh_06", "jtype": "Y_or_T", "status": "confirmed", "R": 3.55, "arms": 1, "charge": 0.5 }, "geometry": { "type": "Point", "coordinates": [ 671397.231000000028871, 3401158.079 ] } },
{ "type": "Feature", "properties": { "path": "Chandigarh_06", "jtype": "Y_or_T", "status": "confirmed", "R": 3.55, "arms": 1, "charge": 0.5 }, "geometry": { "type": "Point", "coordinates": [ 671412.530999999959022, 3401159.878999999724329 ] } },
{ "type": "Feature", "properties": { "path": "Chandigarh_06", "jtype": "Y_or_T", "status": "confirmed", "R": 3.55, "arms": 2, "charge": -0.5 }, "geometry": { "type": "Point", "coordinates": [ 671420.930999999982305, 3401153.579 ] } },
{ "type": "Feature", "properties": { "path": "Chandigarh_06", "jtype": "Y_or_T", "status": "confirmed", "R": 3.55, "arms": 1, "charge": -0.5 }, "geometry": { "type": "Point", "coordinates": [ 671389.131000000052154, 3401138.579 ] } },
{ "type": "Feature", "properties": { "path": "Chandigarh_06", "jtype": "ambiguous", "status": "confirmed", "R": 3.55, "arms": 2, "charge": -0.0 }, "geometry": { "type": "Point", "coordinates": [ 671429.331, 3401141.279 ] } },
{ "type": "Feature", "properties": { "path": "Chandigarh_07", "jtype": "ring_or_plus", "status": "confirmed", "R": 3.72, "arms": 2, "charge": -1.0 }, "geometry": { "type": "Point", "coordinates": [ 671443.714999999967404, 3401181.802999999839813 ] } },
{ "type": "Feature", "properties": { "path": "Chandigarh_07", "jtype": "Y_or_T", "status": "confirmed", "R": 3.92, "arms": 2, "charge": -0.5 }, "geometry": { "type": "Point", "coordinates": [ 671424.606000000028871, 3401165.747999999672174 ] } },
{ "type": "Feature", "properties": { "path": "Chandigarh_07", "jtype": "Y_or_T", "status": "confirmed", "R": 4.88, "arms": 2, "charge": -0.5 }, "geometry": { "type": "Point", "coordinates": [ 671441.314999999944121, 3401149.492999999783933 ] } },
{ "type": "Feature", "properties": { "path": "Chandigarh_08", "jtype": "Y_or_T", "status": "confirmed", "R": 3.64, "arms": 2, "charge": 0.5 }, "geometry": { "type": "Point", "coordinates": [ 671596.732000000076368, 3401309.139 ] } },
{ "type": "Feature", "properties": { "path": "Chandigarh_08", "jtype": "Y_or_T", "status": "confirmed", "R": 4.63, "arms": 2, "charge": -0.5 }, "geometry": { "type": "Point", "coordinates": [ 671565.982000000076368, 3401286.188999999780208 ] } },
{ "type": "Feature", "properties": { "path": "Chandigarh_08", "jtype": "ambiguous", "status": "confirmed", "R": 4.25, "arms": 2, "charge": -0.0 }, "geometry": { "type": "Point", "coordinates": [ 671545.807000000029802, 3401277.03899999987334 ] } },
{ "type": "Feature", "properties": { "path": "Chandigarh_08", "jtype": "Y_or_T", "status": "confirmed", "R": 3.61, "arms": 2, "charge": -0.5 }, "geometry": { "type": "Point", "coordinates": [ 671570.032, 3401294.739 ] } },
{ "type": "Feature", "properties": { "path": "Chandigarh_12", "jtype": "Y_or_T", "status": "confirmed", "R": 2.34, "arms": 2, "charge": -0.5 }, "geometry": { "type": "Point", "coordinates": [ 671927.341000000014901, 3401595.054 ] } },
{ "type": "Feature", "properties": { "path": "Chandigarh_12", "jtype": "Y_or_T", "status": "confirmed", "R": 2.34, "arms": 2, "charge": -0.5 }, "geometry": { "type": "Point", "coordinates": [ 671923.741000000038184, 3401563.854000000283122 ] } },
{ "type": "Feature", "properties": { "path": "Chandigarh_12", "jtype": "Y_or_T", "status": "confirmed", "R": 2.34, "arms": 1, "charge": -0.5 }, "geometry": { "type": "Point", "coordinates": [ 671908.741000000038184, 3401550.654 ] } },
{ "type": "Feature", "properties": { "path": "Chandigarh_12", "jtype": "Y_or_T", "status": "confirmed", "R": 2.34, "arms": 1, "charge": 0.5 }, "geometry": { "type": "Point", "coordinates": [ 671933.641000000061467, 3401550.354000000283122 ] } },
{ "type": "Feature", "properties": { "path": "Chandigarh_12", "jtype": "ambiguous", "status": "confirmed", "R": 3.4, "arms": 1, "charge": -0.0 }, "geometry": { "type": "Point", "coordinates": [ 671901.13, 3401541.526 ] } },
{ "type": "Feature", "properties": { "path": "Chandigarh_12", "jtype": "Y_or_T", "status": "confirmed", "R": 2.34, "arms": 1, "charge": -0.5 }, "geometry": { "type": "Point", "coordinates": [ 671900.641000000061467, 3401531.554 ] } },
{ "type": "Feature", "properties": { "path": "Chandigarh_12", "jtype": "Y_or_T", "status": "confirmed", "R": 2.34, "arms": 2, "charge": -0.5 }, "geometry": { "type": "Point", "coordinates": [ 671884.141000000061467, 3401531.304 ] } },
{ "type": "Feature", "properties": { "path": "Chandigarh_12", "jtype": "Y_or_T", "status": "confirmed", "R": 2.34, "arms": 2, "charge": -0.5 }, "geometry": { "type": "Point", "coordinates": [ 671976.54100000008475, 3401520.054 ] } },
{ "type": "Feature", "properties": { "path": "Chandigarh_12", "jtype": "Y_or_T", "status": "confirmed", "R": 6.0, "arms": 2, "charge": -0.5 }, "geometry": { "type": "Point", "coordinates": [ 671924.941000000108033, 3401600.75400000018999 ] } },
{ "type": "Feature", "properties": { "path": "Chandigarh_12", "jtype": "ring", "status": "ring", "R": 11.68, "arms": 0, "charge": 0.5 }, "geometry": { "type": "Point", "coordinates": [ 671875.005, 3401516.978000000119209 ] } },
{ "type": "Feature", "properties": { "path": "Chandigarh_13", "jtype": "Y_or_T", "status": "confirmed", "R": 4.33, "arms": 3, "charge": -0.5 }, "geometry": { "type": "Point", "coordinates": [ 671940.503999999957159, 3401607.937000000383705 ] } },
{ "type": "Feature", "properties": { "path": "Chandigarh_13", "jtype": "Y_or_T", "status": "confirmed", "R": 4.33, "arms": 2, "charge": 0.5 }, "geometry": { "type": "Point", "coordinates": [ 671981.603999999933876, 3401556.337000000290573 ] } },
{ "type": "Feature", "properties": { "path": "Chandigarh_13", "jtype": "Y_or_T", "status": "confirmed", "R": 4.33, "arms": 1, "charge": -0.5 }, "geometry": { "type": "Point", "coordinates": [ 672003.804, 3401526.037 ] } },
{ "type": "Feature", "properties": { "path": "Chandigarh_13", "jtype": "Y_or_T", "status": "confirmed", "R": 4.33, "arms": 1, "charge": 0.5 }, "geometry": { "type": "Point", "coordinates": [ 671992.703999999910593, 3401520.337000000290573 ] } },
{ "type": "Feature", "properties": { "path": "Chandigarh_14", "jtype": "Y_or_T", "status": "confirmed", "R": 2.28, "arms": 1, "charge": -0.5 }, "geometry": { "type": "Point", "coordinates": [ 672004.162000000011176, 3401526.614 ] } },
{ "type": "Feature", "properties": { "path": "Chandigarh_14", "jtype": "Y_or_T", "status": "confirmed", "R": 2.28, "arms": 1, "charge": 0.5 }, "geometry": { "type": "Point", "coordinates": [ 671989.462000000057742, 3401523.614 ] } },
{ "type": "Feature", "properties": { "path": "Chandigarh_14", "jtype": "ambiguous", "status": "confirmed", "R": 2.28, "arms": 1, "charge": -0.0 }, "geometry": { "type": "Point", "coordinates": [ 672007.162000000011176, 3401512.814000000245869 ] } },
{ "type": "Feature", "properties": { "path": "Chandigarh_14", "jtype": "Y_or_T", "status": "confirmed", "R": 2.28, "arms": 1, "charge": -0.5 }, "geometry": { "type": "Point", "coordinates": [ 671976.261999999987893, 3401520.014 ] } },
{ "type": "Feature", "properties": { "path": "Chandigarh_14", "jtype": "ambiguous", "status": "confirmed", "R": 2.28, "arms": 2, "charge": -0.0 }, "geometry": { "type": "Point", "coordinates": [ 672017.36199999996461, 3401500.514 ] } },
{ "type": "Feature", "properties": { "path": "Chandigarh_14", "jtype": "Y_or_T", "status": "confirmed", "R": 5.51, "arms": 2, "charge": 0.5 }, "geometry": { "type": "Point", "coordinates": [ 671989.462000000057742, 3401545.514 ] } },
{ "type": "Feature", "properties": { "path": "Chandigarh_15", "jtype": "Y_or_T", "status": "confirmed", "R": 4.05, "arms": 2, "charge": -0.5 }, "geometry": { "type": "Point", "coordinates": [ 672030.062000000034459, 3401474.240000000223517 ] } },
{ "type": "Feature", "properties": { "path": "Chandigarh_15", "jtype": "Y_or_T", "status": "confirmed", "R": 4.05, "arms": 2, "charge": -0.5 }, "geometry": { "type": "Point", "coordinates": [ 672024.36199999996461, 3401464.339999999850988 ] } },
{ "type": "Feature", "properties": { "path": "Chandigarh_15", "jtype": "Y_or_T", "status": "confirmed", "R": 4.88, "arms": 1, "charge": 0.5 }, "geometry": { "type": "Point", "coordinates": [ 672022.261999999987893, 3401485.94 ] } },
{ "type": "Feature", "properties": { "path": "Chandigarh_16", "jtype": "Y_or_T", "status": "confirmed", "R": 2.97, "arms": 2, "charge": 0.5 }, "geometry": { "type": "Point", "coordinates": [ 672054.01500000001397, 3401424.701999999582767 ] } },
{ "type": "Feature", "properties": { "path": "Chandigarh_17", "jtype": "Y_or_T", "status": "confirmed", "R": 4.27, "arms": 2, "charge": -0.5 }, "geometry": { "type": "Point", "coordinates": [ 672118.645000000018626, 3401378.645 ] } },
{ "type": "Feature", "properties": { "path": "Chandigarh_18", "jtype": "Y_or_T", "status": "confirmed", "R": 3.67, "arms": 1, "charge": 0.5 }, "geometry": { "type": "Point", "coordinates": [ 672150.633999999961816, 3401306.271999999880791 ] } },
{ "type": "Feature", "properties": { "path": "Chandigarh_18", "jtype": "Y_or_T", "status": "confirmed", "R": 3.29, "arms": 3, "charge": -0.5 }, "geometry": { "type": "Point", "coordinates": [ 672200.716999999945983, 3401241.25 ] } },
{ "type": "Feature", "properties": { "path": "Chandigarh_18", "jtype": "ambiguous", "status": "confirmed", "R": 3.29, "arms": 2, "charge": -0.0 }, "geometry": { "type": "Point", "coordinates": [ 672192.3169999999227, 3401232.549999999813735 ] } },
{ "type": "Feature", "properties": { "path": "Chandigarh_18", "jtype": "Y_or_T", "status": "confirmed", "R": 3.29, "arms": 2, "charge": -0.5 }, "geometry": { "type": "Point", "coordinates": [ 672180.616999999969266, 3401222.65 ] } },
{ "type": "Feature", "properties": { "path": "Chandigarh_18", "jtype": "Y_or_T", "status": "confirmed", "R": 9.68, "arms": 1, "charge": 0.5 }, "geometry": { "type": "Point", "coordinates": [ 672216.821999999927357, 3401285.13399999961257 ] } },
{ "type": "Feature", "properties": { "path": "Chandigarh_18", "jtype": "ambiguous", "status": "confirmed", "R": 4.24, "arms": 2, "charge": 0.0 }, "geometry": { "type": "Point", "coordinates": [ 672190.115, 3401292.094 ] } },
{ "type": "Feature", "properties": { "path": "Chandigarh_18", "jtype": "Y_or_T", "status": "confirmed", "R": 4.24, "arms": 2, "charge": 0.5 }, "geometry": { "type": "Point", "coordinates": [ 672199.115, 3401281.594 ] } },
{ "type": "Feature", "properties": { "path": "Chandigarh_18", "jtype": "Y_or_T", "status": "confirmed", "R": 9.31, "arms": 2, "charge": -0.5 }, "geometry": { "type": "Point", "coordinates": [ 672246.093, 3401276.565 ] } },
{ "type": "Feature", "properties": { "path": "Chandigarh_18", "jtype": "Y_or_T", "status": "confirmed", "R": 4.24, "arms": 2, "charge": -0.5 }, "geometry": { "type": "Point", "coordinates": [ 672211.714999999967404, 3401274.693999999668449 ] } },
{ "type": "Feature", "properties": { "path": "Chandigarh_18", "jtype": "Y_or_T", "status": "confirmed", "R": 4.24, "arms": 1, "charge": 0.5 }, "geometry": { "type": "Point", "coordinates": [ 672183.214999999967404, 3401325.693999999668449 ] } },
{ "type": "Feature", "properties": { "path": "Chandigarh_19", "jtype": "Y_or_T", "status": "confirmed", "R": 3.12, "arms": 3, "charge": -0.0 }, "geometry": { "type": "Point", "coordinates": [ 672240.348, 3401257.498999999836087 ] } },
{ "type": "Feature", "properties": { "path": "Chandigarh_19", "jtype": "Y_or_T", "status": "confirmed", "R": 3.3, "arms": 3, "charge": -0.5 }, "geometry": { "type": "Point", "coordinates": [ 672238.909999999916181, 3401199.498999999836087 ] } },
{ "type": "Feature", "properties": { "path": "Chandigarh_19", "jtype": "Y_or_T", "status": "confirmed", "R": 3.19, "arms": 3, "charge": 0.5 }, "geometry": { "type": "Point", "coordinates": [ 672253.009999999892898, 3401184.498999999836087 ] } },
{ "type": "Feature", "properties": { "path": "Chandigarh_19", "jtype": "Y_or_T", "status": "confirmed", "R": 4.67, "arms": 2, "charge": 0.5 }, "geometry": { "type": "Point", "coordinates": [ 672223.375, 3401244.224 ] } },
{ "type": "Feature", "properties": { "path": "Chandigarh_20", "jtype": "Y_or_T", "status": "confirmed", "R": 3.12, "arms": 2, "charge": 0.5 }, "geometry": { "type": "Point", "coordinates": [ 672275.456, 3401153.447000000160187 ] } },
{ "type": "Feature", "properties": { "path": "Chandigarh_20", "jtype": "Y_or_T", "status": "confirmed", "R": 3.12, "arms": 3, "charge": -0.5 }, "geometry": { "type": "Point", "coordinates": [ 672288.055999999982305, 3401139.947000000160187 ] } },
{ "type": "Feature", "properties": { "path": "Chandigarh_20", "jtype": "ambiguous", "status": "confirmed", "R": 4.25, "arms": 1, "charge": 0.0 }, "geometry": { "type": "Point", "coordinates": [ 672279.226000000024214, 3401192.974000000394881 ] } },
{ "type": "Feature", "properties": { "path": "Chandigarh_20", "jtype": "Y_or_T", "status": "confirmed", "R": 4.25, "arms": 2, "charge": 0.5 }, "geometry": { "type": "Point", "coordinates": [ 672270.226000000024214, 3401184.574 ] } },
{ "type": "Feature", "properties": { "path": "Chandigarh_20", "jtype": "Y_or_T", "status": "confirmed", "R": 4.17, "arms": 1, "charge": 0.5 }, "geometry": { "type": "Point", "coordinates": [ 672315.526000000070781, 3401133.574 ] } },
{ "type": "Feature", "properties": { "path": "Chandigarh_21", "jtype": "Y_or_T", "status": "confirmed", "R": 3.41, "arms": 3, "charge": -0.5 }, "geometry": { "type": "Point", "coordinates": [ 672336.810999999986961, 3401082.638000000268221 ] } },
{ "type": "Feature", "properties": { "path": "Chandigarh_21", "jtype": "Y_or_T", "status": "confirmed", "R": 3.41, "arms": 3, "charge": 0.5 }, "geometry": { "type": "Point", "coordinates": [ 672348.224999999976717, 3401070.577 ] } },
{ "type": "Feature", "properties": { "path": "Chandigarh_22", "jtype": "Y_or_T", "status": "confirmed", "R": 4.42, "arms": 2, "charge": -0.5 }, "geometry": { "type": "Point", "coordinates": [ 672384.057999999960884, 3401047.932 ] } },
{ "type": "Feature", "properties": { "path": "Chandigarh_22", "jtype": "Y_or_T", "status": "confirmed", "R": 4.42, "arms": 2, "charge": -0.5 }, "geometry": { "type": "Point", "coordinates": [ 672364.557999999960884, 3401049.432 ] } },
{ "type": "Feature", "properties": { "path": "Chandigarh_22", "jtype": "Y_or_T", "status": "confirmed", "R": 4.42, "arms": 2, "charge": -0.5 }, "geometry": { "type": "Point", "coordinates": [ 672373.557999999960884, 3401044.032000000122935 ] } },
{ "type": "Feature", "properties": { "path": "Chandigarh_22", "jtype": "Y_or_T", "status": "confirmed", "R": 3.02, "arms": 2, "charge": -0.5 }, "geometry": { "type": "Point", "coordinates": [ 672393.256000000052154, 3401069.19 ] } },
{ "type": "Feature", "properties": { "path": "Chandigarh_22", "jtype": "ambiguous", "status": "confirmed", "R": 3.02, "arms": 2, "charge": -0.0 }, "geometry": { "type": "Point", "coordinates": [ 672371.979000000050291, 3401081.245000000111759 ] } },
{ "type": "Feature", "properties": { "path": "Chandigarh_22", "jtype": "Y_or_T", "status": "confirmed", "R": 3.02, "arms": 2, "charge": 0.5 }, "geometry": { "type": "Point", "coordinates": [ 672388.155999999959022, 3401064.389999999664724 ] } },
{ "type": "Feature", "properties": { "path": "Chandigarh_22", "jtype": "Y_or_T", "status": "discovered", "R": 9.06, "arms": 3, "charge": -0.5 }, "geometry": { "type": "Point", "coordinates": [ 672381.865, 3401077.700999999884516 ] } },
{ "type": "Feature", "properties": { "path": "Chandigarh_23", "jtype": "ambiguous", "status": "confirmed", "R": 5.64, "arms": 2, "charge": -0.0 }, "geometry": { "type": "Point", "coordinates": [ 672433.243999999947846, 3401011.29 ] } },
{ "type": "Feature", "properties": { "path": "Chandigarh_24", "jtype": "Y_or_T", "status": "confirmed", "R": 2.09, "arms": 2, "charge": -0.5 }, "geometry": { "type": "Point", "coordinates": [ 672503.76300000003539, 3401012.396999999880791 ] } },
{ "type": "Feature", "properties": { "path": "Chandigarh_24", "jtype": "ambiguous", "status": "confirmed", "R": 2.09, "arms": 1, "charge": -0.0 }, "geometry": { "type": "Point", "coordinates": [ 672463.761000000056811, 3401008.433000000193715 ] } },
{ "type": "Feature", "properties": { "path": "Chandigarh_24", "jtype": "Y_or_T", "status": "confirmed", "R": 2.09, "arms": 2, "charge": 0.5 }, "geometry": { "type": "Point", "coordinates": [ 672523.85999999998603, 3401005.350999999791384 ] } },
{ "type": "Feature", "properties": { "path": "Chandigarh_24", "jtype": "ambiguous", "status": "confirmed", "R": 2.09, "arms": 1, "charge": -0.0 }, "geometry": { "type": "Point", "coordinates": [ 672468.410999999963678, 3401001.683000000193715 ] } },
{ "type": "Feature", "properties": { "path": "Chandigarh_24", "jtype": "ambiguous", "status": "confirmed", "R": 2.09, "arms": 1, "charge": 0.0 }, "geometry": { "type": "Point", "coordinates": [ 672459.261000000056811, 3401001.833000000100583 ] } },
{ "type": "Feature", "properties": { "path": "Chandigarh_24", "jtype": "ambiguous", "status": "confirmed", "R": 2.09, "arms": 1, "charge": 0.0 }, "geometry": { "type": "Point", "coordinates": [ 672479.511000000056811, 3401000.483 ] } },
{ "type": "Feature", "properties": { "path": "Chandigarh_24", "jtype": "Y_or_T", "status": "confirmed", "R": 2.09, "arms": 1, "charge": -0.5 }, "geometry": { "type": "Point", "coordinates": [ 672488.060999999986961, 3400983.233 ] } },
{ "type": "Feature", "properties": { "path": "Chandigarh_24", "jtype": "ring_or_plus", "status": "confirmed", "R": 2.09, "arms": 1, "charge": 1.0 }, "geometry": { "type": "Point", "coordinates": [ 672441.261000000056811, 3401002.433000000193715 ] } },
{ "type": "Feature", "properties": { "path": "Chandigarh_24", "jtype": "Y_or_T", "status": "confirmed", "R": 2.09, "arms": 1, "charge": -0.5 }, "geometry": { "type": "Point", "coordinates": [ 672455.961000000010245, 3400987.433000000193715 ] } },
{ "type": "Feature", "properties": { "path": "Chandigarh_24", "jtype": "Y_or_T", "status": "confirmed", "R": 2.09, "arms": 2, "charge": -0.5 }, "geometry": { "type": "Point", "coordinates": [ 672499.160999999963678, 3400967.633 ] } },
{ "type": "Feature", "properties": { "path": "Chandigarh_24", "jtype": "Y_or_T", "status": "confirmed", "R": 2.09, "arms": 1, "charge": 0.5 }, "geometry": { "type": "Point", "coordinates": [ 672422.961000000010245, 3400979.483 ] } },
{ "type": "Feature", "properties": { "path": "Chandigarh_24", "jtype": "Y_or_T", "status": "confirmed", "R": 2.09, "arms": 1, "charge": -0.5 }, "geometry": { "type": "Point", "coordinates": [ 672431.361000000033528, 3400988.633 ] } },
{ "type": "Feature", "properties": { "path": "Chandigarh_24", "jtype": "Y_or_T", "status": "confirmed", "R": 2.09, "arms": 1, "charge": -0.5 }, "geometry": { "type": "Point", "coordinates": [ 672441.861000000033528, 3400975.133 ] } },
{ "type": "Feature", "properties": { "path": "Chandigarh_24", "jtype": "ambiguous", "status": "confirmed", "R": 2.09, "arms": 2, "charge": 0.0 }, "geometry": { "type": "Point", "coordinates": [ 672523.160999999963678, 3400915.433000000193715 ] } },
{ "type": "Feature", "properties": { "path": "Chandigarh_24", "jtype": "ambiguous", "status": "confirmed", "R": 2.09, "arms": 1, "charge": -0.0 }, "geometry": { "type": "Point", "coordinates": [ 672419.334000000031665, 3400927.707 ] } },
{ "type": "Feature", "properties": { "path": "Chandigarh_24", "jtype": "Y_or_T", "status": "confirmed", "R": 2.09, "arms": 2, "charge": 0.5 }, "geometry": { "type": "Point", "coordinates": [ 672438.560999999986961, 3400946.633 ] } },
{ "type": "Feature", "properties": { "path": "Chandigarh_24", "jtype": "Y_or_T", "status": "confirmed", "R": 2.09, "arms": 2, "charge": -0.5 }, "geometry": { "type": "Point", "coordinates": [ 672498.861000000033528, 3400957.733 ] } },
{ "type": "Feature", "properties": { "path": "Chandigarh_24", "jtype": "Y_or_T", "status": "confirmed", "R": 2.09, "arms": 1, "charge": -0.5 }, "geometry": { "type": "Point", "coordinates": [ 672495.560999999986961, 3400938.233 ] } },
{ "type": "Feature", "properties": { "path": "Chandigarh_24", "jtype": "Y_or_T", "status": "confirmed", "R": 2.09, "arms": 2, "charge": -0.5 }, "geometry": { "type": "Point", "coordinates": [ 672450.261000000056811, 3400930.433000000193715 ] } },
{ "type": "Feature", "properties": { "path": "Chandigarh_24", "jtype": "Y_or_T", "status": "confirmed", "R": 2.09, "arms": 1, "charge": -0.5 }, "geometry": { "type": "Point", "coordinates": [ 672507.861000000033528, 3400924.133 ] } },
{ "type": "Feature", "properties": { "path": "Chandigarh_24", "jtype": "Y_or_T", "status": "confirmed", "R": 2.09, "arms": 2, "charge": -0.5 }, "geometry": { "type": "Point", "coordinates": [ 672482.361000000033528, 3400927.133 ] } },
{ "type": "Feature", "properties": { "path": "Chandigarh_24", "jtype": "Y_or_T", "status": "confirmed", "R": 2.09, "arms": 1, "charge": -0.5 }, "geometry": { "type": "Point", "coordinates": [ 672500.660999999963678, 3400909.733 ] } },
{ "type": "Feature", "properties": { "path": "Chandigarh_24", "jtype": "ambiguous", "status": "confirmed", "R": 3.65, "arms": 2, "charge": 0.0 }, "geometry": { "type": "Point", "coordinates": [ 672514.256999999983236, 3400902.356000000145286 ] } },
{ "type": "Feature", "properties": { "path": "Chandigarh_24", "jtype": "Y_or_T", "status": "confirmed", "R": 5.41, "arms": 2, "charge": -0.5 }, "geometry": { "type": "Point", "coordinates": [ 672457.461000000010245, 3401014.433000000193715 ] } },
{ "type": "Feature", "properties": { "path": "Chandigarh_24", "jtype": "ambiguous", "status": "confirmed", "R": 4.7, "arms": 1, "charge": 0.0 }, "geometry": { "type": "Point", "coordinates": [ 672483.560999999986961, 3401005.733 ] } },
{ "type": "Feature", "properties": { "path": "Chandigarh_24", "jtype": "Y_or_T", "status": "confirmed", "R": 5.41, "arms": 1, "charge": -0.5 }, "geometry": { "type": "Point", "coordinates": [ 672490.160999999963678, 3401005.883 ] } },
{ "type": "Feature", "properties": { "path": "Chandigarh_24", "jtype": "ring", "status": "ring", "R": 10.44, "arms": 0, "charge": -1.0 }, "geometry": { "type": "Point", "coordinates": [ 672471.829000000027008, 3400961.301 ] } },
{ "type": "Feature", "properties": { "path": "Chandigarh_24", "jtype": "Y_or_T", "status": "confirmed", "R": 2.1, "arms": 2, "charge": -0.5 }, "geometry": { "type": "Point", "coordinates": [ 672540.064999999944121, 3400972.58 ] } },
{ "type": "Feature", "properties": { "path": "Chandigarh_24", "jtype": "ambiguous", "status": "confirmed", "R": 2.83, "arms": 2, "charge": -0.0 }, "geometry": { "type": "Point", "coordinates": [ 672546.326, 3400975.528 ] } },
{ "type": "Feature", "properties": { "path": "Chandigarh_24A", "jtype": "Y_or_T", "status": "confirmed", "R": 3.81, "arms": 2, "charge": -0.5 }, "geometry": { "type": "Point", "coordinates": [ 671370.601999999955297, 3400144.937 ] } },
{ "type": "Feature", "properties": { "path": "Chandigarh_24A", "jtype": "Y_or_T", "status": "confirmed", "R": 3.81, "arms": 2, "charge": -0.5 }, "geometry": { "type": "Point", "coordinates": [ 671379.902, 3400131.137000000104308 ] } },
{ "type": "Feature", "properties": { "path": "Chandigarh_24A", "jtype": "Y_or_T", "status": "confirmed", "R": 3.6, "arms": 1, "charge": -0.5 }, "geometry": { "type": "Point", "coordinates": [ 671361.302000000025146, 3400121.537 ] } },
{ "type": "Feature", "properties": { "path": "Chandigarh_24A", "jtype": "Y_or_T", "status": "discovered", "R": 4.95, "arms": 3, "charge": 0.0 }, "geometry": { "type": "Point", "coordinates": [ 671372.709000000031665, 3400136.071 ] } },
{ "type": "Feature", "properties": { "path": "Chandigarh_24B", "jtype": "Y_or_T", "status": "confirmed", "R": 1.7, "arms": 1, "charge": -0.5 }, "geometry": { "type": "Point", "coordinates": [ 671419.495999999926426, 3400186.511 ] } },
{ "type": "Feature", "properties": { "path": "Chandigarh_24B", "jtype": "Y_or_T", "status": "confirmed", "R": 1.7, "arms": 1, "charge": 0.5 }, "geometry": { "type": "Point", "coordinates": [ 671387.395999999949709, 3400187.111 ] } },
{ "type": "Feature", "properties": { "path": "Chandigarh_24B", "jtype": "Y_or_T", "status": "confirmed", "R": 1.7, "arms": 2, "charge": -0.5 }, "geometry": { "type": "Point", "coordinates": [ 671374.196, 3400175.410999999847263 ] } },
{ "type": "Feature", "properties": { "path": "Chandigarh_24B", "jtype": "Y_or_T", "status": "confirmed", "R": 1.7, "arms": 1, "charge": -0.5 }, "geometry": { "type": "Point", "coordinates": [ 671430.595999999903142, 3400169.410999999847263 ] } },
{ "type": "Feature", "properties": { "path": "Chandigarh_24B", "jtype": "Y_or_T", "status": "confirmed", "R": 1.7, "arms": 2, "charge": 0.5 }, "geometry": { "type": "Point", "coordinates": [ 671414.395999999949709, 3400128.611 ] } },
{ "type": "Feature", "properties": { "path": "Chandigarh_24B", "jtype": "Y_or_T", "status": "confirmed", "R": 1.7, "arms": 1, "charge": -0.5 }, "geometry": { "type": "Point", "coordinates": [ 671437.946, 3400172.861 ] } },
{ "type": "Feature", "properties": { "path": "Chandigarh_24B", "jtype": "Y_or_T", "status": "confirmed", "R": 1.7, "arms": 1, "charge": 0.5 }, "geometry": { "type": "Point", "coordinates": [ 671427.295999999972992, 3400140.011 ] } },
{ "type": "Feature", "properties": { "path": "Chandigarh_24B", "jtype": "Y_or_T", "status": "confirmed", "R": 1.7, "arms": 1, "charge": 0.5 }, "geometry": { "type": "Point", "coordinates": [ 671436.895999999949709, 3400124.111 ] } },
{ "type": "Feature", "properties": { "path": "Chandigarh_24B", "jtype": "ring", "status": "ring", "R": 8.5, "arms": 0, "charge": 0.5 }, "geometry": { "type": "Point", "coordinates": [ 671411.30199999990873, 3400164.116 ] } },
{ "type": "Feature", "properties": { "path": "Chandigarh_24C", "jtype": "ambiguous", "status": "confirmed", "R": 5.71, "arms": 1, "charge": 0.0 }, "geometry": { "type": "Point", "coordinates": [ 671489.119000000064261, 3400237.248999999836087 ] } },
{ "type": "Feature", "properties": { "path": "Chandigarh_24C", "jtype": "Y_or_T", "status": "confirmed", "R": 5.71, "arms": 2, "charge": -0.5 }, "geometry": { "type": "Point", "coordinates": [ 671455.202000000048429, 3400201.907999999821186 ] } },
{ "type": "Feature", "properties": { "path": "Chandigarh_24C", "jtype": "Y_or_T", "status": "confirmed", "R": 5.71, "arms": 1, "charge": 0.5 }, "geometry": { "type": "Point", "coordinates": [ 671441.552000000025146, 3400196.807999999728054 ] } },
{ "type": "Feature", "properties": { "path": "Chandigarh_25", "jtype": "Y_or_T", "status": "confirmed", "R": 8.2, "arms": 3, "charge": 0.5 }, "geometry": { "type": "Point", "coordinates": [ 671542.350999999907799, 3400263.176 ] } },
{ "type": "Feature", "properties": { "path": "Chandigarh_28", "jtype": "Y_or_T", "status": "confirmed", "R": 13.44, "arms": 1, "charge": 0.5 }, "geometry": { "type": "Point", "coordinates": [ 671666.614000000059605, 3400352.684000000357628 ] } },
{ "type": "Feature", "properties": { "path": "Chandigarh_29", "jtype": "Y_or_T", "status": "confirmed", "R": 13.0, "arms": 1, "charge": 0.5 }, "geometry": { "type": "Point", "coordinates": [ 671723.175000000046566, 3400394.91399999987334 ] } },
{ "type": "Feature", "properties": { "path": "Chandigarh_31", "jtype": "Y_or_T", "status": "confirmed", "R": 13.13, "arms": 1, "charge": 0.5 }, "geometry": { "type": "Point", "coordinates": [ 671878.663999999989755, 3400519.634 ] } },
{ "type": "Feature", "properties": { "path": "Chandigarh_32", "jtype": "Y_or_T", "status": "confirmed", "R": 4.49, "arms": 3, "charge": 0.5 }, "geometry": { "type": "Point", "coordinates": [ 671885.308999999891967, 3400528.091999999713153 ] } },
{ "type": "Feature", "properties": { "path": "Chandigarh_32", "jtype": "Y_or_T", "status": "confirmed", "R": 2.87, "arms": 3, "charge": -0.5 }, "geometry": { "type": "Point", "coordinates": [ 671889.951, 3400572.361999999731779 ] } },
{ "type": "Feature", "properties": { "path": "Chandigarh_33", "jtype": "ambiguous", "status": "confirmed", "R": 3.47, "arms": 2, "charge": -0.0 }, "geometry": { "type": "Point", "coordinates": [ 671914.297000000020489, 3400621.603000000119209 ] } },
{ "type": "Feature", "properties": { "path": "Chandigarh_33", "jtype": "Y_or_T", "status": "confirmed", "R": 3.47, "arms": 2, "charge": -0.5 }, "geometry": { "type": "Point", "coordinates": [ 671940.996999999973923, 3400580.503 ] } },
{ "type": "Feature", "properties": { "path": "Chandigarh_33", "jtype": "Y_or_T", "status": "confirmed", "R": 3.47, "arms": 3, "charge": -0.0 }, "geometry": { "type": "Point", "coordinates": [ 671948.496999999973923, 3400565.803000000305474 ] } },
{ "type": "Feature", "properties": { "path": "Chandigarh_33", "jtype": "Y_or_T", "status": "confirmed", "R": 3.47, "arms": 2, "charge": 0.5 }, "geometry": { "type": "Point", "coordinates": [ 671940.246999999973923, 3400560.853000000119209 ] } },
{ "type": "Feature", "properties": { "path": "Chandigarh_33", "jtype": "Y_or_T", "status": "confirmed", "R": 6.29, "arms": 2, "charge": 0.5 }, "geometry": { "type": "Point", "coordinates": [ 671964.547000000020489, 3400551.778 ] } },
{ "type": "Feature", "properties": { "path": "Chandigarh_33", "jtype": "ambiguous", "status": "confirmed", "R": 3.47, "arms": 2, "charge": -0.0 }, "geometry": { "type": "Point", "coordinates": [ 671970.397, 3400543.903 ] } },
{ "type": "Feature", "properties": { "path": "Chandigarh_33", "jtype": "Y_or_T", "status": "confirmed", "R": 5.41, "arms": 2, "charge": -0.5 }, "geometry": { "type": "Point", "coordinates": [ 671949.424, 3400591.088 ] } },
{ "type": "Feature", "properties": { "path": "Chandigarh_33", "jtype": "ambiguous", "status": "confirmed", "R": 5.41, "arms": 2, "charge": 0.0 }, "geometry": { "type": "Point", "coordinates": [ 671961.724000000045635, 3400591.088 ] } },
{ "type": "Feature", "properties": { "path": "Chandigarh_33", "jtype": "Y_or_T", "status": "confirmed", "R": 5.41, "arms": 2, "charge": 0.5 }, "geometry": { "type": "Point", "coordinates": [ 671962.924, 3400577.288000000175089 ] } },
{ "type": "Feature", "properties": { "path": "Chandigarh_33", "jtype": "Y_or_T", "status": "confirmed", "R": 5.41, "arms": 3, "charge": 0.0 }, "geometry": { "type": "Point", "coordinates": [ 671980.023999999975786, 3400554.987999999895692 ] } },
{ "type": "Feature", "properties": { "path": "Chandigarh_34", "jtype": "Y_or_T", "status": "confirmed", "R": 3.91, "arms": 2, "charge": -0.5 }, "geometry": { "type": "Point", "coordinates": [ 671984.241999999969266, 3400584.287 ] } },
{ "type": "Feature", "properties": { "path": "Chandigarh_37", "jtype": "Y_or_T", "status": "confirmed", "R": 2.91, "arms": 3, "charge": -0.5 }, "geometry": { "type": "Point", "coordinates": [ 672154.419999999925494, 3400775.134 ] } },
{ "type": "Feature", "properties": { "path": "Chandigarh_38", "jtype": "Y_or_T", "status": "confirmed", "R": 2.08, "arms": 3, "charge": -0.5 }, "geometry": { "type": "Point", "coordinates": [ 672178.840000000083819, 3400792.369 ] } },
{ "type": "Feature", "properties": { "path": "Chandigarh_38", "jtype": "Y_or_T", "status": "confirmed", "R": 2.16, "arms": 2, "charge": 0.5 }, "geometry": { "type": "Point", "coordinates": [ 672156.040000000037253, 3400822.969 ] } },
{ "type": "Feature", "properties": { "path": "Chandigarh_39", "jtype": "Y_or_T", "status": "confirmed", "R": 8.18, "arms": 3, "charge": 0.5 }, "geometry": { "type": "Point", "coordinates": [ 672257.546000000089407, 3400798.572999999858439 ] } },
{ "type": "Feature", "properties": { "path": "Chandigarh_41", "jtype": "Y_or_T", "status": "confirmed", "R": 16.65, "arms": 2, "charge": 0.5 }, "geometry": { "type": "Point", "coordinates": [ 672415.783000000054017, 3400908.722 ] } },
{ "type": "Feature", "properties": { "path": "Chandigarh_44", "jtype": "Y_or_T", "status": "confirmed", "R": 4.27, "arms": 3, "charge": -0.5 }, "geometry": { "type": "Point", "coordinates": [ 671165.745, 3400453.374000000301749 ] } },
{ "type": "Feature", "properties": { "path": "Chandigarh_44", "jtype": "Y_or_T", "status": "confirmed", "R": 4.36, "arms": 3, "charge": -0.5 }, "geometry": { "type": "Point", "coordinates": [ 671152.367000000085682, 3400440.610000000335276 ] } },
{ "type": "Feature", "properties": { "path": "Chandigarh_47", "jtype": "Y_or_T", "status": "confirmed", "R": 6.0, "arms": 3, "charge": 0.5 }, "geometry": { "type": "Point", "coordinates": [ 671054.675999999977648, 3400575.718000000342727 ] } },
{ "type": "Feature", "properties": { "path": "Chandigarh_48", "jtype": "Y_or_T", "status": "confirmed", "R": 8.02, "arms": 2, "charge": 0.5 }, "geometry": { "type": "Point", "coordinates": [ 671009.973, 3400630.174999999813735 ] } },
{ "type": "Feature", "properties": { "path": "Chandigarh_49", "jtype": "Y_or_T", "status": "confirmed", "R": 3.92, "arms": 2, "charge": -0.5 }, "geometry": { "type": "Point", "coordinates": [ 670934.506999999983236, 3400721.298 ] } },
{ "type": "Feature", "properties": { "path": "Chandigarh_49", "jtype": "ambiguous", "status": "confirmed", "R": 3.92, "arms": 2, "charge": 0.0 }, "geometry": { "type": "Point", "coordinates": [ 670964.807000000029802, 3400684.6980000003241 ] } },
{ "type": "Feature", "properties": { "path": "Chandigarh_50", "jtype": "Y_or_T", "status": "confirmed", "R": 4.63, "arms": 2, "charge": -0.5 }, "geometry": { "type": "Point", "coordinates": [ 670255.528999999980442, 3399365.117999999783933 ] } },
{ "type": "Feature", "properties": { "path": "Chandigarh_50", "jtype": "Y_or_T", "status": "confirmed", "R": 4.63, "arms": 2, "charge": -0.5 }, "geometry": { "type": "Point", "coordinates": [ 670320.929, 3399362.418 ] } },
{ "type": "Feature", "properties": { "path": "Chandigarh_50", "jtype": "Y_or_T", "status": "confirmed", "R": 13.89, "arms": 3, "charge": -0.5 }, "geometry": { "type": "Point", "coordinates": [ 670336.534999999916181, 3399345.890999999828637 ] } },
{ "type": "Feature", "properties": { "path": "Chandigarh_50", "jtype": "ambiguous", "status": "confirmed", "R": 4.63, "arms": 2, "charge": 0.0 }, "geometry": { "type": "Point", "coordinates": [ 670266.628999999957159, 3399365.117999999783933 ] } },
{ "type": "Feature", "properties": { "path": "Chandigarh_50", "jtype": "Y_or_T", "status": "confirmed", "R": 4.63, "arms": 3, "charge": -0.5 }, "geometry": { "type": "Point", "coordinates": [ 670273.528999999980442, 3399351.918 ] } },
{ "type": "Feature", "properties": { "path": "Chandigarh_50", "jtype": "Y_or_T", "status": "confirmed", "R": 13.21, "arms": 2, "charge": -0.5 }, "geometry": { "type": "Point", "coordinates": [ 670252.628000000026077, 3399307.761 ] } },
{ "type": "Feature", "properties": { "path": "Chandigarh_50", "jtype": "Y_or_T", "status": "confirmed", "R": 4.63, "arms": 2, "charge": -0.5 }, "geometry": { "type": "Point", "coordinates": [ 670270.829000000027008, 3399327.318 ] } },
{ "type": "Feature", "properties": { "path": "Chandigarh_50", "jtype": "Y_or_T", "status": "confirmed", "R": 4.63, "arms": 2, "charge": -0.5 }, "geometry": { "type": "Point", "coordinates": [ 670332.929, 3399322.818 ] } },
{ "type": "Feature", "properties": { "path": "Chandigarh_50", "jtype": "Y_or_T", "status": "confirmed", "R": 4.63, "arms": 2, "charge": -0.5 }, "geometry": { "type": "Point", "coordinates": [ 670286.429, 3399307.217999999877065 ] } },
{ "type": "Feature", "properties": { "path": "Chandigarh_50", "jtype": "Y_or_T", "status": "confirmed", "R": 4.63, "arms": 2, "charge": -0.5 }, "geometry": { "type": "Point", "coordinates": [ 670312.228999999933876, 3399304.217999999877065 ] } },
{ "type": "Feature", "properties": { "path": "Chandigarh_50", "jtype": "ambiguous", "status": "confirmed", "R": 3.09, "arms": 2, "charge": 0.0 }, "geometry": { "type": "Point", "coordinates": [ 670345.228999999933876, 3399359.418 ] } },
{ "type": "Feature", "properties": { "path": "Chandigarh_50", "jtype": "Y_or_T", "status": "discovered", "R": 4.63, "arms": 3, "charge": 0.0 }, "geometry": { "type": "Point", "coordinates": [ 670331.62699999997858, 3399312.248999999836087 ] } },
{ "type": "Feature", "properties": { "path": "Chandigarh_51", "jtype": "Y_or_T", "status": "confirmed", "R": 3.38, "arms": 1, "charge": 0.5 }, "geometry": { "type": "Point", "coordinates": [ 670352.708000000100583, 3399382.768999999854714 ] } },
{ "type": "Feature", "properties": { "path": "Chandigarh_51", "jtype": "ambiguous", "status": "confirmed", "R": 3.38, "arms": 2, "charge": -0.0 }, "geometry": { "type": "Point", "coordinates": [ 670364.078000000095926, 3399381.568 ] } },
{ "type": "Feature", "properties": { "path": "Chandigarh_51", "jtype": "Y_or_T", "status": "confirmed", "R": 3.38, "arms": 1, "charge": -0.5 }, "geometry": { "type": "Point", "coordinates": [ 670363.208000000100583, 3399373.469 ] } },
{ "type": "Feature", "properties": { "path": "Chandigarh_52", "jtype": "Y_or_T", "status": "confirmed", "R": 3.78, "arms": 3, "charge": 0.5 }, "geometry": { "type": "Point", "coordinates": [ 670382.419, 3399390.151999999769032 ] } },
{ "type": "Feature", "properties": { "path": "Chandigarh_52", "jtype": "Y_or_T", "status": "confirmed", "R": 3.5, "arms": 2, "charge": 0.5 }, "geometry": { "type": "Point", "coordinates": [ 670445.704000000027008, 3399437.806999999564141 ] } },
{ "type": "Feature", "properties": { "path": "Chandigarh_56", "jtype": "Y_or_T", "status": "discovered", "R": 5.63, "arms": 3, "charge": 0.5 }, "geometry": { "type": "Point", "coordinates": [ 670668.231000000028871, 3399603.731000000145286 ] } },
{ "type": "Feature", "properties": { "path": "Chandigarh_57", "jtype": "Y_or_T", "status": "confirmed", "R": 5.48, "arms": 1, "charge": 0.5 }, "geometry": { "type": "Point", "coordinates": [ 670670.479000000050291, 3399607.074 ] } },
{ "type": "Feature", "properties": { "path": "Chandigarh_59", "jtype": "Y_or_T", "status": "confirmed", "R": 3.53, "arms": 3, "charge": 0.5 }, "geometry": { "type": "Point", "coordinates": [ 670789.649000000092201, 3399694.072000000160187 ] } },
{ "type": "Feature", "properties": { "path": "Chandigarh_61", "jtype": "Y_or_T", "status": "confirmed", "R": 1.88, "arms": 3, "charge": -0.5 }, "geometry": { "type": "Point", "coordinates": [ 670889.910000000032596, 3399826.919000000227243 ] } },
{ "type": "Feature", "properties": { "path": "Chandigarh_63", "jtype": "Y_or_T", "status": "confirmed", "R": 2.01, "arms": 3, "charge": -0.5 }, "geometry": { "type": "Point", "coordinates": [ 671016.807000000029802, 3399920.183999999891967 ] } },
{ "type": "Feature", "properties": { "path": "Chandigarh_64", "jtype": "Y_or_T", "status": "confirmed", "R": 2.0, "arms": 3, "charge": -0.5 }, "geometry": { "type": "Point", "coordinates": [ 671061.334000000031665, 3399953.418 ] } },
{ "type": "Feature", "properties": { "path": "Chandigarh_66", "jtype": "Y_or_T", "status": "confirmed", "R": 1.8, "arms": 3, "charge": -0.5 }, "geometry": { "type": "Point", "coordinates": [ 671187.003000000026077, 3400049.318 ] } },
{ "type": "Feature", "properties": { "path": "Chandigarh_67", "jtype": "Y_or_T", "status": "confirmed", "R": 1.89, "arms": 3, "charge": -0.5 }, "geometry": { "type": "Point", "coordinates": [ 671230.532999999937601, 3400082.87099999981001 ] } },
{ "type": "Feature", "properties": { "path": "Chandigarh_69", "jtype": "ambiguous", "status": "confirmed", "R": 2.73, "arms": 2, "charge": 0.0 }, "geometry": { "type": "Point", "coordinates": [ 671321.677000000025146, 3400167.399000000208616 ] } },
{ "type": "Feature", "properties": { "path": "Chandigarh_69", "jtype": "ambiguous", "status": "confirmed", "R": 2.06, "arms": 2, "charge": -0.0 }, "geometry": { "type": "Point", "coordinates": [ 671328.273000000044703, 3400156.531 ] } },
{ "type": "Feature", "properties": { "path": "Chandigarh_69", "jtype": "Y_or_T", "status": "confirmed", "R": 2.85, "arms": 2, "charge": 0.5 }, "geometry": { "type": "Point", "coordinates": [ 671360.591000000014901, 3400133.660000000149012 ] } },
{ "type": "Feature", "properties": { "path": "Chandigarh_69", "jtype": "Y_or_T", "status": "confirmed", "R": 2.25, "arms": 2, "charge": -0.5 }, "geometry": { "type": "Point", "coordinates": [ 671344.21999999997206, 3400121.088 ] } },
{ "type": "Feature", "properties": { "path": "Chandigarh_69", "jtype": "Y_or_T", "status": "confirmed", "R": 2.25, "arms": 2, "charge": -0.5 }, "geometry": { "type": "Point", "coordinates": [ 671337.62, 3400114.488000000361353 ] } },
{ "type": "Feature", "properties": { "path": "Chandigarh_70", "jtype": "Y_or_T", "status": "confirmed", "R": 8.42, "arms": 2, "charge": -0.5 }, "geometry": { "type": "Point", "coordinates": [ 670221.410999999963678, 3399421.679999999701977 ] } },
{ "type": "Feature", "properties": { "path": "Chandigarh_70", "jtype": "Y_or_T", "status": "confirmed", "R": 5.22, "arms": 2, "charge": 0.5 }, "geometry": { "type": "Point", "coordinates": [ 670252.120999999926426, 3399380.392999999690801 ] } },
{ "type": "Feature", "properties": { "path": "Chandigarh_70", "jtype": "Y_or_T", "status": "confirmed", "R": 6.98, "arms": 2, "charge": -0.5 }, "geometry": { "type": "Point", "coordinates": [ 670219.137999999918975, 3399405.764 ] } },
{ "type": "Feature", "properties": { "path": "Chandigarh_70", "jtype": "Y_or_T", "status": "confirmed", "R": 5.9, "arms": 2, "charge": 0.5 }, "geometry": { "type": "Point", "coordinates": [ 670227.740999999921769, 3399394.375999999698251 ] } },
{ "type": "Feature", "properties": { "path": "Chandigarh_70", "jtype": "Y_or_T", "status": "confirmed", "R": 6.12, "arms": 1, "charge": -0.5 }, "geometry": { "type": "Point", "coordinates": [ 670256.941, 3399433.713 ] } },
{ "type": "Feature", "properties": { "path": "Chandigarh_70", "jtype": "Y_or_T", "status": "confirmed", "R": 6.12, "arms": 2, "charge": -0.5 }, "geometry": { "type": "Point", "coordinates": [ 670247.040999999968335, 3399426.51299999980256 ] } },
{ "type": "Feature", "properties": { "path": "Chandigarh_70", "jtype": "ambiguous", "status": "confirmed", "R": 6.12, "arms": 2, "charge": 0.0 }, "geometry": { "type": "Point", "coordinates": [ 670300.140999999945052, 3399388.713 ] } },
{ "type": "Feature", "properties": { "path": "Chandigarh_70", "jtype": "Y_or_T", "status": "confirmed", "R": 6.12, "arms": 2, "charge": -0.5 }, "geometry": { "type": "Point", "coordinates": [ 670277.040999999968335, 3399389.912999999709427 ] } },
{ "type": "Feature", "properties": { "path": "Chandigarh_71", "jtype": "Y_or_T", "status": "confirmed", "R": 4.73, "arms": 3, "charge": 0.5 }, "geometry": { "type": "Point", "coordinates": [ 670173.587000000057742, 3399509.954000000376254 ] } },
{ "type": "Feature", "properties": { "path": "Chandigarh_71", "jtype": "Y_or_T", "status": "confirmed", "R": 4.99, "arms": 1, "charge": 0.5 }, "geometry": { "type": "Point", "coordinates": [ 670225.846000000019558, 3399444.259 ] } },
{ "type": "Feature", "properties": { "path": "Chandigarh_72", "jtype": "Y_or_T", "status": "confirmed", "R": 2.07, "arms": 2, "charge": -0.5 }, "geometry": { "type": "Point", "coordinates": [ 670147.133000000030734, 3399548.415 ] } },
{ "type": "Feature", "properties": { "path": "Chandigarh_72", "jtype": "ambiguous", "status": "confirmed", "R": 2.07, "arms": 2, "charge": 0.0 }, "geometry": { "type": "Point", "coordinates": [ 670157.033000000054017, 3399535.815 ] } },
{ "type": "Feature", "properties": { "path": "Chandigarh_72", "jtype": "Y_or_T", "status": "confirmed", "R": 4.67, "arms": 2, "charge": 0.5 }, "geometry": { "type": "Point", "coordinates": [ 670129.133000000030734, 3399565.815 ] } },
{ "type": "Feature", "properties": { "path": "Chandigarh_73", "jtype": "Y_or_T", "status": "confirmed", "R": 3.03, "arms": 1, "charge": 0.5 }, "geometry": { "type": "Point", "coordinates": [ 670106.849000000045635, 3399555.798 ] } },
{ "type": "Feature", "properties": { "path": "Chandigarh_73", "jtype": "Y_or_T", "status": "discovered", "R": 6.73, "arms": 3, "charge": 0.5 }, "geometry": { "type": "Point", "coordinates": [ 670052.099999999976717, 3399640.983 ] } },
{ "type": "Feature", "properties": { "path": "Chandigarh_73", "jtype": "ambiguous", "status": "confirmed", "R": 2.09, "arms": 1, "charge": 0.0 }, "geometry": { "type": "Point", "coordinates": [ 670081.831, 3399639.325999999884516 ] } },
{ "type": "Feature", "properties": { "path": "Chandigarh_73", "jtype": "Y_or_T", "status": "confirmed", "R": 2.09, "arms": 2, "charge": -0.5 }, "geometry": { "type": "Point", "coordinates": [ 670064.34699999995064, 3399647.714000000152737 ] } },
{ "type": "Feature", "properties": { "path": "Chandigarh_73", "jtype": "Y_or_T", "status": "confirmed", "R": 2.09, "arms": 2, "charge": -0.5 }, "geometry": { "type": "Point", "coordinates": [ 670075.831, 3399633.926 ] } },
{ "type": "Feature", "properties": { "path": "Chandigarh_73", "jtype": "ambiguous", "status": "confirmed", "R": 2.09, "arms": 2, "charge": -0.0 }, "geometry": { "type": "Point", "coordinates": [ 670084.530999999959022, 3399627.026 ] } },
{ "type": "Feature", "properties": { "path": "Chandigarh_73", "jtype": "ambiguous", "status": "confirmed", "R": 2.09, "arms": 2, "charge": -0.0 }, "geometry": { "type": "Point", "coordinates": [ 670092.631000000052154, 3399616.825999999884516 ] } },
{ "type": "Feature", "properties": { "path": "Chandigarh_74", "jtype": "Y_or_T", "status": "confirmed", "R": 2.26, "arms": 3, "charge": -0.5 }, "geometry": { "type": "Point", "coordinates": [ 670002.331, 3399679.268000000156462 ] } },
{ "type": "Feature", "properties": { "path": "Chandigarh_74", "jtype": "Y_or_T", "status": "confirmed", "R": 2.17, "arms": 3, "charge": 0.5 }, "geometry": { "type": "Point", "coordinates": [ 670036.631999999983236, 3399704.495000000111759 ] } },
{ "type": "Feature", "properties": { "path": "Chandigarh_74", "jtype": "Y_or_T", "status": "confirmed", "R": 4.98, "arms": 3, "charge": 0.5 }, "geometry": { "type": "Point", "coordinates": [ 670004.587000000057742, 3399700.717000000178814 ] } },
{ "type": "Feature", "properties": { "path": "Chandigarh_74", "jtype": "Y_or_T", "status": "discovered", "R": 6.6, "arms": 3, "charge": 0.5 }, "geometry": { "type": "Point", "coordinates": [ 670049.089999999967404, 3399644.924999999813735 ] } },
{ "type": "Feature", "properties": { "path": "Chandigarh_75", "jtype": "Y_or_T", "status": "confirmed", "R": 2.13, "arms": 2, "charge": 0.5 }, "geometry": { "type": "Point", "coordinates": [ 669972.90300000004936, 3399768.717000000178814 ] } },
{ "type": "Feature", "properties": { "path": "Chandigarh_75", "jtype": "Y_or_T", "status": "confirmed", "R": 2.13, "arms": 2, "charge": -0.5 }, "geometry": { "type": "Point", "coordinates": [ 669950.086000000010245, 3399791.959000000264496 ] } },
{ "type": "Feature", "properties": { "path": "Chandigarh_75", "jtype": "Y_or_T", "status": "confirmed", "R": 2.13, "arms": 1, "charge": -0.5 }, "geometry": { "type": "Point", "coordinates": [ 670002.603, 3399739.167000000365078 ] } },
{ "type": "Feature", "properties": { "path": "Chandigarh_75", "jtype": "Y_or_T", "status": "confirmed", "R": 2.13, "arms": 1, "charge": 0.5 }, "geometry": { "type": "Point", "coordinates": [ 669996.303000000072643, 3399734.067000000271946 ] } },
{ "type": "Feature", "properties": { "path": "Chandigarh_75", "jtype": "Y_or_T", "status": "confirmed", "R": 5.17, "arms": 3, "charge": 0.5 }, "geometry": { "type": "Point", "coordinates": [ 669998.116000000038184, 3399708.748000000137836 ] } },
{ "type": "Feature", "properties": { "path": "Chandigarh_77", "jtype": "Y_or_T", "status": "confirmed", "R": 5.53, "arms": 1, "charge": 0.5 }, "geometry": { "type": "Point", "coordinates": [ 669830.001000000047497, 3399918.58 ] } },
{ "type": "Feature", "properties": { "path": "Chandigarh_78", "jtype": "Y_or_T", "status": "confirmed", "R": 6.73, "arms": 2, "charge": -0.5 }, "geometry": { "type": "Point", "coordinates": [ 669779.231000000028871, 3400021.105000000447035 ] } },
{ "type": "Feature", "properties": { "path": "Chandigarh_78", "jtype": "ambiguous", "status": "confirmed", "R": 11.57, "arms": 2, "charge": 0.0 }, "geometry": { "type": "Point", "coordinates": [ 669756.064999999944121, 3400020.953000000212342 ] } },
{ "type": "Feature", "properties": { "path": "Chandigarh_78", "jtype": "Y_or_T", "status": "confirmed", "R": 5.45, "arms": 2, "charge": -0.5 }, "geometry": { "type": "Point", "coordinates": [ 669791.522, 3400011.210000000428408 ] } },
{ "type": "Feature", "properties": { "path": "Chandigarh_78", "jtype": "Y_or_T", "status": "confirmed", "R": 5.45, "arms": 2, "charge": 0.5 }, "geometry": { "type": "Point", "coordinates": [ 669761.821999999927357, 3400006.410000000149012 ] } },
{ "type": "Feature", "properties": { "path": "Chandigarh_78", "jtype": "Y_or_T", "status": "confirmed", "R": 5.45, "arms": 2, "charge": -0.5 }, "geometry": { "type": "Point", "coordinates": [ 669832.022, 3400005.81 ] } },
{ "type": "Feature", "properties": { "path": "Chandigarh_78", "jtype": "Y_or_T", "status": "confirmed", "R": 9.75, "arms": 2, "charge": -0.5 }, "geometry": { "type": "Point", "coordinates": [ 669776.452999999979511, 3399995.688 ] } },
{ "type": "Feature", "properties": { "path": "Chandigarh_78", "jtype": "Y_or_T", "status": "confirmed", "R": 5.45, "arms": 2, "charge": -0.5 }, "geometry": { "type": "Point", "coordinates": [ 669848.522, 3399983.610000000335276 ] } },
{ "type": "Feature", "properties": { "path": "Chandigarh_78", "jtype": "Y_or_T", "status": "confirmed", "R": 5.45, "arms": 1, "charge": -0.5 }, "geometry": { "type": "Point", "coordinates": [ 669863.120999999926426, 3400002.003 ] } },
{ "type": "Feature", "properties": { "path": "Chandigarh_78", "jtype": "Y_or_T", "status": "confirmed", "R": 5.45, "arms": 2, "charge": -0.5 }, "geometry": { "type": "Point", "coordinates": [ 669766.621999999973923, 3399957.210000000428408 ] } },
{ "type": "Feature", "properties": { "path": "Chandigarh_78", "jtype": "Y_or_T", "status": "confirmed", "R": 5.45, "arms": 3, "charge": 0.5 }, "geometry": { "type": "Point", "coordinates": [ 669757.206, 3399942.983 ] } },
{ "type": "Feature", "properties": { "path": "Chandigarh_78", "jtype": "Y_or_T", "status": "confirmed", "R": 5.45, "arms": 2, "charge": -0.5 }, "geometry": { "type": "Point", "coordinates": [ 669784.022, 3399934.110000000335276 ] } },
{ "type": "Feature", "properties": { "path": "Chandigarh_78", "jtype": "Y_or_T", "status": "confirmed", "R": 5.45, "arms": 2, "charge": -0.5 }, "geometry": { "type": "Point", "coordinates": [ 669820.422000000020489, 3399929.510000000242144 ] } },
{ "type": "Feature", "properties": { "path": "Chandigarh_78", "jtype": "ambiguous", "status": "confirmed", "R": 6.0, "arms": 2, "charge": -0.0 }, "geometry": { "type": "Point", "coordinates": [ 669847.621999999973923, 3399960.210000000428408 ] } },
{ "type": "Feature", "properties": { "path": "Chandigarh_78", "jtype": "Y_or_T", "status": "discovered", "R": 5.45, "arms": 3, "charge": 0.0 }, "geometry": { "type": "Point", "coordinates": [ 669782.657999999937601, 3400008.90900000045076 ] } },
{ "type": "Feature", "properties": { "path": "Chandigarh_79", "jtype": "Y_or_T", "status": "confirmed", "R": 12.28, "arms": 3, "charge": 0.5 }, "geometry": { "type": "Point", "coordinates": [ 669871.930000000051223, 3400021.023999999742955 ] } },
{ "type": "Feature", "properties": { "path": "Chandigarh_82", "jtype": "Y_or_T", "status": "confirmed", "R": 3.76, "arms": 2, "charge": 0.5 }, "geometry": { "type": "Point", "coordinates": [ 670029.442999999970198, 3400131.145999999716878 ] } },
{ "type": "Feature", "properties": { "path": "Chandigarh_83", "jtype": "Y_or_T", "status": "confirmed", "R": 3.49, "arms": 2, "charge": -0.5 }, "geometry": { "type": "Point", "coordinates": [ 670153.553000000072643, 3400234.794000000227243 ] } },
{ "type": "Feature", "properties": { "path": "Chandigarh_85", "jtype": "Y_or_T", "status": "confirmed", "R": 4.58, "arms": 3, "charge": -0.0 }, "geometry": { "type": "Point", "coordinates": [ 670287.063000000081956, 3400322.349 ] } },
{ "type": "Feature", "properties": { "path": "Chandigarh_87", "jtype": "Y_or_T", "status": "confirmed", "R": 5.49, "arms": 1, "charge": 0.5 }, "geometry": { "type": "Point", "coordinates": [ 670472.637999999918975, 3400464.174000000115484 ] } },
{ "type": "Feature", "properties": { "path": "Chandigarh_88", "jtype": "Y_or_T", "status": "confirmed", "R": 3.84, "arms": 1, "charge": 0.5 }, "geometry": { "type": "Point", "coordinates": [ 670472.771000000066124, 3400473.631999999750406 ] } },
{ "type": "Feature", "properties": { "path": "Chandigarh_88", "jtype": "Y_or_T", "status": "discovered", "R": 5.24, "arms": 3, "charge": 0.5 }, "geometry": { "type": "Point", "coordinates": [ 670534.197000000043772, 3400508.671999999787658 ] } },
{ "type": "Feature", "properties": { "path": "Chandigarh_89", "jtype": "Y_or_T", "status": "discovered", "R": 5.0, "arms": 3, "charge": 0.5 }, "geometry": { "type": "Point", "coordinates": [ 670531.956, 3400517.855 ] } },
{ "type": "Feature", "properties": { "path": "Chandigarh_89", "jtype": "Y_or_T", "status": "confirmed", "R": 3.61, "arms": 2, "charge": 0.5 }, "geometry": { "type": "Point", "coordinates": [ 670538.585000000079162, 3400511.94 ] } },
{ "type": "Feature", "properties": { "path": "Chandigarh_92", "jtype": "Y_or_T", "status": "confirmed", "R": 3.82, "arms": 2, "charge": 0.5 }, "geometry": { "type": "Point", "coordinates": [ 670707.680000000051223, 3400649.353999999817461 ] } },
{ "type": "Feature", "properties": { "path": "Chandigarh_93", "jtype": "ambiguous", "status": "confirmed", "R": 3.65, "arms": 2, "charge": 0.0 }, "geometry": { "type": "Point", "coordinates": [ 670829.591000000014901, 3400741.935999999754131 ] } },
{ "type": "Feature", "properties": { "path": "Chandigarh_93", "jtype": "Y_or_T", "status": "confirmed", "R": 3.71, "arms": 2, "charge": -0.5 }, "geometry": { "type": "Point", "coordinates": [ 670849.24800000002142, 3400741.191999999806285 ] } },
{ "type": "Feature", "properties": { "path": "Chandigarh_93", "jtype": "Y_or_T", "status": "confirmed", "R": 3.71, "arms": 3, "charge": 0.5 }, "geometry": { "type": "Point", "coordinates": [ 670798.85999999998603, 3400706.639 ] } }
]
}
