{
"type": "FeatureCollection",
"name": "kerala_junctions",
"crs": { "type": "name", "properties": { "name": "urn:ogc:def:crs:EPSG::32643" } },
"features": [
{ "type": "Feature", "properties": { "path": "Kerala_03", "jtype": "Y_or_T", "status": "confirmed", "R": 2.01, "arms": 3, "charge": -0.5 }, "geometry": { "type": "Point", "coordinates": [ 709735.34699999995064, 963610.271000000066124 ] } },
{ "type": "Feature", "properties": { "path": "Kerala_04", "jtype": "Y_or_T", "status": "confirmed", "R": 2.11, "arms": 3, "charge": -0.5 }, "geometry": { "type": "Point", "coordinates": [ 709853.10999999998603, 963662.840000000083819 ] } },
{ "type": "Feature", "properties": { "path": "Kerala_17", "jtype": "ambiguous", "status": "confirmed", "R": 1.98, "arms": 2, "charge": -0.0 }, "geometry": { "type": "Point", "coordinates": [ 711044.408000000054017, 963193.729000000050291 ] } },
{ "type": "Feature", "properties": { "path": "Kerala_17", "jtype": "Y_or_T", "status": "discovered", "R": 2.85, "arms": 3, "charge": 0.0 }, "geometry": { "type": "Point", "coordinates": [ 711057.271000000066124, 963158.006000000052154 ] } },
{ "type": "Feature", "properties": { "path": "Kerala_17", "jtype": "Y_or_T", "status": "discovered", "R": 2.5, "arms": 3, "charge": 0.0 }, "geometry": { "type": "Point", "coordinates": [ 711056.930999999982305, 963151.866999999969266 ] } },
{ "type": "Feature", "properties": { "path": "Kerala_17", "jtype": "Y_or_T", "status": "discovered", "R": 2.43, "arms": 3, "charge": 0.0 }, "geometry": { "type": "Point", "coordinates": [ 711050.772, 963166.447999999974854 ] } },
{ "type": "Feature", "properties": { "path": "Kerala_17", "jtype": "Y_or_T", "status": "discovered", "R": 1.98, "arms": 3, "charge": 0.0 }, "geometry": { "type": "Point", "coordinates": [ 711055.0, 963161.153999999980442 ] } },
{ "type": "Feature", "properties": { "path": "Kerala_18", "jtype": "Y_or_T", "status": "confirmed", "R": 1.84, "arms": 3, "charge": -0.5 }, "geometry": { "type": "Point", "coordinates": [ 711231.146000000066124, 963200.805000000051223 ] } },
{ "type": "Feature", "properties": { "path": "Kerala_22", "jtype": "ambiguous", "status": "confirmed", "R": 2.85, "arms": 2, "charge": 0.0 }, "geometry": { "type": "Point", "coordinates": [ 711627.571999999927357, 962979.287999999942258 ] } },
{ "type": "Feature", "properties": { "path": "Kerala_22", "jtype": "Y_or_T", "status": "discovered", "R": 6.62, "arms": 3, "charge": 0.5 }, "geometry": { "type": "Point", "coordinates": [ 711556.82999999995809, 963025.349999999976717 ] } },
{ "type": "Feature", "properties": { "path": "Kerala_24", "jtype": "Y_or_T", "status": "confirmed", "R": 1.88, "arms": 3, "charge": -0.5 }, "geometry": { "type": "Point", "coordinates": [ 711612.745, 962881.653999999980442 ] } },
{ "type": "Feature", "properties": { "path": "Kerala_24", "jtype": "Y_or_T", "status": "confirmed", "R": 1.88, "arms": 3, "charge": 0.5 }, "geometry": { "type": "Point", "coordinates": [ 711603.445000000065193, 962877.754000000073574 ] } },
{ "type": "Feature", "properties": { "path": "Kerala_26", "jtype": "ambiguous", "status": "confirmed", "R": 7.38, "arms": 2, "charge": -0.0 }, "geometry": { "type": "Point", "coordinates": [ 711651.54500000004191, 962666.175999999977648 ] } },
{ "type": "Feature", "properties": { "path": "Kerala_32", "jtype": "Y_or_T", "status": "confirmed", "R": 1.54, "arms": 3, "charge": -0.5 }, "geometry": { "type": "Point", "coordinates": [ 711826.408999999985099, 962079.875 ] } },
{ "type": "Feature", "properties": { "path": "Kerala_40", "jtype": "Y_or_T", "status": "confirmed", "R": 1.5, "arms": 3, "charge": -0.5 }, "geometry": { "type": "Point", "coordinates": [ 711905.223, 961505.588999999919906 ] } },
{ "type": "Feature", "properties": { "path": "Kerala_44", "jtype": "Y_or_T", "status": "confirmed", "R": 1.92, "arms": 3, "charge": -0.5 }, "geometry": { "type": "Point", "coordinates": [ 711970.709000000031665, 961202.280999999959022 ] } },
{ "type": "Feature", "properties": { "path": "Kerala_47", "jtype": "ambiguous", "status": "confirmed", "R": 1.72, "arms": 2, "charge": 0.0 }, "geometry": { "type": "Point", "coordinates": [ 711854.99, 960919.720999999903142 ] } },
{ "type": "Feature", "properties": { "path": "Kerala_52", "jtype": "Y_or_T", "status": "confirmed", "R": 2.78, "arms": 3, "charge": -0.5 }, "geometry": { "type": "Point", "coordinates": [ 711791.699000000022352, 960393.574999999953434 ] } },
{ "type": "Feature", "properties": { "path": "Kerala_54", "jtype": "ambiguous", "status": "confirmed", "R": 3.1, "arms": 2, "charge": 0.0 }, "geometry": { "type": "Point", "coordinates": [ 711602.645000000018626, 960089.197999999974854 ] } },
{ "type": "Feature", "properties": { "path": "Kerala_55", "jtype": "Y_or_T", "status": "confirmed", "R": 3.01, "arms": 3, "charge": -0.5 }, "geometry": { "type": "Point", "coordinates": [ 711585.783999999985099, 960064.664999999920838 ] } },
{ "type": "Feature", "properties": { "path": "Kerala_59", "jtype": "Y_or_T", "status": "confirmed", "R": 3.04, "arms": 3, "charge": -0.5 }, "geometry": { "type": "Point", "coordinates": [ 711315.792999999946915, 960110.675999999977648 ] } },
{ "type": "Feature", "properties": { "path": "Kerala_60", "jtype": "Y_or_T", "status": "confirmed", "R": 2.97, "arms": 3, "charge": 0.0 }, "geometry": { "type": "Point", "coordinates": [ 711129.029999999911524, 960142.820000000065193 ] } },
{ "type": "Feature", "properties": { "path": "Kerala_61", "jtype": "plus", "status": "confirmed", "R": 3.04, "arms": 4, "charge": -0.5 }, "geometry": { "type": "Point", "coordinates": [ 710944.809999999939464, 960171.87699999997858 ] } },
{ "type": "Feature", "properties": { "path": "Kerala_61", "jtype": "Y_or_T", "status": "confirmed", "R": 2.95, "arms": 3, "charge": -0.5 }, "geometry": { "type": "Point", "coordinates": [ 710834.559999999939464, 960150.277 ] } },
{ "type": "Feature", "properties": { "path": "Kerala_61", "jtype": "Y_or_T", "status": "discovered", "R": 3.57, "arms": 3, "charge": -0.5 }, "geometry": { "type": "Point", "coordinates": [ 710943.26, 960175.093999999924563 ] } },
{ "type": "Feature", "properties": { "path": "Kerala_62", "jtype": "Y_or_T", "status": "confirmed", "R": 3.01, "arms": 3, "charge": -0.5 }, "geometry": { "type": "Point", "coordinates": [ 710694.858999999938533, 960173.817999999970198 ] } },
{ "type": "Feature", "properties": { "path": "Kerala_62", "jtype": "Y_or_T", "status": "confirmed", "R": 3.01, "arms": 3, "charge": -0.5 }, "geometry": { "type": "Point", "coordinates": [ 710791.758999999961816, 960146.817999999970198 ] } },
{ "type": "Feature", "properties": { "path": "Kerala_63", "jtype": "plus", "status": "confirmed", "R": 2.75, "arms": 4, "charge": -0.5 }, "geometry": { "type": "Point", "coordinates": [ 710551.20499999995809, 960177.608 ] } },
{ "type": "Feature", "properties": { "path": "Kerala_63", "jtype": "Y_or_T", "status": "confirmed", "R": 2.85, "arms": 1, "charge": 0.5 }, "geometry": { "type": "Point", "coordinates": [ 710508.604999999981374, 960176.408000000054017 ] } },
{ "type": "Feature", "properties": { "path": "Kerala_65A", "jtype": "Y_or_T", "status": "confirmed", "R": 3.43, "arms": 3, "charge": 0.5 }, "geometry": { "type": "Point", "coordinates": [ 710331.566, 960164.685999999986961 ] } },
{ "type": "Feature", "properties": { "path": "Kerala_65A", "jtype": "Y_or_T", "status": "confirmed", "R": 3.43, "arms": 3, "charge": -0.5 }, "geometry": { "type": "Point", "coordinates": [ 710304.266000000061467, 960126.886000000056811 ] } },
{ "type": "Feature", "properties": { "path": "Kerala_65B", "jtype": "Y_or_T", "status": "confirmed", "R": 3.09, "arms": 3, "charge": 0.5 }, "geometry": { "type": "Point", "coordinates": [ 710286.386000000056811, 960090.379999999888241 ] } },
{ "type": "Feature", "properties": { "path": "Kerala_66B", "jtype": "X_cross", "status": "confirmed", "R": 3.17, "arms": 3, "charge": -0.5 }, "geometry": { "type": "Point", "coordinates": [ 710319.615, 959959.991000000038184 ] } },
{ "type": "Feature", "properties": { "path": "Kerala_67A", "jtype": "Y_or_T", "status": "confirmed", "R": 4.57, "arms": 3, "charge": -0.5 }, "geometry": { "type": "Point", "coordinates": [ 710187.737000000081025, 959817.96999999997206 ] } },
{ "type": "Feature", "properties": { "path": "Kerala_67B", "jtype": "X_cross", "status": "confirmed", "R": 4.33, "arms": 3, "charge": -0.0 }, "geometry": { "type": "Point", "coordinates": [ 710108.721000000019558, 959797.900999999954365 ] } },
{ "type": "Feature", "properties": { "path": "Kerala_67B", "jtype": "Y_or_T", "status": "confirmed", "R": 2.77, "arms": 2, "charge": -0.5 }, "geometry": { "type": "Point", "coordinates": [ 710117.97199999995064, 959780.995 ] } },
{ "type": "Feature", "properties": { "path": "Kerala_67B", "jtype": "Y_or_T", "status": "confirmed", "R": 2.77, "arms": 3, "charge": -0.5 }, "geometry": { "type": "Point", "coordinates": [ 710125.47199999995064, 959773.194999999948777 ] } },
{ "type": "Feature", "properties": { "path": "Kerala_67B", "jtype": "Y_or_T", "status": "confirmed", "R": 2.77, "arms": 2, "charge": -0.5 }, "geometry": { "type": "Point", "coordinates": [ 710135.072000000043772, 959743.194999999948777 ] } },
{ "type": "Feature", "properties": { "path": "Kerala_67B", "jtype": "Y_or_T", "status": "discovered", "R": 6.22, "arms": 3, "charge": -0.5 }, "geometry": { "type": "Point", "coordinates": [ 710105.290000000037253, 959808.430999999982305 ] } }
]
}
