{"type": "FeatureCollection", "features": [{"type": "Feature", "properties": {"mode": "free", "vehicle": "ladder_truck", "city": "bhopal", "length_m": 1298.4, "time_min": 2.25, "detour_m": 161.8, "detour_pct": 12.5}, "geometry": {"type": "LineString", "coordinates": [[77.4023468, 23.2624519], [77.40232776936844, 23.262430308113498], [77.40230873874313, 23.26240871622412], [77.40228970812407, 23.262387124331863], [77.40227067751128, 23.26236553243674], [77.40225164690473, 23.262343940538734], [77.4022331582854, 23.2623220387824], [77.40221594602875, 23.262299407318757], [77.40220074451003, 23.262275626299164], [77.40218720414246, 23.26225089558579], [77.40217459055019, 23.262225635028102], [77.40216216935762, 23.262200264475226], [77.40214974817013, 23.2621748939209], [77.40213732698773, 23.262149523365117], [77.4021249058104, 23.262124152807896], [77.40211248463815, 23.26209878224922], [77.40210006347098, 23.262073411689094], [77.40208764230891, 23.262048041127517], [77.40207522115192, 23.262022670564487], [77.4020628, 23.261997300000004], [77.4020628, 23.261997300000004], [77.40203278889466, 23.261997566715415], [77.40200277778864, 23.26199783342509], [77.40197276668195, 23.261998100129038], [77.40194275557457, 23.261998366827243], [77.40191274446651, 23.261998633519717], [77.40188273335778, 23.261998900206454], [77.40185272224838, 23.261999166887456], [77.40182271113827, 23.26199943356272], [77.40179270002751, 23.261999700232256], [77.40176268891607, 23.261999966896052], [77.40173267780392, 23.262000233554122], [77.40170266669111, 23.262000500206454], [77.40167265557763, 23.262000766853042], [77.40164264446346, 23.262001033493913], [77.40161263334862, 23.262001300129032], [77.4015826222331, 23.262001566758425], [77.40155261111688, 23.262001833382087], [77.4015226, 23.262002099999993], [77.4015226, 23.262002099999993], [77.40152332857063, 23.261974100000213], [77.40152405714153, 23.261946100000344], [77.4015247857127, 23.261918100000415], [77.40152551428412, 23.26189010000041], [77.40152624285582, 23.26186210000034], [77.40152697142778, 23.2618341000002], [77.4015277, 23.261806099999998], [77.4015277, 23.261806099999998], [77.40155733095193, 23.26180565967246], [77.40158696190312, 23.26180521933934], [77.40161659285357, 23.26180477900064], [77.40164622380328, 23.261804338656354], [77.40167585475226, 23.261803898306482], [77.40170548570048, 23.261803457951025], [77.40173511664797, 23.261803017589987], [77.40176474759473, 23.261802577223364], [77.40179437854073, 23.261802136851156], [77.40182400948599, 23.261801696473363], [77.40185364043052, 23.261801256089992], [77.40188327137432, 23.261800815701037], [77.40191290231735, 23.261800375306496], [77.40194253325966, 23.26179993490637], [77.40197216420123, 23.261799494500657], [77.40200179514206, 23.26179905408936], [77.40203142608215, 23.261798613672486], [77.4020610570215, 23.261798173250032], [77.4020906879601, 23.261797732821982], [77.40212031889796, 23.261797292388355], [77.40214994983508, 23.261796851949143], [77.40217958077147, 23.26179641150435], [77.40220921170712, 23.261795971053964], [77.402238842642, 23.261795530598004], [77.40226840172679, 23.261794697828176], [77.40229772309488, 23.261792567091366], [77.40232445486426, 23.26178677369417], [77.4023511683686, 23.26176305177259], [77.40236958125715, 23.261722096716422], [77.40238110496921, 23.261668686856712], [77.40237752007764, 23.26163257979287], [77.40237259653863, 23.261615150648517], [77.40236727479267, 23.26161398578837], [77.40237263755655, 23.261615011764736], [77.4023887258486, 23.261618089692703], [77.40241553966997, 23.261623219568833], [77.40241553966997, 23.261623219568833], [77.40239855681746, 23.26161909567232], [77.40240151533388, 23.261616288685463], [77.40242438249783, 23.261614409559], [77.40246183303317, 23.261611883385903], [77.40249216550666, 23.261609285433263], [77.4025197596722, 23.261606789082744], [77.40254566394044, 23.261604509880456], [77.40257696654486, 23.261601709072078], [77.40260716114055, 23.26159877791428], [77.40263522976727, 23.261596305916736], [77.40266118492484, 23.261594459790555], [77.40268698389687, 23.261578144494923], [77.40271345816892, 23.261531861511255], [77.4027406, 23.2614555], [77.4027406, 23.2614555], [77.40274053076568, 23.261427707692864], [77.40274046153196, 23.26139991538562], [77.40274039229882, 23.261372123078303], [77.40274032306628, 23.26134433077089], [77.40274025383434, 23.261316538463387], [77.40274018460298, 23.261288746155778], [77.40274819319056, 23.26124819389067], [77.40276428728116, 23.261197969701588], [77.4027884745561, 23.261141161621076], [77.40280460708917, 23.2611063776002], [77.40281213089793, 23.26109063827815], [77.4028104919929, 23.26109096429337], [77.40280776048449, 23.261091507652054], [77.40280776048449, 23.261091507652054], [77.40280887218066, 23.26106563452864], [77.402810675039, 23.26103899982357], [77.40281304585478, 23.26101061847046], [77.4028147893931, 23.26098043139278], [77.40280552191784, 23.260945521402473], [77.40278636589771, 23.26090974066752], [77.40275913441899, 23.260875576378083], [77.402750175001, 23.26085457233643], [77.40276333164762, 23.26084394162609], [77.40279740765035, 23.260841148972464], [77.40279740765035, 23.260841148972464], [77.40278873474247, 23.260795001270406], [77.4027843574954, 23.260753604275404], [77.40278313279106, 23.26071847669506], [77.40278314807655, 23.260687752028744], [77.40278283284223, 23.260659569450116], [77.40278353031167, 23.260632407511896], [77.40278485358728, 23.26060424032473], [77.40278594340492, 23.260576048811718], [77.4027865107562, 23.26054783526276], [77.40278970432331, 23.260519522672624], [77.40279889149687, 23.26048902770598], [77.40281416117, 23.26045635081275], [77.40281416117, 23.26045635081275], [77.40280018255898, 23.260429562989913], [77.40279199615067, 23.260402604848686], [77.40278949841974, 23.260375475446533], [77.4027891659764, 23.2603472743683], [77.40278822489283, 23.26031909588512], [77.40278687741294, 23.26029094175984], [77.40278618153755, 23.260263772352374], [77.40278612895344, 23.260236579238523], [77.40278681524725, 23.26020836085488], [77.4027877537473, 23.26018015045973], [77.4027889701699, 23.26015094124892], [77.40279010947175, 23.2601227356495], [77.40279123071532, 23.260094526773734], [77.40279226728575, 23.260067321396733], [77.40279247968328, 23.26003730249296], [77.4027916394132, 23.260007154377476], [77.40278959380323, 23.259979563255722], [77.40278724308725, 23.25995734447047], [77.40278724308725, 23.25995734447047], [77.40279028134816, 23.259931298111503], [77.40279335275508, 23.259902131919915], [77.40279554748412, 23.25987198028081], [77.40279687256242, 23.259842404493998], [77.4027973502618, 23.259814965520007], [77.40279795023747, 23.2597875293961], [77.4027985691487, 23.259760092705935], [77.40279914917504, 23.259732653740937], [77.40279961216855, 23.259705211782958], [77.40280005557914, 23.259677768921627], [77.4028004109789, 23.259650325481136], [77.40280061060203, 23.259623223096217], [77.40279245764532, 23.259590272963486], [77.40277718156862, 23.259554423475667], [77.40276169155948, 23.25951789242383], [77.40276908310963, 23.259495957738103], [77.40279821778255, 23.25948567142489], [77.40279821778255, 23.25948567142489], [77.40277218994757, 23.259477348662024], [77.4027674859082, 23.25945563675326], [77.40278424304866, 23.259418525874054], [77.40279993884889, 23.259380272387205], [77.40280793614936, 23.259346054694312], [77.40280792383962, 23.259316871968878], [77.40280768085718, 23.259288690216238], [77.4028072247401, 23.25926050378376], [77.40280672280171, 23.259233323324768], [77.40280617625521, 23.259206143289518], [77.40280552862421, 23.259178964212136], [77.40280466230504, 23.259150781868193], [77.4028034786345, 23.25912160482435], [77.40280185325398, 23.259091440355633], [77.40279988715403, 23.259061590231862], [77.40279791343207, 23.259033036292536], [77.40279635673612, 23.259005754320064], [77.40279481779626, 23.25897920796141], [77.4027928864882, 23.258951417448426], [77.40279008466774, 23.25892240063152], [77.40278740176002, 23.25889434152305], [77.40278554030199, 23.25886719326772], [77.40278322032673, 23.25883750558719], [77.40277934794672, 23.258805256473188], [77.40277280743244, 23.25877542604685], [77.40276507931215, 23.25875146360812], [77.40276507931215, 23.25875146360812], [77.40276866990982, 23.25872884724096], [77.40277125469498, 23.258703023049552], [77.40277279477971, 23.25867398977937], [77.40277374475717, 23.258644858125518], [77.40277470299195, 23.25861673393943], [77.40277539763296, 23.258589629248622], [77.40277571816355, 23.2585625409156], [77.40277545056622, 23.25853545924148], [77.40277508982585, 23.258508432715256], [77.40277510866542, 23.258481460594858], [77.40277580623754, 23.25845454822861], [77.40277688114354, 23.258426558331394], [77.4027777387657, 23.258397480417], [77.40277793243712, 23.25836730684751], [77.40277772517801, 23.258338115147996], [77.40277738220335, 23.258309915183723], [77.40277722431699, 23.25828271433218], [77.40277708311862, 23.258255513260334], [77.40277705935478, 23.25822831298845], [77.40277718071067, 23.25820111453426], [77.40277763200493, 23.258173920462376], [77.40277854587691, 23.25814674226022], [77.40277433331222, 23.258115845925456], [77.40276912315015, 23.258084855713133], [77.40276680492266, 23.258057375837822], [77.40277289494054, 23.258037139543543], [77.40277289494054, 23.258037139543543], [77.40276440810385, 23.258011993331582], [77.40276454172354, 23.257981981565443], [77.40276873931595, 23.257950419218606], [77.40277278205966, 23.25791872742991], [77.40277220123184, 23.2578893483547], [77.4027714532229, 23.25785896715601], [77.40277029904537, 23.25782960931507], [77.40276925244086, 23.257801307897598], [77.40276849701017, 23.25777404092644], [77.40276832698058, 23.257746770127994], [77.40276835174657, 23.25771937850184], [77.40276851076696, 23.257691887981007], [77.40276866931232, 23.257663302241376], [77.40276794724893, 23.25763277751996], [77.40276541319156, 23.25759939558684], [77.40276105230339, 23.25756417727664], [77.40276105230339, 23.25756417727664], [77.40276002829702, 23.257544322483618], [77.40275994952906, 23.257520268088705], [77.40275987207298, 23.257493052739903], [77.40275978008188, 23.25746476663354], [77.4027584612228, 23.25743749462214], [77.40275738236639, 23.257410168794173], [77.40275633463385, 23.257382800781976], [77.40275596264392, 23.257355396690762], [77.4027555990281, 23.257327985695884], [77.40275501614258, 23.25730058045881], [77.4027541377121, 23.25727319185731], [77.40275375606812, 23.257245867480556], [77.40275444990507, 23.257218584185633], [77.40275593526712, 23.257190322616026], [77.40275687520312, 23.257162008068306], [77.40275645216686, 23.257133209563882], [77.40275457164928, 23.257105510731655], [77.40275192269476, 23.25707793877396], [77.40275192269476, 23.25707793877396], [77.4027517866112, 23.25705026940521], [77.40275111043934, 23.25702282360475], [77.40275011708752, 23.256995584457265], [77.4027491358378, 23.256968439580376], [77.40274850928392, 23.256941276553224], [77.4027482487098, 23.25691411438695], [77.40274824495772, 23.25688594831176], [77.40274836026086, 23.25685677963021], [77.40274817159431, 23.256826603006658], [77.40274780415635, 23.256797428493403], [77.40274740554362, 23.25676925426434], [77.40274734422138, 23.256742087453755], [77.40274778141632, 23.256714930538344], [77.40274874601734, 23.256687786551886], [77.40274988523784, 23.256660648454414], [77.40275056712781, 23.256633508368193], [77.4027503865548, 23.256606369247304], [77.40274951667318, 23.256579234237226], [77.40274951667318, 23.256579234237226], [77.40275042699525, 23.25655209398454], [77.40275096064858, 23.25652494133749], [77.40275110135497, 23.256497776518774], [77.40275101956456, 23.2564706057314], [77.4027509305207, 23.256443434939438], [77.40275089590337, 23.25641626350363], [77.40275109184859, 23.256389099140918], [77.40275288234555, 23.256361143498975], [77.40275760773144, 23.256331598475427], [77.40276509423698, 23.256300456396634], [77.40276509423698, 23.256300456396634], [77.40274275830967, 23.256287083556863], [77.4027279690209, 23.25627900997507], [77.402721882813, 23.256276277217243], [77.40272072636766, 23.25627623565368], [77.40272075824328, 23.25625828539715], [77.40272070791994, 23.256219360810064], [77.40272046132452, 23.25615643781818], [77.40271984062976, 23.2561023928608], [77.40271895990965, 23.25606025001204], [77.40271793323772, 23.25603303334608], [77.40271690656677, 23.256005816679977], [77.40271587989675, 23.255978600013755], [77.40271485322769, 23.255951383347412], [77.40271382655959, 23.25592416668093], [77.40271279989244, 23.255896950014332], [77.40271177322626, 23.2558697333476], [77.40271074656103, 23.255842516680744], [77.40270971989675, 23.25581530001376], [77.40270869323344, 23.255788083346648], [77.40270766657108, 23.25576086667941], [77.40270663990965, 23.255733650012033], [77.4027056132492, 23.255706433344542], [77.40270284203957, 23.255664650273395], [77.40269952479038, 23.255611243368], [77.40269577557707, 23.255549236702244], [77.40269519756424, 23.255510787158524], [77.4026955078105, 23.25549303367163], [77.40269659224242, 23.255492952167405], [77.40269659224242, 23.255492952167405], [77.40269659224242, 23.255492952167405], [77.40269659224242, 23.255492952167405], [77.40272592339521, 23.255491925205153], [77.40275520015898, 23.255490150794095], [77.4027843108275, 23.25548741171315], [77.4028132624946, 23.255483838163347], [77.40284206139314, 23.255479614108157], [77.40287085860191, 23.25547463329356], [77.4029006415713, 23.255468524548583], [77.40293031704763, 23.255461558713012], [77.40295980411861, 23.255453920347474], [77.40298707160109, 23.255446437663423], [77.40301429596379, 23.255438802948717], [77.40304151716421, 23.255431150311395], [77.40306970852536, 23.255423009979232], [77.40309767892009, 23.255414313768213], [77.40312542201909, 23.255405046528516], [77.40315313238901, 23.25539572307589], [77.40318110192028, 23.25538708628097], [77.40320933852342, 23.25537915610027], [77.40320933852342, 23.25537915610027], [77.4032376012294, 23.255371294146936], [77.40326705466889, 23.255363594176437], [77.4032976876207, 23.255356016268426], [77.40332941085005, 23.2553482780749], [77.40336016021101, 23.255341121895928], [77.403389941152, 23.25533457046394], [77.40341868791958, 23.25532837245253], [77.4034474168306, 23.25532226108019], [77.40347617748, 23.255316464041517], [77.40350480701866, 23.25531066659631], [77.4035329039445, 23.25530342193765], [77.40356027464283, 23.25529401820445], [77.4035873264305, 23.255283398618605], [77.40361565539054, 23.255272806730634], [77.40364552650861, 23.25526306349419], [77.40367682356539, 23.255253998270025], [77.40370396600083, 23.255246712825585], [77.40372347300641, 23.255241589768282], [77.40373527153737, 23.25523837627254], [77.40373527153737, 23.25523837627254], [77.40377672331775, 23.255219503658854], [77.40381264506328, 23.255204432521765], [77.403843086126, 23.255193289066984], [77.40387088168303, 23.255184378608742], [77.40389883845747, 23.255175916407534], [77.40392690742844, 23.255167776085845], [77.4039549616369, 23.255159580958004], [77.4039829359601, 23.255151147555104], [77.40401083285946, 23.25514248368555], [77.40403870185395, 23.255133740807942], [77.40406645762083, 23.255124735541905], [77.40409426495279, 23.255115080078014], [77.40412333506242, 23.255104890380977], [77.40415292486539, 23.25509512480758], [77.40418173369314, 23.255086986930248], [77.40420855689682, 23.255080378064516], [77.40420855689682, 23.255080378064516], [77.40423654930255, 23.25507093622548], [77.40426444746232, 23.25506125104472], [77.40429236239498, 23.255051627057423], [77.40432042494822, 23.25504244087614], [77.40434866354937, 23.255033772137004], [77.40437696960706, 23.255025314797876], [77.40440531565505, 23.25501699518899], [77.40443380891173, 23.255009091491754], [77.40446126231811, 23.25500158684194], [77.40448968756368, 23.254993693572708], [77.40451914751144, 23.25498596896053], [77.40455213792822, 23.25497909326343], [77.4045823803781, 23.25497480763531], [77.40460941948551, 23.25497088622628], [77.40463178401333, 23.254965576983878], [77.40465573587846, 23.254956562339856], [77.40468686557156, 23.254948450926264], [77.40472273691495, 23.254944567223983], [77.40475869496265, 23.25494831254984], [77.40478945442777, 23.254956513834337], [77.40478945442777, 23.254956513834337], [77.40479423285956, 23.254929095418017], [77.40480427839591, 23.254900871799094], [77.40480427839591, 23.254900871799094], [77.40483324994946, 23.25488614413442], [77.40486234334902, 23.254869650089994], [77.40486234334902, 23.254869650089994], [77.40486234334902, 23.254869650089994], [77.40486234334902, 23.254869650089994], [77.40486234334902, 23.254869650089994], [77.40485502235826, 23.254853649554185], [77.40483917213201, 23.254818834504277], [77.40481358443557, 23.25476239095929], [77.40479169299086, 23.25471350601662], [77.40477470603692, 23.254674993656128], [77.4047638318118, 23.254649667857873], [77.40475295759121, 23.25462434205844], [77.40474208337513, 23.254599016257846], [77.40473120916356, 23.25457369045608], [77.40472033495647, 23.254548364653147], [77.40470946075392, 23.254523038849037], [77.40469858655585, 23.25449771304375], [77.4046877123623, 23.2544723872373], [77.40467683817326, 23.254447061429676], [77.40466596398873, 23.254421735620884], [77.40465508980871, 23.254396409810923], [77.4046442156332, 23.254371083999782], [77.40463334146219, 23.254345758187476], [77.40462246729568, 23.254320432373994], [77.40461159313368, 23.25429510655935], [77.40460071897621, 23.254269780743538], [77.40458984482322, 23.25424445492654], [77.40457897067475, 23.25421912910837], [77.4045680965308, 23.25419380328904], [77.40455722239133, 23.25416847746854], [77.40454634825637, 23.25414315164686], [77.40453547412594, 23.25411782582402], [77.4045246, 23.254092500000002]]}}, {"type": "Feature", "properties": {"mode": "accessible", "vehicle": "ladder_truck", "city": "bhopal", "length_m": 1460.2, "time_min": 3.13, "detour_m": 161.8, "detour_pct": 12.5}, "geometry": {"type": "LineString", "coordinates": [[77.4023468, 23.2624519], [77.40232776936844, 23.262430308113498], [77.40230873874313, 23.26240871622412], [77.40228970812407, 23.262387124331863], [77.40227067751128, 23.26236553243674], [77.40225164690473, 23.262343940538734], [77.4022331582854, 23.2623220387824], [77.40221594602875, 23.262299407318757], [77.40220074451003, 23.262275626299164], [77.40218720414246, 23.26225089558579], [77.40217459055019, 23.262225635028102], [77.40216216935762, 23.262200264475226], [77.40214974817013, 23.2621748939209], [77.40213732698773, 23.262149523365117], [77.4021249058104, 23.262124152807896], [77.40211248463815, 23.26209878224922], [77.40210006347098, 23.262073411689094], [77.40208764230891, 23.262048041127517], [77.40207522115192, 23.262022670564487], [77.4020628, 23.261997300000004], [77.4020628, 23.261997300000004], [77.40209221438447, 23.261996363167015], [77.40212162876799, 23.261995426328543], [77.40215104315057, 23.26199448948459], [77.40218045753218, 23.261993552635147], [77.40220987191286, 23.261992615780223], [77.40223928629258, 23.261991678919816], [77.40226870067136, 23.26199074205392], [77.40229811504918, 23.261989805182537], [77.40232752942606, 23.261988868305668], [77.40235694380199, 23.261987931423338], [77.40238635817697, 23.261986994535505], [77.40241577255101, 23.261986057642186], [77.4024451869241, 23.261985120743383], [77.40247460129622, 23.2619841838391], [77.4025040156674, 23.261983246929336], [77.40253343003765, 23.26198231001408], [77.40256284440693, 23.26198137309334], [77.40259225877527, 23.261980436167114], [77.40262167314268, 23.261979499235416], [77.40265108750911, 23.261978562298225], [77.4026805018746, 23.261977625355552], [77.40270991623915, 23.26197668840739], [77.40273932571482, 23.261976047178415], [77.40276872533713, 23.26197600203996], [77.40279811014186, 23.261976853363358], [77.40282748494057, 23.26197831007058], [77.40285685469811, 23.261980071790283], [77.4028862243791, 23.261981838151094], [77.40291559406033, 23.261983604506344], [77.40294496374182, 23.261985370856024], [77.40297433342353, 23.261987137200144], [77.40300370310548, 23.2619889035387], [77.40303307278766, 23.26199066987168], [77.4030624424701, 23.2619924361991], [77.40309180582511, 23.261994277621557], [77.40312115641147, 23.26199627058845], [77.40315048778798, 23.261998491549168], [77.40317980616878, 23.262000866751887], [77.4032091179952, 23.262003319747205], [77.40323842970855, 23.262005774085747], [77.40326774142243, 23.262008228418715], [77.40329705313684, 23.262010682746116], [77.40332636485181, 23.262013137067942], [77.40335567656733, 23.262015591384202], [77.40338498828339, 23.262018045694884], [77.40341430000001, 23.2620205], [77.40341430000001, 23.2620205], [77.40344371623246, 23.262024678688423], [77.40347313246623, 23.26202885737117], [77.40350255493613, 23.26203294763671], [77.40353202121577, 23.262036416675986], [77.40356156887835, 23.262038731679958], [77.40359122302705, 23.262039536662623], [77.40362094608754, 23.262039364433058], [77.40365070048595, 23.262038747800343], [77.40368045488351, 23.262038131162008], [77.40371020928026, 23.26203751451804], [77.40373996367619, 23.262036897868448], [77.40376971807129, 23.262036281213234], [77.40379947246555, 23.262035664552396], [77.403829226859, 23.262035047885934], [77.40385898125162, 23.26203443121385], [77.40388873564342, 23.26203381453613], [77.4039184900344, 23.262033197852805], [77.40394824442456, 23.262032581163844], [77.40397799881389, 23.262031964469262], [77.40400775320238, 23.262031347769053], [77.40403750759006, 23.262030731063223], [77.4040672619769, 23.26203011435177], [77.40409701636294, 23.262029497634693], [77.40412677074814, 23.26202888091199], [77.40415652513252, 23.262028264183662], [77.40418627951607, 23.262027647449717], [77.4042160338988, 23.26202703071014], [77.40424578828072, 23.262026413964943], [77.40427553695139, 23.262025757823235], [77.40430518289816, 23.262024393085145], [77.4043346291078, 23.26202165055092], [77.40436378998737, 23.26201693980263], [77.40439276254872, 23.26201093004036], [77.40442164380426, 23.26200429046405], [77.40445052505643, 23.26199765088265], [77.40447940630524, 23.26199101129616], [77.40450828755071, 23.261984371704585], [77.40453716879283, 23.261977732107926], [77.40456605003159, 23.261971092506172], [77.40459500229393, 23.261965009133874], [77.40462412329259, 23.261960247206936], [77.40465351074101, 23.261957571941142], [77.4046831202987, 23.261956636083216], [77.40471285425389, 23.261956674417057], [77.4047426148941, 23.261956921726686], [77.4047723755339, 23.261957169030655], [77.40480213617322, 23.26195741632896], [77.40483189681213, 23.26195766362161], [77.40486165745058, 23.261957910908613], [77.40489141808861, 23.261958158189938], [77.40492117872617, 23.261958405465617], [77.40495093936332, 23.26195865273564], [77.4049807, 23.261958899999996], [77.4049807, 23.261958899999996], [77.40500678002999, 23.261942370017245], [77.40503286005332, 23.26192584003066], [77.40505894007, 23.26190931004025], [77.40508502008, 23.261892780046004], [77.40511110008333, 23.26187625004792], [77.40513718007999, 23.261859720046], [77.40516326007, 23.261843190040256], [77.40518934005333, 23.261826660030668], [77.40521542003, 23.26181013001725], [77.4052415, 23.2617936], [77.4052415, 23.2617936], [77.40527075002002, 23.261781487517617], [77.40530000003432, 23.261769375030198], [77.40532925004291, 23.261757262537742], [77.40535850004576, 23.261745150040266], [77.40538775004289, 23.261733037537745], [77.40541700003432, 23.2617209250302], [77.40544625002, 23.26170881251761], [77.4054755, 23.261696699999998], [77.4054755, 23.261696699999998], [77.40550755359673, 23.261676087390214], [77.4055393, 23.261654999999998], [77.4055393, 23.261654999999998], [77.40554344167313, 23.261626841666974], [77.4055475833451, 23.261598683333897], [77.40555172501587, 23.261570525000757], [77.40555586668548, 23.261542366667562], [77.40556000835392, 23.26151420833431], [77.40556415002116, 23.261486050001007], [77.40556829168725, 23.26145789166765], [77.40557243335215, 23.261429733334236], [77.40557657501587, 23.26140157500076], [77.40558071667843, 23.261373416667233], [77.40558485833981, 23.26134525833364], [77.405589, 23.261317099999996], [77.405589, 23.261317099999996], [77.4055886290215, 23.261289283872518], [77.4055882580437, 23.261261467744937], [77.40558788706663, 23.261233651617243], [77.40558751609026, 23.261205835489452], [77.40558714511462, 23.261178019361562], [77.4055867741397, 23.261150203233562], [77.40558640316549, 23.261122387105466], [77.40558603219202, 23.261094570977264], [77.40558566121925, 23.26106675484896], [77.4055852902472, 23.261038938720546], [77.40558491927587, 23.261011122592024], [77.40558454830526, 23.260983306463412], [77.40558417733536, 23.260955490334684], [77.40558380636618, 23.26092767420586], [77.40558343539772, 23.26089985807693], [77.40558306442996, 23.260872041947902], [77.40558269346295, 23.26084422581876], [77.40558232249664, 23.260816409689525], [77.40558195153105, 23.26078859356018], [77.40558158056619, 23.260760777430736], [77.40558120960203, 23.260732961301187], [77.4055808386386, 23.260705145171535], [77.40558046767588, 23.260677329041783], [77.40558009671389, 23.260649512911918], [77.40557972575262, 23.26062169678195], [77.40557935479205, 23.260593880651886], [77.4055789838322, 23.26056606452172], [77.40557861287309, 23.26053824839144], [77.40557824191467, 23.260510432261064], [77.40557787095699, 23.260482616130577], [77.4055775, 23.260454799999998], [77.4055775, 23.260454799999998], [77.40557364336817, 23.260427865248637], [77.4055697867384, 23.260400930496957], [77.4055659301107, 23.260373995744974], [77.40556207348506, 23.260347060992686], [77.40555821686151, 23.260320126240078], [77.40555436024003, 23.260293191487175], [77.40555050362062, 23.260266256733964], [77.40554664700328, 23.26023932198044], [77.405542790388, 23.260212387226606], [77.40553893377479, 23.260185452472463], [77.40553508619362, 23.260158517858656], [77.40553221360011, 23.260131598430405], [77.40553128194911, 23.260104709233023], [77.40553323913478, 23.26007786503058], [77.40553711920032, 23.260051050777925], [77.40554195618971, 23.260024251429783], [77.40554679317768, 23.25999745208157], [77.40555163016423, 23.259970652733283], [77.40555646714932, 23.259943853384918], [77.40556130413302, 23.259917054036492], [77.40556614111527, 23.259890254687992], [77.40557097809611, 23.25986345533942], [77.40557581507551, 23.25983665599077], [77.40558065205347, 23.259809856642057], [77.40558548903003, 23.259783057293276], [77.40559032600515, 23.259756257944414], [77.40559516297884, 23.259729458595487], [77.4055999999511, 23.259702659246486], [77.40560483692194, 23.259675859897406], [77.40560967389135, 23.25964906054827], [77.40561451085932, 23.25962226119906], [77.40561934782586, 23.25959546184977], [77.40562418479098, 23.259568662500413], [77.40562902175469, 23.259541863150996], [77.40563385871694, 23.25951506380149], [77.4056386956778, 23.259488264451925], [77.4056435326372, 23.25946146510228], [77.40564826481771, 23.259434651801175], [77.4056527491962, 23.25940780550468], [77.40565684274956, 23.259380907168907], [77.40566061200973, 23.259353965652693], [77.4056642, 23.259327], [77.4056642, 23.259327], [77.40568998551375, 23.259312955223468], [77.40571577102179, 23.259298910443125], [77.4057415565228, 23.25928486565682], [77.40576734186087, 23.259270820620262], [77.40579312688013, 23.259256775089167], [77.40581891142745, 23.25924272882357], [77.40584469565871, 23.25922868206774], [77.40587047972978, 23.259214635065987], [77.4058962637952, 23.25920058806041], [77.40592204785492, 23.259186541051026], [77.40594783190897, 23.259172494037827], [77.40597361595732, 23.259158447020823], [77.4059994, 23.259144399999997], [77.4059994, 23.259144399999997], [77.40599381109934, 23.259115944446407], [77.4059882222016, 23.259087488892327], [77.40598263330682, 23.259059033337756], [77.40597704441498, 23.25903057778269], [77.4059714555261, 23.259002122227134], [77.40596586664014, 23.258973666671086], [77.40596027775715, 23.258945211114543], [77.4059546888771, 23.258916755557518], [77.4059491, 23.2588883], [77.4059491, 23.2588883], [77.40594632499669, 23.25885475000044], [77.4059435499956, 23.258821200000593], [77.4059407749967, 23.258787650000443], [77.40593800000002, 23.258754099999997], [77.40593800000002, 23.258754099999997], [77.40593197271274, 23.258727336366213], [77.40592594542836, 23.25870057273191], [77.40591991814692, 23.2586738090971], [77.40591389086836, 23.258647045461764], [77.40590786359273, 23.258620281825916], [77.40590183632, 23.258593518189553], [77.40589580905018, 23.258566754552668], [77.40588978178326, 23.258539990915274], [77.40588375451927, 23.258513227277362], [77.40587772725819, 23.25848646363894], [77.4058717, 23.2584597], [77.4058717, 23.2584597], [77.40585638886337, 23.258433377786087], [77.40584107773311, 23.258407055570093], [77.40582576660924, 23.258380733352023], [77.40581045549175, 23.25835441113188], [77.40579514438063, 23.258328088909657], [77.40577983327591, 23.258301766685356], [77.40576452217755, 23.25827544445898], [77.40574921108558, 23.258249122230534], [77.4057339, 23.258222799999995], [77.4057339, 23.258222799999995], [77.40571841665115, 23.2581973666719], [77.40570293330852, 23.258171933341703], [77.40568744997208, 23.25814650000942], [77.40567196664185, 23.258121066675045], [77.40565648331783, 23.258095633338563], [77.405641, 23.2580702], [77.405641, 23.2580702], [77.40565965005075, 23.258048294459453], [77.40567830009554, 23.258026388917134], [77.40569695013434, 23.258004483373053], [77.40571560016718, 23.257982577827207], [77.40573425019404, 23.257960672279594], [77.40575290021494, 23.257938766730224], [77.40577155022987, 23.25791686117908], [77.40579020023881, 23.25789495562617], [77.4058088502418, 23.257873050071503], [77.40582750023881, 23.257851144515058], [77.40584615022986, 23.257829238956855], [77.40586480021494, 23.25780733339689], [77.40588345019404, 23.257785427835156], [77.40590210016717, 23.257763522271656], [77.40592075013434, 23.25774161670639], [77.40593940009553, 23.25771971113936], [77.40595805005076, 23.257697805570565], [77.4059767, 23.257675900000002], [77.4059767, 23.257675900000002], [77.40597349871788, 23.257648956045017], [77.40597029743758, 23.257622012089776], [77.40596709615909, 23.257595068134272], [77.40596389488239, 23.257568124178515], [77.40596069360753, 23.257541180222503], [77.40595749233445, 23.257514236266232], [77.40595429106322, 23.257487292309705], [77.40595108979377, 23.257460348352918], [77.40594788852616, 23.257433404395872], [77.40594468726033, 23.257406460438585], [77.40594148599634, 23.25737951648102], [77.40593828473415, 23.257352572523214], [77.40593508347376, 23.257325628565138], [77.4059318822152, 23.257298684606827], [77.40592868095844, 23.257271740648243], [77.4059254797035, 23.257244796689395], [77.40592227845036, 23.2572178527303], [77.40591907719903, 23.257190908770944], [77.40591587594953, 23.25716396481134], [77.40591267470182, 23.257137020851474], [77.40590949222899, 23.257110075365027], [77.40590646860738, 23.25708311696318], [77.40590384332566, 23.257056131065685], [77.40590192388548, 23.257029102756082], [77.40590077518159, 23.2570020368429], [77.4059002632841, 23.256974944517644], [77.40590006191789, 23.25694784222314], [77.40589996611143, 23.25692073653972], [77.40589987030555, 23.256893630856204], [77.40589977450023, 23.256866525172605], [77.40589967869549, 23.256839419488912], [77.40589958289132, 23.25681231380514], [77.40589948708774, 23.25678520812126], [77.4058993912847, 23.25675810243731], [77.40589929548227, 23.256730996753273], [77.4058991996804, 23.25670389106914], [77.40589910387911, 23.256676785384915], [77.4058990391785, 23.25664967976401], [77.40589904125054, 23.256622574279135], [77.40589914576724, 23.256595469003017], [77.40589932620036, 23.25656836388158], [77.40589954687786, 23.25654125884211], [77.40589963974392, 23.256514157439387], [77.40589935705736, 23.256487066327324], [77.40589845106959, 23.256459992514653], [77.40589684910111, 23.256432942523347], [77.40589461841752, 23.25640592662507], [77.40589170057305, 23.256378970627857], [77.40588808413531, 23.256352090430642], [77.40588381013812, 23.25632528532585], [77.40587918477652, 23.256298522496618], [77.4058744245469, 23.25627177589441], [77.40586966431967, 23.256245029291822], [77.40586490409486, 23.25621828268885], [77.40586014387246, 23.256191536085492], [77.40585538365247, 23.256164789481733], [77.40585062343489, 23.256138042877602], [77.40584586321971, 23.256111296273083], [77.40584110300695, 23.25608454966818], [77.40583634279659, 23.25605780306289], [77.40583158258865, 23.25603105645721], [77.40582682238312, 23.25600430985115], [77.40582206217998, 23.2559775632447], [77.40581730197927, 23.255950816637863], [77.40581254178096, 23.25592407003064], [77.40580778158505, 23.25589732342304], [77.40580302139158, 23.255870576815038], [77.4057982612005, 23.255843830206665], [77.40579350101183, 23.255817083597904], [77.40578874082557, 23.255790336988753], [77.40578398064171, 23.255763590379214], [77.40577922046027, 23.255736843769284], [77.40577446028125, 23.25571009715898], [77.40576970010461, 23.25568335054828], [77.4057649399304, 23.2556566039372], [77.4057601797586, 23.255629857325737], [77.40575541958921, 23.255603110713885], [77.40575065942222, 23.255576364101646], [77.40574589925764, 23.255549617489027], [77.40574176869417, 23.25552285098296], [77.40573910459337, 23.255496038141708], [77.40573897185402, 23.25546922629407], [77.40574242359976, 23.255442906097095], [77.40575009842695, 23.25541758130517], [77.40576232995778, 23.255393720054574], [77.40577792712466, 23.255371215758462], [77.40579590612414, 23.255349955281282], [77.40581520898812, 23.25532967541192], [77.40583534405913, 23.255310011972462], [77.40585581967987, 23.255290600785216], [77.40587629529469, 23.255271189595742], [77.40589677090358, 23.25525177840406], [77.40591724650656, 23.255232367210144], [77.4059377221036, 23.25521295601401], [77.40595819769473, 23.25519354481565], [77.40597867327993, 23.255174133615064], [77.40599914885921, 23.255154722412268], [77.40601962443256, 23.255135311207237], [77.4060401, 23.255115899999996], [77.4060401, 23.255115899999996], [77.40601173428286, 23.255108356420333], [77.40598336856849, 23.25510081283526], [77.40595500285683, 23.255093269244785], [77.40592663714791, 23.25508572564891], [77.40589827144174, 23.25507818204763], [77.4058699057383, 23.255070638440944], [77.40584154003758, 23.255063094828852], [77.40581307453549, 23.255056014064454], [77.40578440222748, 23.25504989239161], [77.40575541610862, 23.25504522605413], [77.40572620878237, 23.255041585589634], [77.40569688725262, 23.255038474754212], [77.40566755852367, 23.255035397303985], [77.40563822979553, 23.25503231984815], [77.40560890106822, 23.255029242386733], [77.40557957234172, 23.255026164919705], [77.40555024361605, 23.255023087447082], [77.4055209148912, 23.25502000996886], [77.40549158616717, 23.25501693248505], [77.40546225744396, 23.255013854995628], [77.40543292872157, 23.255010777500615], [77.4054036, 23.255007699999997], [77.4054036, 23.255007699999997], [77.40536504999929, 23.255003650004838], [77.4053265, 23.2549996], [77.4053265, 23.2549996], [77.40532307142207, 23.254969814286625], [77.40531964284632, 23.254940028572953], [77.40531621427273, 23.25491024285897], [77.4053127857013, 23.254880457144687], [77.40530935713204, 23.2548506714301], [77.40530592856494, 23.2548208857152], [77.4053025, 23.2547911], [77.4053025, 23.2547911], [77.40530085553999, 23.254764025927976], [77.40529921108119, 23.254736951855794], [77.40529756662356, 23.25470987778346], [77.40529592216714, 23.25468280371096], [77.40529427771192, 23.2546557296383], [77.4052926332579, 23.25462865556549], [77.40529098880506, 23.25460158149252], [77.40528934435343, 23.254574507419388], [77.405287699903, 23.254547433346104], [77.40528605545377, 23.254520359272664], [77.40528441100572, 23.25449328519906], [77.40528276655888, 23.254466211125305], [77.40528112211325, 23.25443913705138], [77.4052794776688, 23.254412062977305], [77.40527783322555, 23.254384988903077], [77.4052761887835, 23.254357914828688], [77.40527454434266, 23.254330840754147], [77.405272899903, 23.254303766679442], [77.40527125546454, 23.254276692604577], [77.40526961102728, 23.25424961852956], [77.40526796659123, 23.25422254445438], [77.40526632215635, 23.254195470379038], [77.40526467772268, 23.254168396303555], [77.40526303329023, 23.254141322227895], [77.40526138885895, 23.254114248152092], [77.40525974442888, 23.254087174076123], [77.4052581, 23.2540601], [77.4052581, 23.2540601], [77.40522735018848, 23.254064582049622], [77.40519660037434, 23.254069064093375], [77.40516585055757, 23.25407354613127], [77.40513510073816, 23.25407802816331], [77.40510435091613, 23.25408251018948], [77.40507360109146, 23.2540869922098], [77.40504285857838, 23.25409142005341], [77.40501236052565, 23.2540940373439], [77.40498359191513, 23.254091915973962], [77.40495854177477, 23.254081749138415], [77.4049387394629, 23.2540636344442], [77.4049227, 23.254040499999995], [77.4049227, 23.254040499999995], [77.40489207693749, 23.254044500034976], [77.40486145387257, 23.254048500064116], [77.40483083080525, 23.254052500087436], [77.40480020773555, 23.254056500104923], [77.40476958466343, 23.254060500116584], [77.40473896158889, 23.25406450012241], [77.40470833851197, 23.25406850012241], [77.40467771543265, 23.254072500116585], [77.40464709235093, 23.254076500104922], [77.4046164692668, 23.254080500087436], [77.40458584618027, 23.254084500064124], [77.40455522309134, 23.254088500034975], [77.4045246, 23.254092500000002]]}}]}