{"type": "FeatureCollection", "features": [{"type": "Feature", "properties": {"mode": "free", "vehicle": "fire_truck", "city": "chandigarh", "length_m": 2506.5, "time_min": 3.99, "detour_m": 1335.0, "detour_pct": 53.3}, "geometry": {"type": "LineString", "coordinates": [[76.7809375, 30.735652900000005], [76.78095697501465, 30.735628200003937], [76.78097645001954, 30.73560350000525], [76.78099592501465, 30.735578800003942], [76.7810154, 30.735554099999998], [76.7810154, 30.735554099999998], [76.7809899237272, 30.735538228625096], [76.78096444746267, 30.735522357244843], [76.78093897120633, 30.735506485859197], [76.78091349495824, 30.735490614468198], [76.78088801871837, 30.735474743071826], [76.78086254248673, 30.735458871670094], [76.78083706626335, 30.735443000262993], [76.78081159004817, 30.735427128850517], [76.78078611384122, 30.735411257432677], [76.78076063764253, 30.735395386009483], [76.78073516145204, 30.735379514580906], [76.7807096852698, 30.73536364314696], [76.78068420909578, 30.73534777170766], [76.78065873293, 30.73533190026298], [76.78063325677246, 30.73531602881295], [76.78060778062313, 30.73530015735752], [76.78058230448205, 30.73528428589677], [76.78055682834919, 30.73526841443062], [76.78053135222456, 30.735252542959106], [76.78050587610817, 30.73523667148223], [76.7804804, 30.73522079999999], [76.7804804, 30.73522079999999], [76.7804407, 30.735195699999995], [76.7804407, 30.735195699999995], [76.78045976310707, 30.73517353546147], [76.78047882620552, 30.735151370920384], [76.78049788929538, 30.73512920637677], [76.7805169523766, 30.73510704183064], [76.78053601544923, 30.735084877281956], [76.78055507851323, 30.73506271273076], [76.78057414156862, 30.73504054817701], [76.7805932046154, 30.73501838362073], [76.78061226765355, 30.73499621906192], [76.78063133068311, 30.734974054500576], [76.78065039341655, 30.734951889755255], [76.78066941007772, 30.73492969593509], [76.78068833489044, 30.73490744414926], [76.78070712265355, 30.734885105869814], [76.78072581914324, 30.734862709987656], [76.78074447013574, 30.73484028539367], [76.78076312111973, 30.734817860797275], [76.7807817720952, 30.734795436198443], [76.78080042306217, 30.734773011597202], [76.78081907402061, 30.734750586993535], [76.78083772497055, 30.734728162387466], [76.78085637591198, 30.734705737778963], [76.7808750268449, 30.734683313168045], [76.78089367776928, 30.7346608885547], [76.78091232039269, 30.73463845886973], [76.78093091325611, 30.734615998769193], [76.7809494149006, 30.734593482909172], [76.7809678004522, 30.73457089608418], [76.78098611136994, 30.73454826363821], [76.78100438911278, 30.734525610915206], [76.7810226668472, 30.73450295818989], [76.7810409445732, 30.734480305462235], [76.7810592222908, 30.734457652732274], [76.7810775, 30.734435], [76.7810775, 30.734435], [76.78105097468229, 30.73441797611047], [76.7810244493738, 30.73440095221512], [76.78099792407451, 30.734383928313928], [76.78097139878443, 30.734366904406908], [76.78094487350356, 30.734349880494065], [76.78091834823188, 30.734332856575367], [76.78089182296941, 30.73431583265086], [76.78086529771615, 30.73429880872051], [76.7808387724721, 30.734281784784326], [76.78081224723724, 30.734264760842315], [76.78078641409964, 30.734247166553274], [76.78076218589688, 30.734228255086208], [76.78074123790691, 30.734206942702933], [76.78072386123097, 30.734183286347996], [76.78070990547059, 30.734157695946223], [76.78069769534702, 30.734131255237276], [76.78068624767018, 30.73410447761932], [76.7806748, 30.734077699999997], [76.7806748, 30.734077699999997], [76.78064869993479, 30.73406133754226], [76.78062259987826, 30.73404497507891], [76.78059649983042, 30.7340286126099], [76.78057039979129, 30.734012250135258], [76.78054429976086, 30.733995887654988], [76.78051819973912, 30.733979525169087], [76.78049209972609, 30.733963162677533], [76.78046599972173, 30.733946800180355], [76.78043989972609, 30.73393043767754], [76.78041379973912, 30.73391407516908], [76.78038769976087, 30.733897712654986], [76.7803615997913, 30.73388135013526], [76.78033549983044, 30.733864987609905], [76.78030939987826, 30.7338486250789], [76.78028329993478, 30.73383226254227], [76.78025720000001, 30.733815899999993], [76.78025720000001, 30.733815899999993], [76.78022852782244, 30.733801106251526], [76.78019985565344, 30.73378631249632], [76.78017118349298, 30.73377151873442], [76.78014251134107, 30.733756724965808], [76.78011374739721, 30.73374212037029], [76.78008448703531, 30.733728538788487], [76.7800543256285, 30.73371681406072], [76.78002304215028, 30.733707401667377], [76.77999104122527, 30.733699467767362], [76.77995872747904, 30.733692178519824], [76.77992641373729, 30.733684889264033], [76.7798941, 30.733677600000007], [76.7798941, 30.733677600000007], [76.77991882452217, 30.73366014457442], [76.77994227356228, 30.73364155263787], [76.77996392664538, 30.733621360423456], [76.77998410778838, 30.73359996763871], [76.78000267076402, 30.733577537251353], [76.78001907606709, 30.733554030846225], [76.78003289115739, 30.733529283333613], [76.7800449, 30.733503699999996], [76.7800449, 30.733503699999996], [76.78004925305508, 30.733474598662518], [76.78005247096132, 30.733445483380816], [76.7800535670459, 30.73341635710065], [76.7800513008233, 30.733387358391273], [76.7800458127122, 30.733358641832854], [76.7800373914925, 30.733330334235873], [76.7800275, 30.7333023], [76.7800275, 30.7333023], [76.78003276472417, 30.733275102418997], [76.78003802944578, 30.733247904837793], [76.78004337673325, 30.733220723743756], [76.78004923126522, 30.733193643937373], [76.78005645044432, 30.733166892796422], [76.78006586637797, 30.733140717762094], [76.7800776792283, 30.73311525199602], [76.78009128791327, 30.733090374535074], [76.78010602295586, 30.733065937038084], [76.78012145243852, 30.733041814783594], [76.78013744875969, 30.73301796356741], [76.78015376671873, 30.7329942678016], [76.78017021339066, 30.732970634244985], [76.78018666005475, 30.73294700068652], [76.78020310671101, 30.732923367126187], [76.78021955335943, 30.732899733564018], [76.780236, 30.7328761], [76.780236, 30.7328761], [76.78025528991553, 30.732854468935713], [76.78027457982255, 30.73283283786881], [76.78029386972105, 30.732811206799315], [76.78031315961103, 30.73278957572722], [76.78033244949248, 30.732767944652522], [76.78035173936541, 30.73274631357522], [76.78037102922983, 30.732724682495324], [76.78039031908573, 30.732703051412813], [76.7804096089331, 30.732681420327697], [76.78042889877194, 30.73265978923999], [76.78044818860228, 30.73263815814968], [76.7804674784241, 30.73261652705678], [76.7804867682374, 30.732594895961274], [76.78050605804216, 30.73257326486316], [76.78052534783842, 30.732551633762434], [76.78054463762616, 30.732530002659118], [76.78056392740538, 30.7325083715532], [76.78058321717607, 30.732486740444685], [76.78060250693824, 30.732465109333575], [76.78062179669189, 30.73244347821984], [76.78064108643703, 30.732421847103524], [76.78066037617366, 30.732400215984587], [76.78067966590174, 30.73237858486307], [76.78069895562132, 30.732356953738936], [76.78071824533238, 30.732335322612204], [76.78073753503492, 30.732313691482876], [76.78075682472893, 30.732292060350936], [76.78077611441442, 30.732270429216406], [76.7807954040914, 30.73224879807927], [76.78081469375987, 30.73222716693954], [76.7808339834198, 30.732205535797195], [76.7808532730712, 30.732183904652263], [76.7808725627141, 30.732162273504716], [76.78089185234849, 30.732140642354565], [76.78091114197433, 30.73211901120182], [76.78093043159167, 30.732097380046483], [76.78094972120049, 30.73207574888853], [76.78096901080079, 30.73205411772798], [76.78098830039256, 30.732032486564833], [76.78100758997583, 30.732010855399086], [76.78102687955057, 30.731989224230727], [76.78104616911678, 30.73196759305978], [76.78106545867449, 30.731945961886236], [76.78108474822366, 30.731924330710065], [76.78110403776432, 30.731902699531304], [76.78112332729647, 30.731881068349946], [76.78114261682009, 30.731859437165983], [76.7811619063352, 30.731837805979428], [76.78118119584177, 30.731816174790254], [76.78120048533982, 30.731794543598504], [76.78121977482937, 30.731772912404136], [76.7812390643104, 30.731751281207156], [76.7812583537829, 30.73172965000759], [76.78127764324688, 30.731708018805417], [76.78129693270235, 30.73168638760064], [76.7813162221493, 30.731664756393272], [76.78133551158771, 30.731643125183304], [76.78135480101763, 30.73162149397073], [76.781374090439, 30.731599862755555], [76.78139337985188, 30.731578231537785], [76.78141266925623, 30.731556600317404], [76.78143195865205, 30.731534969094426], [76.78145124803936, 30.73151333786884], [76.7814705373919, 30.731491706623185], [76.78148982663643, 30.731470075308735], [76.78150911569976, 30.731448443876772], [76.78152840456116, 30.731426812313504], [76.78154769329386, 30.73140518066766], [76.78156698197105, 30.731383548987967], [76.78158627063974, 30.731361917305662], [76.78160555929989, 30.731340285620767], [76.78162484795155, 30.73131865393326], [76.78164413659468, 30.731297022243158], [76.78166342522928, 30.731275390550454], [76.78168271385536, 30.73125375885514], [76.78170200247294, 30.731232127157234], [76.78172129108198, 30.73121049545673], [76.7817405796825, 30.73118886375363], [76.78175986827452, 30.73116723204792], [76.78177915685802, 30.73114560033961], [76.78179844543298, 30.731123968628694], [76.78181773399945, 30.731102336915182], [76.78183702255738, 30.73108070519906], [76.7818563111068, 30.731059073480353], [76.78187559964769, 30.73103744175904], [76.78189488818006, 30.731015810035125], [76.78191417670392, 30.73099417830861], [76.78193346521927, 30.73097254657949], [76.78195275372609, 30.730950914847778], [76.78197204222438, 30.730929283113454], [76.78199133071416, 30.730907651376533], [76.78201061919543, 30.730886019637012], [76.78202990766817, 30.730864387894886], [76.78204919613239, 30.73084275615017], [76.78206848458811, 30.730821124402848], [76.78208776294505, 30.730799485986836], [76.78210701183737, 30.730777828108145], [76.78212621189923, 30.7307561379728], [76.78214536394526, 30.730734416119017], [76.78216448734138, 30.7307126753408], [76.78218360145338, 30.730690928432132], [76.78220271555692, 30.730669181520916], [76.78222182965196, 30.730647434607135], [76.78224094373853, 30.7306256876908], [76.78226005781661, 30.73060394077193], [76.78227917188623, 30.73058219385051], [76.78229828594736, 30.73056044692653], [76.7823174, 30.73053869999999], [76.7823174, 30.73053869999999], [76.78233653164891, 30.730517059771074], [76.78235566328937, 30.730495419539608], [76.78237479492138, 30.730473779305594], [76.78239392654494, 30.730452139069005], [76.78241305816005, 30.730430498829854], [76.78243218976672, 30.73040885858816], [76.78245132136493, 30.730387218343914], [76.7824704529547, 30.7303655780971], [76.78248958453601, 30.73034393784772], [76.78250871610888, 30.730322297595798], [76.7825278476733, 30.730300657341324], [76.78254697922925, 30.730279017084285], [76.78256611077677, 30.730257376824678], [76.78258524231583, 30.73023573656253], [76.78260437384645, 30.73021409629782], [76.78262350536862, 30.730192456030558], [76.78264263688234, 30.730170815760733], [76.78266176838761, 30.730149175488354], [76.78268089988443, 30.730127535213413], [76.78270003137281, 30.730105894935924], [76.78271916285273, 30.730084254655875], [76.7827382943242, 30.73006261437327], [76.78275742578722, 30.73004097408809], [76.7827765572418, 30.730019333800374], [76.78279568868793, 30.729997693510107], [76.78281482012561, 30.72997605321726], [76.78283395155482, 30.729954412921884], [76.7828530829756, 30.729932772623933], [76.78287221438794, 30.729911132323423], [76.78289134579181, 30.729889492020355], [76.78291047718724, 30.729867851714744], [76.78292960857422, 30.729846211406578], [76.78294873995276, 30.72982457109584], [76.78296787132285, 30.729802930782554], [76.78298700268448, 30.729781290466715], [76.78300613403766, 30.729759650148306], [76.7830252653824, 30.72973800982735], [76.78304439671868, 30.72971636950384], [76.78306352804654, 30.729694729177773], [76.78308265936593, 30.729673088849147], [76.78310179067685, 30.729651448517952], [76.78312092197935, 30.72962980818421], [76.7831400532734, 30.72960816784792], [76.78315918455898, 30.72958652750906], [76.78317831583614, 30.729564887167655], [76.78319744710483, 30.729543246823678], [76.78321657836507, 30.72952160647716], [76.78323570961686, 30.729499966128085], [76.78325484086021, 30.729478325776437], [76.78327397209512, 30.729456685422246], [76.78329310332157, 30.72943504506551], [76.78331223453958, 30.729413404706204], [76.78333136574912, 30.729391764344342], [76.78335049695023, 30.729370123979905], [76.78336962814288, 30.729348483612934], [76.78338875932708, 30.729326843243406], [76.78340789050284, 30.72930520287131], [76.78342702167016, 30.729283562496665], [76.783446152829, 30.729261922119473], [76.78346528397942, 30.729240281739706], [76.78348441512138, 30.7292186413574], [76.7835035462549, 30.72919700097251], [76.78352267737996, 30.7291753605851], [76.78354180849658, 30.729153720195107], [76.78356093960474, 30.72913207980257], [76.78358007070446, 30.729110439407474], [76.78359920179574, 30.729088799009823], [76.78361833287856, 30.72906715860961], [76.78363746395293, 30.72904551820684], [76.78365659501884, 30.729023877801517], [76.78367572607632, 30.729002237393644], [76.78369485712535, 30.728980596983217], [76.78371398816593, 30.72895895657021], [76.78373311919805, 30.728937316154667], [76.78375225022174, 30.728915675736566], [76.78377138123696, 30.7288940353159], [76.78379051224374, 30.728872394892683], [76.7838096432421, 30.72885075446691], [76.78382877423198, 30.728829114038575], [76.7838479052134, 30.728807473607702], [76.7838670361864, 30.728785833174246], [76.78388616715094, 30.728764192738243], [76.78390529810703, 30.728742552299693], [76.78392442905466, 30.728720911858584], [76.78394355999386, 30.72869927141491], [76.78396269092461, 30.728677630968672], [76.78398182184691, 30.728655990519904], [76.78400095276076, 30.728634350068575], [76.78402008366616, 30.72861270961468], [76.78403921456312, 30.728591069158227], [76.78405834545161, 30.72856942869923], [76.78407747633167, 30.72854778823766], [76.78409660720328, 30.728526147773533], [76.78411573806643, 30.728504507306866], [76.78413486892114, 30.72848286683764], [76.78415399976741, 30.72846122636585], [76.78417313060523, 30.728439585891508], [76.7841922614346, 30.728417945414616], [76.7842113922555, 30.72839630493516], [76.78423052306798, 30.72837466445314], [76.784249653872, 30.72835302396857], [76.78426878466756, 30.728331383481443], [76.78428791545468, 30.72830974299177], [76.78431905245252, 30.728280026144525], [76.78436007000289, 30.728244637431782], [76.7844088424503, 30.728205981345603], [76.78443847860315, 30.72818305048352], [76.78445035097087, 30.728173875726547], [76.78444658519939, 30.728176052577876], [76.78444658519939, 30.728176052577876], [76.78445327321074, 30.728159682450606], [76.7844611620059, 30.728141516428675], [76.78447127929417, 30.728121023978815], [76.7844844007937, 30.728098305802497], [76.78450040144874, 30.72807545328867], [76.78451936586104, 30.72805373743505], [76.78454056111636, 30.72803376880102], [76.78456329942347, 30.728014877140293], [76.7845877198144, 30.72799608117584], [76.78461306355419, 30.727978279157714], [76.78463932034799, 30.727961477526197], [76.78466823270682, 30.72794552602277], [76.78470515051441, 30.727927736167924], [76.78474996924928, 30.727907996611993], [76.78474996924928, 30.727907996611993], [76.78478209689011, 30.727908534348277], [76.78481374504297, 30.72790810904697], [76.78484498049792, 30.727906298753503], [76.78487583028644, 30.727902984678988], [76.78490721132574, 30.72789828766281], [76.78493891113088, 30.72789209470799], [76.78497080607096, 30.727884580565348], [76.78500245703977, 30.727876218860878], [76.78500245703977, 30.727876218860878], [76.78503502949896, 30.727878855202793], [76.78505865490979, 30.727872661094935], [76.7850745928282, 30.72785471231364], [76.78508628900524, 30.727820943746693], [76.78510194518736, 30.72778821188245], [76.78512030181317, 30.727759440948702], [76.78512030181317, 30.727759440948702], [76.78513552233052, 30.72774280060405], [76.78514628881784, 30.727724670278704], [76.78515173440117, 30.72770276988861], [76.78515347018735, 30.72767783637872], [76.78515319572948, 30.72765063358853], [76.78515123627506, 30.72762348129684], [76.78514773267966, 30.72759642999412], [76.78514301542577, 30.727569498314654], [76.78513762614344, 30.727542646564654], [76.78513762614344, 30.727542646564654], [76.78513224659666, 30.727514005168974], [76.78513224215264, 30.727483282173253], [76.78513992081783, 30.727450530522205], [76.78515242034642, 30.72741960014298], [76.78516825478047, 30.72739133561815], [76.78518451956445, 30.727366524890726], [76.78520306524605, 30.72734413639189], [76.78522379083368, 30.72732144898506], [76.78524729286897, 30.72729762178114], [76.78524729286897, 30.72729762178114], [76.78522902272428, 30.727260113813777], [76.78522553507828, 30.727211307108412], [76.78524289625351, 30.727167395943866], [76.78527375658564, 30.72713409657601], [76.7853041317379, 30.727121051571213], [76.78532465624097, 30.727111032302222], [76.78533933650591, 30.727100409995572], [76.78535432530246, 30.727084734011438], [76.78537284443391, 30.72706498354902], [76.78539272727355, 30.727043567705], [76.78541182714932, 30.72702291120608], [76.78543020710879, 30.727003059386814], [76.78544780370744, 30.726983968452668], [76.78546607648745, 30.726964042782583], [76.7854850810461, 30.726943320865654], [76.78550491199101, 30.726921868292017], [76.7855248507715, 30.726900490677398], [76.78554479658789, 30.72687911838038], [76.7855646293317, 30.726857667948032], [76.78558849147328, 30.726834513318444], [76.78561661463633, 30.72681192080155], [76.78564918706172, 30.72679193081563], [76.78567802552091, 30.72677980900382], [76.7857029379375, 30.726773179746196], [76.7857197271636, 30.726760009343927], [76.78573183394674, 30.72673568408356], [76.7857391359952, 30.726698331572653], [76.78574964274642, 30.726666068383643], [76.78576442817541, 30.72663885785503], [76.78578366345172, 30.726618742732647], [76.78580341954267, 30.726597649347006], [76.78582316374145, 30.726576547781253], [76.78584279937056, 30.72655537130656], [76.78586229787157, 30.726534100247687], [76.78588175925796, 30.726512803800933], [76.78590132310318, 30.72649157818667], [76.78592103079295, 30.726470451866355], [76.78594079154985, 30.726449361958434], [76.78596048509932, 30.726428225195818], [76.78598006912038, 30.72640701239502], [76.78599959900235, 30.726385761869874], [76.78601913660064, 30.72636451653273], [76.78603870703711, 30.726343293727815], [76.78605828815735, 30.72632207824299], [76.78607786315776, 30.726300858541478], [76.78609671207742, 30.726280424058313], [76.78611267243528, 30.726263141152632], [76.78612953563902, 30.726244072926708], [76.78614840102753, 30.72622279907557], [76.78617292348761, 30.726195414972004], [76.7861955075096, 30.72617179055583], [76.78621608143196, 30.726150380421892], [76.78623385990687, 30.726131925037947], [76.78625267015087, 30.726111507182218], [76.78627222543297, 30.726090317527934], [76.78629183235732, 30.72606916332378], [76.78631145492696, 30.726048019998025], [76.78633104699452, 30.72602685587315], [76.78635061752985, 30.726005677270873], [76.78637021047392, 30.725984514262546], [76.7863898749946, 30.72596340071047], [76.78640955812544, 30.725942299726103], [76.78642921358235, 30.725921179468035], [76.78644880023542, 30.725900011479748], [76.78646836885738, 30.72587883092875], [76.78648794361872, 30.725857654509156], [76.78651067878207, 30.72583535924326], [76.78653666202557, 30.725813931027417], [76.78656708862135, 30.725795055198066], [76.78659579844334, 30.72578310766399], [76.78662269128105, 30.72577605296276], [76.78664133338374, 30.72576276760763], [76.78665412313757, 30.725738863016698], [76.78666097208054, 30.72570242285814], [76.78667113716544, 30.725670609095882], [76.7866857390983, 30.72564358880604], [76.78670484421951, 30.7256233039937], [76.78672441926102, 30.725602020725244], [76.78674393455839, 30.72558069644391], [76.78676343398712, 30.725559361374774], [76.78678295389943, 30.72553804035429], [76.7868025727485, 30.725516787443322], [76.78682230783262, 30.725495615170274], [76.78684213307507, 30.72547450572445], [76.78686195139318, 30.72545339192482], [76.78688164611522, 30.725432192483048], [76.78690122976339, 30.725410916191837], [76.78692081466738, 30.725389641197264], [76.78694051845085, 30.72536844873955], [76.78696025948356, 30.72534728281027], [76.78698372756489, 30.725326065888208], [76.7870110000176, 30.72530681872955], [76.7870423041262, 30.725291595321007], [76.78707095765836, 30.72527831067428], [76.78709608370919, 30.725263702718635], [76.78711753905881, 30.725243859090774], [76.78713748057699, 30.725223066409104], [76.7871574176489, 30.725201760425463], [76.78717732678847, 30.72518184038427], [76.78719798072287, 30.725161138440612], [76.7872186103539, 30.725140418435227], [76.78723923227743, 30.725119692802277], [76.78725967868483, 30.725098850353028], [76.78727937598285, 30.72507755427747], [76.78729804838618, 30.725055619075896], [76.78731532244484, 30.725034078862404], [76.78733361420478, 30.72501326956036], [76.78735333060523, 30.72499345905176], [76.78737555305412, 30.724972794337948], [76.7873970942198, 30.72495156335613], [76.78741778023452, 30.724929653040313], [76.78743709312111, 30.724908008000924], [76.7874564261248, 30.724886375026724], [76.78747582851518, 30.724864788468896], [76.78749456393359, 30.724844036075456], [76.78751259537714, 30.72482409293831], [76.78752991815749, 30.72480495598191], [76.78754580170023, 30.72478741670006], [76.78755809079342, 30.724773874077947], [76.78757846555246, 30.72475584962038], [76.78760836809758, 30.724731747601695], [76.78765707924433, 30.724703530063717], [76.78770616092551, 30.724694881331043], [76.7877556131705, 30.724705801402145], [76.7877556131705, 30.724705801402145], [76.78773052809015, 30.724656347844515], [76.78772106805421, 30.724618337676265], [76.78772853738063, 30.724591273568073], [76.78774571427749, 30.724569774085648], [76.78776476269067, 30.72454811813161], [76.78778440010157, 30.72452681824166], [76.78780419789862, 30.72450562500708], [76.78782397267877, 30.724484415753825], [76.78784369947714, 30.72446317309654], [76.7878634124222, 30.72444192078575], [76.78788317129266, 30.724420700312514], [76.78790290761667, 30.724399465176763], [76.78792247273276, 30.724378114611305], [76.78794172375272, 30.724356553827526], [76.7879607314525, 30.724334830774513], [76.78797962830707, 30.724313034105027], [76.78799856158139, 30.724291260390096], [76.788017503779, 30.724269491792118], [76.78803642985373, 30.72424771210945], [76.78805540109032, 30.724225962571268], [76.78807454251142, 30.724204326820434], [76.78809394935652, 30.724182868538264], [76.78811354671963, 30.724161538163344], [76.7881332142539, 30.724140254258177], [76.78815286215355, 30.724118956563018], [76.78817250061981, 30.724097652344916], [76.78819272203178, 30.72407693159366], [76.7882124800168, 30.724058937682646], [76.78822956565797, 30.72404601912227], [76.78824199333908, 30.724028702210134], [76.78825142509204, 30.724003771523243], [76.78826225935356, 30.723966535471984], [76.78827679197447, 30.72393426074004], [76.78829483055965, 30.723906961625985], [76.78831410586594, 30.723886926085477], [76.78833367077047, 30.723865740496276], [76.78835311301438, 30.723844470275587], [76.7883725750361, 30.723823214156543], [76.78839219180828, 30.723802065203756], [76.7884119615062, 30.723781022051604], [76.78843175203161, 30.72375999254864], [76.78845147671701, 30.723738916724844], [76.78847114096902, 30.723717798441086], [76.78849079456799, 30.723696672684948], [76.78851043346384, 30.723675536867447], [76.7885300390427, 30.72365437801937], [76.78854963884753, 30.723633215216253], [76.78856927340509, 30.72361207642111], [76.78858891514862, 30.723590942681035], [76.7886085096954, 30.72356977632908], [76.78862799197258, 30.723548533066047], [76.78864749351388, 30.72352730522196], [76.78866707116218, 30.723506132228316], [76.78868680054437, 30.723485065153746], [76.78870649426659, 30.72346397146825], [76.78872611963168, 30.723442828319822], [76.78874566824261, 30.723421630392128], [76.78876523670792, 30.723400445934516], [76.78878482730782, 30.723379276661714], [76.78880759246134, 30.723357064328194], [76.78883360203581, 30.72333570152705], [76.78886287892745, 30.723316908760346], [76.78889032758117, 30.72330456770584], [76.78891589936758, 30.72329681946292], [76.78893609355345, 30.723282270331413], [76.7889510432271, 30.723257227032995], [76.78896060699974, 30.723219708110328], [76.78897171887054, 30.72318733860878], [76.78898671650938, 30.723160041083155], [76.7890057485328, 30.723139782938844], [76.78902535914989, 30.72311861261149], [76.78904497769736, 30.72309744785919], [76.78906455495684, 30.72307625475089], [76.7890841141982, 30.723055049398553], [76.7891037119816, 30.72303387063392], [76.78912337605327, 30.72301273761922], [76.78914306797222, 30.72299162363138], [76.78916275511592, 30.72297050623603], [76.7891824114872, 30.722949367438837], [76.78920204255867, 30.722928211152798], [76.78922163615319, 30.72290702895819], [76.78924119195695, 30.722885820755657], [76.78926071982183, 30.722864593385196], [76.78928026582477, 30.722843378932893], [76.78929988960631, 30.722822218732947], [76.7893196398595, 30.72280114655844], [76.78933946083404, 30.72278012342193], [76.78935929950386, 30.72275911238298], [76.78937907251068, 30.7227380554029], [76.78939876229428, 30.72271694082476], [76.7894183189039, 30.722695734284347], [76.78943777707538, 30.72267446000151], [76.78945719477305, 30.722653157583117], [76.78947661914704, 30.722631859724903], [76.7894994675204, 30.722610150189492], [76.78952470836445, 30.7225902590133], [76.78955358833478, 30.722573851035715], [76.78957941115216, 30.722563860394956], [76.78960434526725, 30.722557911207765], [76.7896237772293, 30.722555065972195], [76.78963868280246, 30.722553067226382], [76.78964560063369, 30.722552301730964], [76.78965583084577, 30.722537523850157], [76.78967453524173, 30.722506738383753], [76.78970687640651, 30.72245795569814], [76.78973986273881, 30.72241848861721], [76.78977063785501, 30.72239007346271], [76.78981089801987, 30.722374640809036], [76.78986285442316, 30.72236113871184], [76.78991957409937, 30.722340663134393], [76.78994909537995, 30.72231456193259], [76.78995427466812, 30.72228109879808], [76.78994353859885, 30.722262131154647], [76.78993171326631, 30.72225842996147], [76.78991879866497, 30.722269995218518], [76.78991879866497, 30.722269995218518], [76.78999029105124, 30.72228127866006], [76.79004756048742, 30.722298489795694], [76.79008895013402, 30.722311410948773], [76.79012159592527, 30.72231719776397], [76.7901510672339, 30.72230412005693], [76.7901774945339, 30.722273710617177], [76.79020086522297, 30.722225909967765], [76.79020086522297, 30.722225909967765], [76.7902354040938, 30.722222718170975], [76.79026717186164, 30.72221709205102], [76.79029304092063, 30.722206270385783], [76.79031207278453, 30.722186921977986], [76.79032864148823, 30.722162209494037], [76.79034683535038, 30.722135440920116], [76.79036795395994, 30.722106458423177], [76.7903911711352, 30.722070269994237], [76.7904155261534, 30.72202632887065], [76.7904155261534, 30.72202632887065], [76.7904145559073, 30.722021742925108], [76.79041391885427, 30.72200786926962], [76.79041310098151, 30.721984727093222], [76.79041118921637, 30.72195700397974], [76.79040757118386, 30.7219294141361], [76.79040228872005, 30.72190201355625], [76.79039563805091, 30.72187481746547], [76.7903882017949, 30.721847751836886], [76.7903882017949, 30.721847751836886], [76.79038164451818, 30.72182901184298], [76.79037637175564, 30.721814242458507], [76.79038869749647, 30.721800458644072], [76.79041900597849, 30.72178384868962], [76.79046786819049, 30.721760687945707], [76.79050510892512, 30.721738213946335], [76.79053079252121, 30.721717642981208], [76.79054531986361, 30.721699208299416], [76.79056310630537, 30.721677756830225], [76.790582311193, 30.721654683582916], [76.7906006373696, 30.72163232136277], [76.7906156391196, 30.72161414169894], [76.79062669876791, 30.721601011338677], [76.79063235498445, 30.72159452228016], [76.79063483518532, 30.72157702094109], [76.79063774085327, 30.721544543174957], [76.79064545032344, 30.72149235775844], [76.7906595258839, 30.721448317434284], [76.79067773355088, 30.721414734712734], [76.79069783934837, 30.721393922104316], [76.79071794513729, 30.72137310949307], [76.79073805091762, 30.721352296878973], [76.7907581566894, 30.721331484262027], [76.7907782624526, 30.721310671642254], [76.79079836820723, 30.721289859019635], [76.7908184739533, 30.72126904639418], [76.79083857969079, 30.72124823376588], [76.79085868541969, 30.721227421134746], [76.79087879114003, 30.721206608500772], [76.7908988968518, 30.721185795863953], [76.790919002555, 30.721164983224284], [76.79093910824962, 30.721144170581784], [76.79095921393568, 30.72112335793645], [76.79097931961316, 30.72110254528826], [76.79099942528207, 30.721081732637245], [76.7910195309424, 30.721060919983376], [76.79103963659416, 30.72104010732668], [76.79105974223735, 30.721019294667137], [76.79107984787197, 30.720998482004752], [76.79109995349803, 30.720977669339526], [76.7911200591155, 30.72095685667146], [76.7911401647244, 30.720936044000553], [76.79116027032474, 30.720915231326803], [76.7911803759165, 30.720894418650218], [76.79120048149969, 30.720873605970787], [76.79122058707429, 30.720852793288525], [76.79124069264034, 30.72083198060341], [76.79126079819783, 30.72081116791546], [76.79128090374671, 30.720790355224683], [76.79130100928704, 30.720769542531045], [76.7913211148188, 30.720748729834565], [76.79134122034199, 30.72072791713526], [76.7913613258566, 30.720707104433114], [76.79138143136264, 30.72068629172812], [76.7914015368601, 30.720665479020287], [76.791421642349, 30.72064466630961], [76.79144174782932, 30.720623853596102], [76.79146185330109, 30.720603040879755], [76.79148195876427, 30.720582228160545], [76.79150206421888, 30.72056141543852], [76.79152216966492, 30.72054060271365], [76.79154227510239, 30.720519789985932], [76.79156238053127, 30.72049897725538], [76.7915824859516, 30.72047816452199], [76.79160259136334, 30.720457351785743], [76.79162269676652, 30.72043653904667], [76.79164280216114, 30.72041572630476], [76.79166290754718, 30.720394913559993], [76.79168301292462, 30.7203741008124], [76.79170311829353, 30.72035328806196], [76.79172322365385, 30.720332475308687], [76.79174332900558, 30.72031166255257], [76.79176343434877, 30.720290849793614], [76.79178353968337, 30.720270037031813], [76.7918036450094, 30.72024922426717], [76.79182375032687, 30.720228411499704], [76.79184385563576, 30.720207598729377], [76.79186396093608, 30.720186785956226], [76.79188406622782, 30.72016597318021], [76.79190417151099, 30.720145160401376], [76.79192427678561, 30.72012434761971], [76.79194438205164, 30.72010353483518], [76.79196448730909, 30.720082722047817], [76.79198459255798, 30.72006190925762], [76.7920046977983, 30.720041096464588], [76.79202480303006, 30.720020283668703], [76.79204490825323, 30.719999470869983], [76.79206501346782, 30.719978658068424], [76.79208511867385, 30.719957845264013], [76.79210522387132, 30.719937032456773], [76.7921253290602, 30.71991621964669], [76.79214543424052, 30.71989540683377], [76.79216553941227, 30.71987459401801], [76.79218564457544, 30.719853781199415], [76.79220574973004, 30.719832968377965], [76.79222585487608, 30.71981215555369], [76.79224596001355, 30.719791342726566], [76.79226606514243, 30.719770529896604], [76.79228617026274, 30.71974971706379], [76.79230627537449, 30.719728904228155], [76.79232638047766, 30.719708091389684], [76.79234648557227, 30.719687278548356], [76.79236659065829, 30.719666465704194], [76.79238669573576, 30.719645652857192], [76.79240680080464, 30.719624840007345], [76.79242690586496, 30.719604027154677], [76.7924470109167, 30.719583214299142], [76.79246711595988, 30.71956240144078], [76.79248722099449, 30.719541588579585], [76.79250732602051, 30.719520775715534], [76.79252743096637, 30.719499962797027], [76.79254753567454, 30.719479149710487], [76.79256763998755, 30.719458336342377], [76.79258774389112, 30.719437522682405], [76.79260784754273, 30.719416708844093], [76.79262795109986, 30.719395894941037], [76.79264805464845, 30.71937508103514], [76.79266815818846, 30.7193542671264], [76.79268826171989, 30.719333453214805], [76.79270836524275, 30.719312639300384], [76.79272846875705, 30.719291825383124], [76.79274857226277, 30.71927101146302], [76.79276867575992, 30.71925019754008], [76.79278877924851, 30.719229383614305], [76.79280888272852, 30.719208569685684], [76.79282898619995, 30.71918775575423], [76.79284908966282, 30.719166941819925], [76.79286919311711, 30.719146127882798], [76.79288929656283, 30.71912531394282], [76.7929094, 30.7191045], [76.7929094, 30.7191045], [76.79293005390045, 30.719083107710297], [76.79295070779185, 30.719061715417585], [76.79297136167422, 30.71904032312188], [76.79299201554751, 30.719018930823182], [76.79301266941177, 30.718997538521467], [76.79303332326697, 30.71897614621678], [76.79305397711313, 30.718954753909085], [76.79307463095023, 30.718933361598403], [76.79309528477829, 30.71891196928471], [76.7931159385973, 30.71889057696803], [76.79313659240724, 30.71886918464836], [76.79315724620815, 30.71884779232568], [76.7931779, 30.718826400000005], [76.7931779, 30.718826400000005], [76.79315223332485, 30.718810133338796], [76.79312656665817, 30.718793866672122], [76.79310090000001, 30.718777600000003]]}}, {"type": "Feature", "properties": {"mode": "accessible", "vehicle": "fire_truck", "city": "chandigarh", "length_m": 3841.5, "time_min": 7.24, "detour_m": 1335.0, "detour_pct": 53.3}, "geometry": {"type": "LineString", "coordinates": [[76.7809375, 30.735652900000005], [76.78095697501465, 30.735628200003937], [76.78097645001954, 30.73560350000525], [76.78099592501465, 30.735578800003942], [76.7810154, 30.735554099999998], [76.7810154, 30.735554099999998], [76.7809899237272, 30.735538228625096], [76.78096444746267, 30.735522357244843], [76.78093897120633, 30.735506485859197], [76.78091349495824, 30.735490614468198], [76.78088801871837, 30.735474743071826], [76.78086254248673, 30.735458871670094], [76.78083706626335, 30.735443000262993], [76.78081159004817, 30.735427128850517], [76.78078611384122, 30.735411257432677], [76.78076063764253, 30.735395386009483], [76.78073516145204, 30.735379514580906], [76.7807096852698, 30.73536364314696], [76.78068420909578, 30.73534777170766], [76.78065873293, 30.73533190026298], [76.78063325677246, 30.73531602881295], [76.78060778062313, 30.73530015735752], [76.78058230448205, 30.73528428589677], [76.78055682834919, 30.73526841443062], [76.78053135222456, 30.735252542959106], [76.78050587610817, 30.73523667148223], [76.7804804, 30.73522079999999], [76.7804804, 30.73522079999999], [76.7804407, 30.735195699999995], [76.7804407, 30.735195699999995], [76.78045976310707, 30.73517353546147], [76.78047882620552, 30.735151370920384], [76.78049788929538, 30.73512920637677], [76.7805169523766, 30.73510704183064], [76.78053601544923, 30.735084877281956], [76.78055507851323, 30.73506271273076], [76.78057414156862, 30.73504054817701], [76.7805932046154, 30.73501838362073], [76.78061226765355, 30.73499621906192], [76.78063133068311, 30.734974054500576], [76.78065039341655, 30.734951889755255], [76.78066941007772, 30.73492969593509], [76.78068833489044, 30.73490744414926], [76.78070712265355, 30.734885105869814], [76.78072581914324, 30.734862709987656], [76.78074447013574, 30.73484028539367], [76.78076312111973, 30.734817860797275], [76.7807817720952, 30.734795436198443], [76.78080042306217, 30.734773011597202], [76.78081907402061, 30.734750586993535], [76.78083772497055, 30.734728162387466], [76.78085637591198, 30.734705737778963], [76.7808750268449, 30.734683313168045], [76.78089367776928, 30.7346608885547], [76.78091232039269, 30.73463845886973], [76.78093091325611, 30.734615998769193], [76.7809494149006, 30.734593482909172], [76.7809678004522, 30.73457089608418], [76.78098611136994, 30.73454826363821], [76.78100438911278, 30.734525610915206], [76.7810226668472, 30.73450295818989], [76.7810409445732, 30.734480305462235], [76.7810592222908, 30.734457652732274], [76.7810775, 30.734435], [76.7810775, 30.734435], [76.78105097468229, 30.73441797611047], [76.7810244493738, 30.73440095221512], [76.78099792407451, 30.734383928313928], [76.78097139878443, 30.734366904406908], [76.78094487350356, 30.734349880494065], [76.78091834823188, 30.734332856575367], [76.78089182296941, 30.73431583265086], [76.78086529771615, 30.73429880872051], [76.7808387724721, 30.734281784784326], [76.78081224723724, 30.734264760842315], [76.78078641409964, 30.734247166553274], [76.78076218589688, 30.734228255086208], [76.78074123790691, 30.734206942702933], [76.78072386123097, 30.734183286347996], [76.78070990547059, 30.734157695946223], [76.78069769534702, 30.734131255237276], [76.78068624767018, 30.73410447761932], [76.7806748, 30.734077699999997], [76.7806748, 30.734077699999997], [76.78064869993479, 30.73406133754226], [76.78062259987826, 30.73404497507891], [76.78059649983042, 30.7340286126099], [76.78057039979129, 30.734012250135258], [76.78054429976086, 30.733995887654988], [76.78051819973912, 30.733979525169087], [76.78049209972609, 30.733963162677533], [76.78046599972173, 30.733946800180355], [76.78043989972609, 30.73393043767754], [76.78041379973912, 30.73391407516908], [76.78038769976087, 30.733897712654986], [76.7803615997913, 30.73388135013526], [76.78033549983044, 30.733864987609905], [76.78030939987826, 30.7338486250789], [76.78028329993478, 30.73383226254227], [76.78025720000001, 30.733815899999993], [76.78025720000001, 30.733815899999993], [76.78022852782244, 30.733801106251526], [76.78019985565344, 30.73378631249632], [76.78017118349298, 30.73377151873442], [76.78014251134107, 30.733756724965808], [76.78011374739721, 30.73374212037029], [76.78008448703531, 30.733728538788487], [76.7800543256285, 30.73371681406072], [76.78002304215028, 30.733707401667377], [76.77999104122527, 30.733699467767362], [76.77995872747904, 30.733692178519824], [76.77992641373729, 30.733684889264033], [76.7798941, 30.733677600000007], [76.7798941, 30.733677600000007], [76.77991882452217, 30.73366014457442], [76.77994227356228, 30.73364155263787], [76.77996392664538, 30.733621360423456], [76.77998410778838, 30.73359996763871], [76.78000267076402, 30.733577537251353], [76.78001907606709, 30.733554030846225], [76.78003289115739, 30.733529283333613], [76.7800449, 30.733503699999996], [76.7800449, 30.733503699999996], [76.78004925305508, 30.733474598662518], [76.78005247096132, 30.733445483380816], [76.7800535670459, 30.73341635710065], [76.7800513008233, 30.733387358391273], [76.7800458127122, 30.733358641832854], [76.7800373914925, 30.733330334235873], [76.7800275, 30.7333023], [76.7800275, 30.7333023], [76.78001002266102, 30.73327715861293], [76.77999126513622, 30.733252869226803], [76.77997013101208, 30.733230258434457], [76.77994647730867, 30.73320957503407], [76.77992052424605, 30.733190977384563], [76.77989279589772, 30.73317454174982], [76.77986333961968, 30.733160633290723], [76.77983245665122, 30.733148975418324], [76.77980071933138, 30.73313866527411], [76.7797687, 30.733128799999996], [76.7797687, 30.733128799999996], [76.77979743588031, 30.733114858625672], [76.77982617175209, 30.733100917245302], [76.77985485157873, 30.733086894929965], [76.77988337266049, 30.733072643359534], [76.77991163229754, 30.733058014213945], [76.7799393582223, 30.733042718530115], [76.77996614482274, 30.733026358669086], [76.77999155416829, 30.733008512555084], [76.7800153383118, 30.7329890422921], [76.78003765598416, 30.732968229510124], [76.78005873055348, 30.73294640471327], [76.78007913827092, 30.732924075690548], [76.78009922871708, 30.732901506772144], [76.78011931915398, 30.732878937850913], [76.78013940958161, 30.732856368926868], [76.7801595, 30.732833799999998], [76.7801595, 30.732833799999998], [76.78017861253703, 30.732812317025818], [76.78019772506566, 30.73279083404908], [76.78021683758593, 30.732769351069788], [76.7802359500978, 30.732747868087937], [76.7802550626013, 30.732726385103533], [76.78027417509641, 30.7327049021166], [76.78029328758315, 30.7326834191271], [76.78031240006149, 30.73266193613503], [76.78033151253145, 30.732640453140416], [76.78035062499302, 30.732618970143246], [76.78036973744621, 30.73259748714353], [76.78038884989103, 30.732576004141265], [76.78040796232746, 30.73255452113643], [76.78042707475551, 30.732533038129038], [76.78044618717516, 30.732511555119117], [76.78046529958645, 30.732490072106636], [76.78048441198935, 30.732468589091592], [76.78050352438386, 30.732447106074], [76.78052263677, 30.73242562305385], [76.78054174914774, 30.732404140031147], [76.7805608615171, 30.732382657005896], [76.78057997387809, 30.73236117397809], [76.7805990862307, 30.73233969094773], [76.78061819857491, 30.73231820791481], [76.78063731091075, 30.732296724879344], [76.7806564232382, 30.73227524184133], [76.78067553555728, 30.73225375880075], [76.78069464786796, 30.732232275757614], [76.78071376017027, 30.73221079271194], [76.78073287246418, 30.732189309663703], [76.78075198474973, 30.732167826612915], [76.78077109702689, 30.73214634355957], [76.78079020929565, 30.732124860503685], [76.78080932155603, 30.732103377445238], [76.78082843380805, 30.732081894384223], [76.78084754605167, 30.732060411320667], [76.78086665828693, 30.732038928254568], [76.78088577051378, 30.7320174451859], [76.78090488273226, 30.73199596211469], [76.78092399494236, 30.731974479040925], [76.78094310714407, 30.731952995964598], [76.7809622193374, 30.731931512885726], [76.78098133152234, 30.73191002980429], [76.78100044369891, 30.731888546720327], [76.78101955586709, 30.73186706363378], [76.7810386680269, 30.731845580544697], [76.7810577801783, 30.731824097453057], [76.78107689232134, 30.73180261435886], [76.78109600445599, 30.731781131262114], [76.78111511658226, 30.7317596481628], [76.78113422870014, 30.731738165060953], [76.78115334080964, 30.731716681956552], [76.78117245291077, 30.731695198849597], [76.7811915650035, 30.731673715740083], [76.78121067708786, 30.731652232628004], [76.78122978916385, 30.731630749513375], [76.78124890123144, 30.731609266396216], [76.78126801329063, 30.731587783276485], [76.78128712534146, 30.731566300154213], [76.78130623738392, 30.731544817029373], [76.78132534941797, 30.73152333390199], [76.78134446144365, 30.731501850772045], [76.78136357346095, 30.731480367639556], [76.78138268546986, 30.731458884504516], [76.7814017974704, 30.731437401366914], [76.78142090946255, 30.731415918226766], [76.78144002144631, 30.731394435084056], [76.7814591334217, 30.7313729519388], [76.7814782453887, 30.731351468790983], [76.78149735734732, 30.73132998564063], [76.78151646929756, 30.731308502487707], [76.78153558123942, 30.731287019332246], [76.7815546931729, 30.731265536174217], [76.78157380509799, 30.731244053013643], [76.78159291701469, 30.731222569850505], [76.78161202892302, 30.731201086684834], [76.78163114082295, 30.731179603516594], [76.78165025271453, 30.73115812034581], [76.78166936459772, 30.73113663717247], [76.7816884764725, 30.731115153996576], [76.78170758833892, 30.73109367081813], [76.78172670019696, 30.73107218763712], [76.78174581204661, 30.73105070445357], [76.78176492388788, 30.73102922126747], [76.78178403572078, 30.731007738078798], [76.78180314754528, 30.730986254887593], [76.78182225936139, 30.73096477169382], [76.78184137116914, 30.73094328849751], [76.7818604829685, 30.73092180529864], [76.78187959475947, 30.730900322097217], [76.78189870654208, 30.730878838893233], [76.78191781831629, 30.730857355686712], [76.78193693008211, 30.730835872477627], [76.78195604183956, 30.730814389265984], [76.78197515358863, 30.7307929060518], [76.78199426532932, 30.730771422835055], [76.78201337157104, 30.730749935982335], [76.7820324637829, 30.73072843984822], [76.782051533434, 30.730706928787342], [76.7820705829746, 30.730685404421173], [76.78208962093562, 30.73066387239513], [76.78210865584795, 30.7306423383546], [76.7821276907519, 30.730620804311542], [76.78214672564751, 30.73059927026594], [76.78216576053474, 30.730577736217814], [76.7821847954136, 30.73055620216715], [76.7822038302841, 30.73053466811398], [76.78222286514622, 30.730513134058246], [76.7822419, 30.73049159999999], [76.7822419, 30.73049159999999], [76.7822170161446, 30.73047379780961], [76.78219213229829, 30.73045599561404], [76.78216724846104, 30.7304381934133], [76.78214236463286, 30.73042039120739], [76.78211748081375, 30.730402588996295], [76.78209259700374, 30.73038478678002], [76.78206771320279, 30.730366984558565], [76.78204282941091, 30.730349182331928], [76.7820180258199, 30.73033130495942], [76.78199356084679, 30.730313110301104], [76.78196969290869, 30.73029435621726], [76.78194652003921, 30.730274950849676], [76.78192378382136, 30.730255136338528], [76.7819012258381, 30.730235154823827], [76.78187866786416, 30.730215173304774], [76.78185610989955, 30.73019519178139], [76.78183355194427, 30.73017521025366], [76.78181089526016, 30.730155320259044], [76.78178790593003, 30.730135738655726], [76.78176435003668, 30.73011668230171], [76.78174019113914, 30.73009818498], [76.78171566315453, 30.730080029832187], [76.781691, 30.730062000000007], [76.781691, 30.730062000000007], [76.78166373332371, 30.73004466667282], [76.78163646665703, 30.730027333339493], [76.7816092, 30.730009999999996], [76.7816092, 30.730009999999996], [76.78158358743731, 30.729993968790698], [76.78155797488299, 30.72997793757596], [76.78153236233702, 30.7299619063558], [76.7815067497994, 30.729945875130234], [76.78148113727015, 30.72992984389922], [76.78145552474925, 30.729913812662787], [76.7814299122367, 30.729897781420924], [76.78140429973253, 30.729881750173632], [76.78137868723671, 30.72986571892092], [76.78135307474925, 30.729849687662778], [76.78132746227014, 30.729833656399208], [76.7813018497994, 30.729817625130224], [76.78127623733701, 30.729801593855804], [76.78125062488299, 30.72978556257596], [76.78122501243732, 30.729769531290692], [76.7811994, 30.7297535], [76.7811994, 30.7297535], [76.78117336243521, 30.72973720004205], [76.78114732487906, 30.729720900078505], [76.78112128733153, 30.729704600109343], [76.78109524979264, 30.729688300134587], [76.78106921226242, 30.729672000154217], [76.78104317474082, 30.729655700168244], [76.78101713722785, 30.72963940017665], [76.78099109972354, 30.72962310017946], [76.78096506222785, 30.729606800176654], [76.78093902474082, 30.729590500168246], [76.78091298726241, 30.729574200154207], [76.78088694979265, 30.729557900134594], [76.78086091233152, 30.72954160010935], [76.78083487487905, 30.729525300078517], [76.78080883743522, 30.72950900004206], [76.7807828, 30.7294927], [76.7807828, 30.7294927], [76.78080133187464, 30.72947051955996], [76.7808198637409, 30.729448339117557], [76.7808383955988, 30.72942615867275], [76.78085692744834, 30.729403978225555], [76.7808754592895, 30.729381797775964], [76.78089399112231, 30.729359617323986], [76.78091252294675, 30.729337436869628], [76.78093105476283, 30.729315256412875], [76.78094958657053, 30.729293075953738], [76.78096811836987, 30.72927089549221], [76.78098665016084, 30.729248715028284], [76.78100518194346, 30.729226534561985], [76.7810237137177, 30.729204354093287], [76.78104224548358, 30.729182173622192], [76.78106077724108, 30.729159993148723], [76.78107930899023, 30.729137812672853], [76.781097840731, 30.729115632194613], [76.78111637246342, 30.729093451713975], [76.78113490418747, 30.729071271230936], [76.78115343590315, 30.729049090745523], [76.78117196761046, 30.729026910257716], [76.78119049930942, 30.72900472976753], [76.781209031, 30.728982549274946], [76.78122756268222, 30.728960368779973], [76.78124609435608, 30.728938188282605], [76.78126462602157, 30.72891600778286], [76.78128315767869, 30.72889382728073], [76.78130168932744, 30.7288716467762], [76.78132022096783, 30.728849466269292], [76.78133875259985, 30.72882728575998], [76.78135728422352, 30.728805105248288], [76.7813758158388, 30.728782924734205], [76.78139434744574, 30.728760744217734], [76.7814128790443, 30.728738563698887], [76.7814314106345, 30.728716383177634], [76.78144994221633, 30.728694202654008], [76.78146847378979, 30.72867202212797], [76.78148700535489, 30.72864984159955], [76.78150553691162, 30.72862766106875], [76.78152406845999, 30.72860548053557], [76.7815426, 30.728583299999997], [76.7815426, 30.728583299999997], [76.78151713071989, 30.72856743849371], [76.78149166144803, 30.72855157698207], [76.78146619218437, 30.728535715465068], [76.78144072292893, 30.728519853942693], [76.78141525368171, 30.72850399241496], [76.78138978444274, 30.728488130881864], [76.78136431521197, 30.728472269343403], [76.78133884598942, 30.728456407799577], [76.78131337677509, 30.728440546250393], [76.78128790756898, 30.728424684695835], [76.7812624383711, 30.728408823135922], [76.78123696918145, 30.72839296157065], [76.7812115, 30.728377099999996], [76.7812115, 30.728377099999996], [76.78118553077724, 30.728360933447643], [76.78115956156302, 30.728344766889702], [76.78113359235734, 30.728328600326194], [76.78110762316021, 30.728312433757104], [76.78108165397161, 30.728296267182447], [76.78105568479157, 30.728280100602213], [76.78102971562006, 30.728263934016393], [76.7810037464571, 30.728247767425003], [76.7809777773027, 30.728231600828025], [76.78095180815683, 30.728215434225493], [76.78092583901949, 30.728199267617367], [76.7808998698907, 30.728183101003665], [76.78087390077046, 30.728166934384408], [76.78084793165877, 30.72815076775955], [76.78082196255562, 30.72813460112913], [76.78079599346101, 30.728118434493144], [76.78077002437495, 30.728102267851554], [76.78074405529743, 30.728086101204404], [76.78071808622845, 30.728069934551677], [76.780692117168, 30.72805376789337], [76.78066614811613, 30.728037601229495], [76.78064017907276, 30.72802143456004], [76.78061421003797, 30.728005267885013], [76.78058824101171, 30.727989101204408], [76.78056227199399, 30.72797293451822], [76.78053630298481, 30.72795676782646], [76.7805103339842, 30.727940601129124], [76.7804843649921, 30.7279244344262], [76.78045839600857, 30.727908267717726], [76.78043242703357, 30.727892101003654], [76.78040645806712, 30.72787593428403], [76.7803804891092, 30.727859767558808], [76.78035452015985, 30.72784360082801], [76.78032855121901, 30.72782743409165], [76.78030258228674, 30.72781126734971], [76.780276613363, 30.72779510060219], [76.7802506444478, 30.727778933849105], [76.78022467554116, 30.72776276709043], [76.78019870664306, 30.72774660032619], [76.7801727377535, 30.727730433556367], [76.78014676887248, 30.727714266780975], [76.7801208, 30.7276981], [76.7801208, 30.7276981], [76.78009511399735, 30.727682108759613], [76.78006942800305, 30.727666117513778], [76.7800437420171, 30.727650126262485], [76.78001805603951, 30.72763413500574], [76.77999237007029, 30.727618143743534], [76.77996668410941, 30.727602152475882], [76.77994099815692, 30.727586161202755], [76.77991531221275, 30.72757016992419], [76.77988962627697, 30.727554178640172], [76.77986394034953, 30.727538187350696], [76.77983825443046, 30.72752219605576], [76.77981256851973, 30.727506204755386], [76.77978688261739, 30.72749021344953], [76.7797611967234, 30.72747422213823], [76.77973551083774, 30.727458230821483], [76.77970982496046, 30.727442239499275], [76.77968413909156, 30.727426248171604], [76.77965845323098, 30.727410256838503], [76.77963276737879, 30.727394265499925], [76.77960708153493, 30.727378274155893], [76.77958139569945, 30.72736228280642], [76.77955570987231, 30.72734629145149], [76.77953002405354, 30.727330300091083], [76.77950433824314, 30.72731430872524], [76.77947865244109, 30.727298317353952], [76.7794529666474, 30.727282325977193], [76.77942728086205, 30.72726633459499], [76.77940159508508, 30.727250343207327], [76.77937590931647, 30.7272343518142], [76.77935022355621, 30.727218360415623], [76.77932453780431, 30.727202369011607], [76.77929885206078, 30.727186377602113], [76.7792731663256, 30.727170386187183], [76.77924748059877, 30.7271543947668], [76.7792217948803, 30.727138403340952], [76.7791961091702, 30.72712241190964], [76.77917042346844, 30.727106420472882], [76.77914473777506, 30.72709042903068], [76.77911905209002, 30.727074437583013], [76.77909336641335, 30.72705844612989], [76.77906768074504, 30.72704245467132], [76.7790419950851, 30.727026463207295], [76.7790163094335, 30.72701047173781], [76.77899062379026, 30.726994480262867], [76.77896493815538, 30.72697848878248], [76.77893925252886, 30.72696249729664], [76.7789135669107, 30.72694650580534], [76.7788878813009, 30.726930514308588], [76.77886219569946, 30.72691452280636], [76.77883651010637, 30.726898531298712], [76.77881082452166, 30.726882539785596], [76.77878513894528, 30.726866548267015], [76.77875945337726, 30.726850556742978], [76.77873376781763, 30.726834565213508], [76.77870808226633, 30.726818573678568], [76.7786823967234, 30.726802582138173], [76.77865671118883, 30.726786590592326], [76.77863102566262, 30.72677059904103], [76.77860534014475, 30.726754607484278], [76.77857965463527, 30.726738615922077], [76.77855396913412, 30.72672262435441], [76.77852828364134, 30.72670663278129], [76.77850259815692, 30.72669064120273], [76.77847691268086, 30.72667464961869], [76.77845122721314, 30.726658658029216], [76.7784255417538, 30.72664266643427], [76.77839985630281, 30.726626674833884], [76.77837417086018, 30.726610683228046], [76.77834848542591, 30.726594691616747], [76.7783228, 30.726578699999994], [76.7783228, 30.726578699999994], [76.77834143895973, 30.726556744465004], [76.77836007791113, 30.726534788927594], [76.77837871685419, 30.72651283338777], [76.77839735578891, 30.72649087784552], [76.7784159947153, 30.726468922300853], [76.77843463363337, 30.726446966753763], [76.7784532725431, 30.726425011204256], [76.77847191144448, 30.726403055652337], [76.77849055033755, 30.726381100097992], [76.77850918922226, 30.726359144541224], [76.77852782809866, 30.726337188982043], [76.7785464669667, 30.726315233420436], [76.77856510582643, 30.726293277856406], [76.77858374467782, 30.72627132228996], [76.77860238352086, 30.726249366721095], [76.77862102235557, 30.72622741114982], [76.77863966118196, 30.726205455576117], [76.7786583, 30.726183499999987], [76.7786583, 30.726183499999987], [76.77867720960934, 30.72616129526299], [76.77869611921012, 30.726139090523507], [76.77871502880235, 30.726116885781536], [76.77873393838603, 30.72609468103707], [76.77875284796116, 30.726072476290106], [76.77877175752774, 30.726050271540654], [76.77879066708574, 30.726028066788725], [76.77880957663521, 30.726005862034285], [76.77882848617614, 30.72598365727737], [76.77884739570848, 30.725961452517954], [76.7788663052323, 30.725939247756052], [76.77888521474756, 30.72591704299165], [76.77890412425425, 30.725894838224768], [76.77892303375242, 30.725872633455392], [76.778941943242, 30.725850428683525], [76.77896085272306, 30.72582822390917], [76.77897976219556, 30.725806019132314], [76.7789986716595, 30.72578381435297], [76.77901758111489, 30.725761609571144], [76.77903649056172, 30.72573940478682], [76.7790554, 30.725717200000002], [76.7790554, 30.725717200000002], [76.77902895899793, 30.725700740969778], [76.7790025180047, 30.725684281933773], [76.77897607702036, 30.725667822892], [76.77894963604484, 30.725651363844438], [76.77892319507819, 30.725634904791104], [76.7788967541204, 30.72561844573198], [76.77887031317145, 30.72560198666707], [76.77884387223138, 30.72558552759639], [76.77881743130014, 30.72556906851994], [76.77879099037776, 30.72555260943769], [76.77876454946424, 30.72553615034968], [76.7787381085596, 30.725519691255872], [76.77871166766379, 30.72550323215629], [76.77868522677683, 30.72548677305094], [76.77865878589873, 30.72547031393979], [76.7786323450295, 30.725453854822888], [76.7786059041691, 30.725437395700187], [76.77857946331757, 30.72542093657171], [76.77855302247491, 30.725404477437444], [76.77852658164107, 30.725388018297412], [76.77850014081612, 30.725371559151597], [76.7784737, 30.725355099999998], [76.7784737, 30.725355099999998], [76.77844044999298, 30.725334350004566], [76.7784072, 30.725313600000007], [76.7784072, 30.725313600000007], [76.77842568923602, 30.72529139839413], [76.77844417846372, 30.72526919678587], [76.77846266768303, 30.725246995175233], [76.77848115689399, 30.72522479356222], [76.77849964609662, 30.725202591946836], [76.77851813529088, 30.725180390329072], [76.7785366244768, 30.725158188708924], [76.77855511365435, 30.7251359870864], [76.77857360282357, 30.725113785461502], [76.77859209198442, 30.725091583834246], [76.77861058113695, 30.72506938220458], [76.7786290702811, 30.72504718057254], [76.77864755941688, 30.725024978938144], [76.77866604854435, 30.725002777301356], [76.77868453766344, 30.724980575662194], [76.77870302677418, 30.724958374020645], [76.77872151587658, 30.72493617237673], [76.77874000497062, 30.724913970730437], [76.77875849405632, 30.724891769081772], [76.77877698313365, 30.72486956743072], [76.77879547220265, 30.724847365777297], [76.77881396100199, 30.7248251639591], [76.7788324492083, 30.724802961775186], [76.77885093649822, 30.724780759024565], [76.77886942307093, 30.72475855583106], [76.77888790924983, 30.724736352395603], [76.77890639535829, 30.724714148919205], [76.77892488145842, 30.724691945440416], [76.77894336755018, 30.724669741959268], [76.77896185363359, 30.724647538475725], [76.77898033970867, 30.72462533498982], [76.77899882577537, 30.72460313150152], [76.77901731183374, 30.72458092801087], [76.77903579788375, 30.724558724517824], [76.77905428392542, 30.7245365210224], [76.77907276995872, 30.724514317524605], [76.77909125598367, 30.724492114024436], [76.77910974200029, 30.724469910521893], [76.77912822800855, 30.724447707016967], [76.77914671400845, 30.724425503509675], [76.7791652, 30.72440329999999], [76.7791652, 30.72440329999999], [76.7791777, 30.7243883], [76.7791777, 30.7243883], [76.77917750516383, 30.724360584670908], [76.77917731032818, 30.724332869341705], [76.77917594359032, 30.724305353557543], [76.77917209405298, 30.72427826053089], [76.77916445082028, 30.724251813473888], [76.77915404680124, 30.724225836508296], [76.77914219289515, 30.724200106421172], [76.7791302, 30.7241744], [76.7791302, 30.7241744], [76.77910299994704, 30.724157025033705], [76.77907579990371, 30.72413965006127], [76.77904859987002, 30.724122275082724], [76.77902139984596, 30.724104900098048], [76.77899419983152, 30.72408752510725], [76.7789669998267, 30.724070150110315], [76.77893979983152, 30.72405277510724], [76.77891259984595, 30.72403540009806], [76.77888539987002, 30.72401802508273], [76.77885819990372, 30.724000650061274], [76.77883099994705, 30.7239832750337], [76.7788038, 30.723965900000007], [76.7788038, 30.723965900000007], [76.77877833747046, 30.723949625018793], [76.77875287494935, 30.723933350032226], [76.77872741243668, 30.723917075040287], [76.77870194993245, 30.723900800042962], [76.77867648743668, 30.72388452504028], [76.77865102494934, 30.723868250032226], [76.77862556247045, 30.723851975018796], [76.7786001, 30.723835699999995], [76.7786001, 30.723835699999995], [76.7786191666756, 30.723812700002522], [76.77863823334226, 30.723789700002527], [76.7786573, 30.723766700000002], [76.7786573, 30.723766700000002], [76.77867698430693, 30.723743001526746], [76.77869666797442, 30.72371930266032], [76.77871635062257, 30.723695603165226], [76.7787360323715, 30.723671903115914], [76.77875571360109, 30.72364820274788], [76.7787753946913, 30.723624502296637], [76.77879507577202, 30.72360080184269], [76.77881475684325, 30.723577101386066], [76.77883443790498, 30.72355340092673], [76.77885411895724, 30.72352970046471], [76.7788738, 30.723506000000004], [76.7788738, 30.723506000000004], [76.77889282785316, 30.723483088910278], [76.77891185569744, 30.72346017781805], [76.77893088353287, 30.7234372667233], [76.77894991135942, 30.723414355626037], [76.7789689391771, 30.723391444526253], [76.77898796698592, 30.72336853342395], [76.77900699478587, 30.723345622319126], [76.77902602257694, 30.723322711211786], [76.77904505035916, 30.72329980010195], [76.7790640781325, 30.723276888989574], [76.77908310589699, 30.723253977874688], [76.77910213365259, 30.723231066757293], [76.77912116139933, 30.723208155637355], [76.7791401891372, 30.72318524451492], [76.7791592168662, 30.723162333389965], [76.77917824458633, 30.7231394222625], [76.77919727229761, 30.723116511132513], [76.7792163, 30.723093599999995], [76.7792163, 30.723093599999995], [76.77923503165687, 30.72307086844299], [76.77925376330509, 30.72304813688355], [76.77927249494464, 30.723025405321664], [76.77929122657554, 30.723002673757346], [76.77930995819779, 30.72297994219058], [76.77932868981136, 30.7229572106214], [76.77934742141628, 30.722934479049748], [76.77936615301255, 30.722911747475685], [76.77938488460016, 30.72288901589918], [76.7794036161791, 30.722866284320236], [76.77942234774939, 30.722843552738844], [76.77944107931103, 30.722820821155032], [76.77945981086398, 30.722798089568762], [76.7794785424083, 30.72277535798006], [76.77949727394396, 30.722752626388925], [76.77951600547097, 30.722729894795354], [76.7795347369893, 30.722707163199345], [76.77955346849899, 30.7226844316009], [76.7795722, 30.722661700000007], [76.7795722, 30.722661700000007], [76.77959224711289, 30.722640381963604], [76.77961229421703, 30.722619063924377], [76.77963234131242, 30.722597745882336], [76.77965238839907, 30.722576427837478], [76.77967243547698, 30.72255510978978], [76.77969248254615, 30.722533791739274], [76.77971252960657, 30.722512473685946], [76.77973257665823, 30.722491155629793], [76.77975262370117, 30.722469837570834], [76.77977267073534, 30.722448519509044], [76.77979271776078, 30.722427201444425], [76.77981276477747, 30.722405883377007], [76.77983281178543, 30.722384565306747], [76.77985285878464, 30.722363247233673], [76.77987290577511, 30.722341929157786], [76.77989295275682, 30.722320611079066], [76.77991299972979, 30.722299292997537], [76.77993304669401, 30.722277974913183], [76.77995332579857, 30.72225684545523], [76.77997420972524, 30.722236207440545], [76.77999607115575, 30.72221636368575], [76.78001881847375, 30.722197239748997], [76.78004207899735, 30.722178532813057], [76.78006548004471, 30.7221599400609], [76.78008888108305, 30.722141347304838], [76.78011228211237, 30.72212275454485], [76.78013568313266, 30.722104161780944], [76.78015914670961, 30.72208563001597], [76.78018275954737, 30.722067243788302], [76.78020660835014, 30.722049087636215], [76.7802306546908, 30.72203112409231], [76.78025481186513, 30.722013268618134], [76.78027899316902, 30.721995436675297], [76.78030317446392, 30.721977604728234], [76.78032735574988, 30.72195977277698], [76.78035153702685, 30.72194194082151], [76.78037571829485, 30.72192410886184], [76.78039989955387, 30.72190627689797], [76.78042408080391, 30.721888444929863], [76.78044826204501, 30.721870612957574], [76.78047244327712, 30.721852780981077], [76.78049693019487, 30.721835309411663], [76.78052203225911, 30.72181856310062], [76.78054805893088, 30.721802906899036], [76.78057470828196, 30.721787984835448], [76.78060167085172, 30.721773432058193], [76.78062863717935, 30.721758883715875], [76.78065560349867, 30.721744335368236], [76.78068256980974, 30.721729787015263], [76.7807095361125, 30.721715238656984], [76.780736502407, 30.721700690293375], [76.7807634686932, 30.721686141924444], [76.78079043497114, 30.721671593550205], [76.78081740124077, 30.721657045170637], [76.78084436750213, 30.72164249678574], [76.78087133375521, 30.721627948395522], [76.7808983, 30.721613399999992], [76.7808983, 30.721613399999992], [76.78092793858322, 30.72160454110079], [76.78095757716069, 30.72159568219499], [76.78098720606138, 30.721586801804328], [76.7810167295119, 30.721577687227047], [76.78104605173867, 30.721568125761532], [76.78107509630998, 30.721557947662873], [76.78110395899891, 30.721547365632905], [76.78113273557878, 30.721536592373425], [76.78116151215198, 30.721525819107793], [76.78119028871848, 30.72151504583601], [76.78121906527834, 30.721504272558075], [76.78124784183149, 30.721493499273993], [76.78127661837799, 30.721482725983748], [76.7813053949178, 30.721471952687377], [76.78133417145095, 30.72146117938483], [76.78136294797741, 30.721450406076155], [76.7813917244972, 30.721439632761303], [76.78142050101032, 30.721428859440323], [76.78144927751677, 30.721418086113186], [76.78147805401653, 30.721407312779895], [76.78150683050963, 30.721396539440452], [76.78153560699604, 30.721385766094865], [76.78156423020637, 30.72137474705251], [76.78159241807113, 30.721363030157033], [76.78161988852045, 30.72135016325231], [76.78164666606844, 30.721336185623073], [76.78167303315747, 30.72132154991882], [76.78169927223031, 30.721306708788813], [76.78172551237003, 30.721291869072612], [76.78175175320324, 30.721277030277395], [76.78177799435655, 30.721262191910395], [76.78180423550164, 30.72124735353837], [76.78183047663853, 30.721232515161315], [76.78185671776723, 30.72121767677924], [76.78188295888772, 30.72120283839213], [76.7819092, 30.721188000000005], [76.7819092, 30.721188000000005], [76.78193637105365, 30.7211713205066], [76.78196313130358, 30.7211541525287], [76.78198944605012, 30.721136454805055], [76.78201552069024, 30.721118471575387], [76.78204156062101, 30.721100447079326], [76.78206760054199, 30.721082422578338], [76.78209364045317, 30.72106439807246], [76.78211968035457, 30.7210463735617], [76.78214572024618, 30.721028349046026], [76.78217176012798, 30.721010324525455], [76.7821978, 30.720992299999995], [76.7821978, 30.720992299999995], [76.7822214885, 30.720973820202225], [76.78224517699091, 30.720955340400437], [76.78226886547274, 30.720936860594623], [76.78229255394551, 30.720918380784788], [76.78231624240917, 30.72089990097093], [76.78233993086374, 30.72088142115304], [76.78236361930924, 30.720862941331127], [76.78238730774565, 30.7208444615052], [76.78241099617298, 30.720825981675254], [76.78243468459122, 30.72080750184128], [76.78245789625419, 30.720788643495876], [76.78248014542208, 30.720769020991533], [76.78250094635523, 30.72074824868111], [76.7825207668063, 30.720726697932026], [76.78254009251528, 30.720704754392273], [76.78255940922195, 30.72068280370948], [76.78257872591998, 30.720660853024096], [76.78259804260935, 30.720638902336123], [76.78261735929007, 30.720616951645518], [76.78263667596215, 30.720595000952326], [76.78265599262558, 30.720573050256508], [76.78267530928036, 30.720551099558104], [76.78269462592651, 30.720529148857093], [76.78271394256399, 30.720507198153477], [76.78273325919282, 30.720485247447257], [76.782752575813, 30.720463296738426], [76.78277189242456, 30.720441346026995], [76.78279120902745, 30.720419395312955], [76.7828105256217, 30.720397444596312], [76.7828298422073, 30.72037549387707], [76.78284915878424, 30.720353543155206], [76.78286847535254, 30.720331592430746], [76.7828877919122, 30.720309641703686], [76.7829071084632, 30.72028769097401], [76.78292642500557, 30.720265740241746], [76.78294574153928, 30.720243789506874], [76.78296502047164, 30.720221814576878], [76.78298420590593, 30.720199779479834], [76.78300324194545, 30.720177648243865], [76.7830221478789, 30.720155433282052], [76.78304097960303, 30.720133170566427], [76.7830597930146, 30.720110896068892], [76.78307860641762, 30.72008862156891], [76.78309741981212, 30.72006634706645], [76.78311623319809, 30.72004407256153], [76.78313504657554, 30.720021798054148], [76.78315385994445, 30.719999523544306], [76.78317267330483, 30.719977249032006], [76.78319148665668, 30.719954974517222], [76.7832103, 30.7199327], [76.7832103, 30.7199327], [76.7832287200586, 30.71991034668315], [76.78324714010883, 30.71988799336396], [76.78326556015068, 30.719865640042418], [76.78328398018417, 30.719843286718508], [76.78330240020928, 30.719820933392242], [76.78332082022602, 30.71979858006362], [76.7833392402344, 30.719776226732648], [76.7833576602344, 30.719753873399306], [76.78337608022602, 30.71973152006362], [76.78339450020927, 30.719709166725572], [76.78341292018416, 30.719686813385184], [76.78343134015068, 30.719664460042424], [76.78344976010882, 30.7196421066973], [76.78346818005859, 30.719619753349832], [76.7834866, 30.719597399999998], [76.7834866, 30.719597399999998], [76.78350499488973, 30.71957531320141], [76.78352338977119, 30.719553226400457], [76.7835417846444, 30.719531139597155], [76.78356017950934, 30.719509052791505], [76.783578574366, 30.71948696598352], [76.78359696921441, 30.719464879173152], [76.78361536405455, 30.719442792360443], [76.78363375888644, 30.719420705545392], [76.78365215371007, 30.71939861872798], [76.78367054852541, 30.71937653190821], [76.78368894333249, 30.719354445086097], [76.78370733813132, 30.71933235826163], [76.78372573292187, 30.719310271434814], [76.78374412770417, 30.719288184605652], [76.7837625224782, 30.719266097774135], [76.78378091724396, 30.719244010940248], [76.78379931200146, 30.71922192410402], [76.78381770675071, 30.71919983726544], [76.78383610149167, 30.719177750424507], [76.78385449622438, 30.719155663581223], [76.78387289094883, 30.719133576735594], [76.78389128566502, 30.719111489887606], [76.78390968037293, 30.71908940303727], [76.78392807507258, 30.719067316184574], [76.78394646976398, 30.719045229329552], [76.7839648644471, 30.719023142472146], [76.78398325912195, 30.719001055612402], [76.78400165378856, 30.718978968750307], [76.78402004844689, 30.718956881885866], [76.78403844309696, 30.718934795019063], [76.78405683773877, 30.718912708149904], [76.7840752323723, 30.718890621278412], [76.78409362699757, 30.718868534404553], [76.78411202161459, 30.71884644752834], [76.78413041622335, 30.718824360649784], [76.78414881082382, 30.718802273768873], [76.78416720541604, 30.718780186885617], [76.7841856, 30.718758100000002], [76.7841856, 30.718758100000002], [76.78420397504534, 30.718736041679577], [76.78422235008244, 30.718713983356796], [76.7842407251113, 30.71869192503169], [76.78425910013192, 30.71866986670421], [76.78427747514428, 30.718647808374406], [76.78429585014841, 30.718625750042246], [76.78431422514429, 30.718603691707727], [76.78433260013192, 30.718581633370885], [76.78435097511131, 30.71855957503169], [76.78436935008244, 30.71853751669014], [76.78438772504533, 30.718515458346246], [76.7844061, 30.71849340000001], [76.7844061, 30.71849340000001], [76.78442950000668, 30.718465350001896], [76.7844529, 30.718437299999994], [76.7844529, 30.718437299999994], [76.78447172312865, 30.718414792322466], [76.78449054624866, 30.718392284642484], [76.78450936936007, 30.71836977696003], [76.78452819246284, 30.718347269275103], [76.78454701555701, 30.71832476158773], [76.78456583864255, 30.71830225389788], [76.78458466171946, 30.718279746205567], [76.78460348478777, 30.718257238510795], [76.78462230784746, 30.718234730813574], [76.78464113089852, 30.71821222311386], [76.78465995394097, 30.7181897154117], [76.7846787769748, 30.718167207707086], [76.7846976, 30.71814469999999], [76.7846976, 30.71814469999999], [76.78471579381582, 30.71812088126713], [76.78473398762289, 30.718097062531967], [76.78475218142115, 30.71807324379454], [76.78477037521064, 30.71804942505483], [76.78478856899137, 30.71802560631282], [76.78480676276331, 30.718001787568536], [76.78482495652648, 30.717977968821963], [76.78484315028086, 30.717954150073098], [76.78486134402647, 30.717930331321963], [76.7848795377633, 30.717906512568543], [76.78489773149137, 30.717882693812825], [76.78491592521064, 30.717858875054826], [76.78493411892114, 30.71783505629455], [76.78495231262288, 30.71781123753198], [76.78497050631583, 30.717787418767127], [76.7849887, 30.7177636], [76.7849887, 30.7177636], [76.78500724936902, 30.717741328741784], [76.78502579872965, 30.717719057481172], [76.78504434808187, 30.717696786218184], [76.78506289742569, 30.717674514952787], [76.7850814467611, 30.71765224368501], [76.78509999608812, 30.717629972414837], [76.78511854540673, 30.717607701142274], [76.78513709472507, 30.717585429872386], [76.78515564418116, 30.717563158690965], [76.785174193913, 30.717540887683825], [76.78519274404232, 30.71751861692665], [76.78521129443115, 30.717496346333647], [76.78522984494144, 30.717474075818995], [76.78524839544332, 30.71745180530195], [76.7852669459368, 30.717429534782507], [76.78528549642188, 30.717407264260686], [76.78530404689855, 30.71738499373647], [76.78532259736683, 30.71736272320986], [76.7853411478267, 30.71734045268087], [76.78535969827816, 30.71731818214948], [76.78537824872123, 30.717295911615697], [76.78539679915589, 30.71727364107952], [76.78541534958215, 30.717251370540954], [76.7854339, 30.717229099999997], [76.7854339, 30.717229099999997], [76.78545257799324, 30.717206815428458], [76.78547125597801, 30.71718453085448], [76.78548993395432, 30.717162246278093], [76.78550861192217, 30.71713996169928], [76.78552728988151, 30.71711767711804], [76.78554596783242, 30.717095392534375], [76.78556464577484, 30.717073107948277], [76.7855833237088, 30.717050823359756], [76.7856020016343, 30.7170285387688], [76.78562067955133, 30.717006254175438], [76.78563935745989, 30.716983969579633], [76.78565803535997, 30.71696168498141], [76.78567671325159, 30.716939400380767], [76.78569539113475, 30.716917115777694], [76.78571406900943, 30.716894831172205], [76.78573274687564, 30.71687254656428], [76.78575142473339, 30.716850261953923], [76.78577010258267, 30.716827977341154], [76.78578878042349, 30.71680569272596], [76.78580745825583, 30.71678340810833], [76.78582613607969, 30.716761123488283], [76.7858448138951, 30.7167388388658], [76.78586349170205, 30.716716554240904], [76.78588216950051, 30.716694269613562], [76.7859008472905, 30.716671984983805], [76.78591952507205, 30.71664970035163], [76.78593820284512, 30.71662741571702], [76.78595688060972, 30.716605131079998], [76.78597555836585, 30.71658284644054], [76.78599423611351, 30.716560561798666], [76.7860129138527, 30.71653827715436], [76.78603159158342, 30.716515992507617], [76.78605026930568, 30.716493707858465], [76.78606894701947, 30.71647142320689], [76.78608762622565, 30.71644913950439], [76.78610634285812, 30.71642687953256], [76.78612513285078, 30.71640466607294], [76.78614402913583, 30.716382520004014], [76.7861629957793, 30.71636041854421], [76.78618199684729, 30.71633833891194], [76.78620099790675, 30.716316259277143], [76.78621999895763, 30.716294179639835], [76.786239, 30.7162721], [76.786239, 30.7162721], [76.78626510518264, 30.716288921103477], [76.78629121037423, 30.7163057422013], [76.78631731557476, 30.716322563293474], [76.78634342078425, 30.71633938438], [76.78636952600266, 30.716356205460883], [76.78639563123004, 30.71637302653611], [76.78642173646635, 30.716389847605686], [76.78644784171162, 30.716406668669624], [76.78647394696584, 30.716423489727905], [76.78650005222899, 30.716440310780545], [76.78652615750109, 30.716457131827525], [76.78655226278215, 30.71647395286886], [76.78657836807214, 30.71649077390453], [76.78660447337109, 30.71650759493457], [76.78663057867898, 30.716524415958958], [76.7866566839958, 30.716541236977687], [76.78668278932159, 30.716558057990774], [76.78670889465633, 30.716574878998212], [76.786735, 30.71659170000001], [76.786735, 30.71659170000001], [76.78675976789705, 30.716608652061318], [76.7867845358027, 30.716625604117525], [76.78680930371691, 30.716642556168637], [76.78683407163969, 30.71665950821463], [76.78685883957105, 30.716676460255506], [76.786883607511, 30.716693412291278], [76.78690837545953, 30.716710364321937], [76.78693314341665, 30.716727316347487], [76.78695791138233, 30.716744268367936], [76.78698267935658, 30.716761220383262], [76.78700744733943, 30.716778172393486], [76.78703221533085, 30.716795124398594], [76.78705698333086, 30.716812076398607], [76.78708175133943, 30.71682902839349], [76.7871065193566, 30.716845980383262], [76.78713128738232, 30.71686293236793], [76.78715605541665, 30.716879884347488], [76.78718082345954, 30.71689683632195], [76.78720559151101, 30.716913788291283], [76.78723035957105, 30.71693074025551], [76.78725512763968, 30.716947692214628], [76.7872798957169, 30.716964644168634], [76.78730466380269, 30.71698159611754], [76.78732943189705, 30.716998548061316], [76.7873542, 30.717015499999995], [76.7873542, 30.717015499999995], [76.78738038413226, 30.7170318263668], [76.78740656827323, 30.717048152727955], [76.78743275242287, 30.717064479083433], [76.78745893658123, 30.717080805433234], [76.78748512074829, 30.71709713177738], [76.78751130492401, 30.71711345811585], [76.78753748910846, 30.71712978444864], [76.78756367330159, 30.71714611077578], [76.78758985750342, 30.71716243709724], [76.78761604171395, 30.717178763413028], [76.78764222593318, 30.71719508972315], [76.7876684101611, 30.717211416027595], [76.7876945943977, 30.71722774232638], [76.78772077864302, 30.71724406861948], [76.78774696289703, 30.717260394906933], [76.78777314715973, 30.717276721188696], [76.78779933143112, 30.717293047464796], [76.7878255157112, 30.717309373735237], [76.7878517, 30.717325699999996], [76.7878517, 30.717325699999996], [76.78787746937566, 30.71734177186269], [76.78790323875975, 30.7173578437199], [76.78792900815226, 30.717373915571617], [76.78795477755318, 30.717389987417835], [76.78798054696254, 30.71740605925857], [76.78800631638032, 30.717422131093794], [76.78803208580653, 30.717438202923542], [76.78805785524115, 30.717454274747794], [76.78808362468422, 30.717470346566564], [76.7881093941357, 30.71748641837984], [76.7881351635956, 30.71750249018761], [76.78816093306393, 30.717518561989902], [76.78818670254068, 30.7175346337867], [76.78821247202586, 30.717550705578002], [76.78823824151947, 30.717566777363807], [76.7882640110215, 30.717582849144122], [76.78828978053195, 30.71759892091895], [76.78831555005084, 30.717614992688294], [76.78834131957814, 30.717631064452142], [76.78836708911386, 30.7176471362105], [76.78839285865803, 30.717663207963355], [76.78841862821061, 30.717679279710733], [76.7884443977716, 30.717695351452594], [76.78847016734105, 30.717711423188995], [76.78849593691889, 30.717727494919885], [76.78852170650518, 30.717743566645286], [76.78854747609988, 30.717759638365198], [76.788573245703, 30.717775710079604], [76.78859901531456, 30.71779178178853], [76.78862478493453, 30.717807853491966], [76.78865055456293, 30.71782392518992], [76.78867632419977, 30.71783999688235], [76.78870209384503, 30.71785606856932], [76.7887278634987, 30.717872140250783], [76.78875363316081, 30.717888211926763], [76.78877940283134, 30.717904283597242], [76.7888051725103, 30.71792035526223], [76.78883094219768, 30.71793642692174], [76.78885671189347, 30.71795249857574], [76.78888248159771, 30.71796857022424], [76.78890825131036, 30.717984641867286], [76.78893402103144, 30.718000713504807], [76.78895979076094, 30.718016785136832], [76.78898556049887, 30.718032856763383], [76.78901133024523, 30.71804892838444], [76.7890371, 30.718064999999992], [76.7890371, 30.718064999999992], [76.7890627672867, 30.718081007764184], [76.78908843458173, 30.718097015522936], [76.78911410188513, 30.71811302327623], [76.7891397691969, 30.71812903102408], [76.78916543651701, 30.718145038766473], [76.7891911038455, 30.718161046503415], [76.78921677118232, 30.71817705423492], [76.78924243852751, 30.718193061960985], [76.78926810588108, 30.718209069681592], [76.78929377324297, 30.718225077396745], [76.78931944061324, 30.718241085106452], [76.78934510799186, 30.71825709281071], [76.78937077537886, 30.718273100509524], [76.7893964427742, 30.718289108202885], [76.7894221101779, 30.718305115890793], [76.78944777758996, 30.718321123573258], [76.78947344501037, 30.718337131250276], [76.78949911243915, 30.71835313892183], [76.78952477987629, 30.718369146587953], [76.78955044751153, 30.718385154021487], [76.78957611555055, 30.718401160976267], [76.789601784199, 30.718417167206088], [76.78962745328302, 30.71843317291907], [76.78965312259699, 30.71844917836139], [76.7896787919352, 30.718465183779216], [76.78970446128177, 30.718481189191596], [76.78973013063671, 30.71849719459852], [76.7897558, 30.718513199999997], [76.7897558, 30.718513199999997], [76.78978252218599, 30.718529866690286], [76.78980924438103, 30.71854653337468], [76.78983596658513, 30.718563200053158], [76.78986268879828, 30.718579866725733], [76.78988941102051, 30.718596533392397], [76.7899161332518, 30.71861320005316], [76.78994285549213, 30.71862986670801], [76.78996957774153, 30.718646533356967], [76.7899963, 30.71866319999999], [76.7899963, 30.71866319999999], [76.79002376822395, 30.7186765696334], [76.79005123645528, 30.71868993926064], [76.79007870469397, 30.718703308881754], [76.79010617294006, 30.718716678496722], [76.7901336411935, 30.71873004810555], [76.79016110945435, 30.718743417708232], [76.79018890555687, 30.718756056683333], [76.79021739094154, 30.718767159511973], [76.79024692704785, 30.718775920675], [76.79027721964692, 30.718782995896234], [76.79030790729705, 30.71878919069415], [76.79033862855746, 30.718795310587442], [76.79036937481975, 30.71880110374175], [76.79040021998199, 30.71880560429276], [76.79043123794102, 30.71880784637619], [76.79046245259629, 30.71880751759083], [76.79049379004789, 30.718805583800926], [76.79052517639713, 30.718803010870758], [76.79055643545227, 30.718800009076755], [76.79058729608185, 30.718795664958915], [76.79061748715324, 30.718789065057557], [76.7906469921176, 30.71878015362564], [76.79067608210495, 30.718769844123578], [76.790704993231, 30.71875899446188], [76.79073356409309, 30.718747604997095], [76.79076148944893, 30.718735191482313], [76.7907885340866, 30.718721380770152], [76.79081500324749, 30.718706657108203], [76.79084120217334, 30.718691504743806], [76.79086740109085, 30.71867635237441], [76.7908936, 30.718661199999996], [76.7908936, 30.718661199999996], [76.7909129625321, 30.718637912509106], [76.79093232505502, 30.71861462501563], [76.79095168756878, 30.71859133751952], [76.79097105007335, 30.718568050020828], [76.79099041256879, 30.71854476251952], [76.79100977505502, 30.718521475015606], [76.7910291375321, 30.7184981875091], [76.7910485, 30.718474899999993], [76.7910485, 30.718474899999993], [76.79106723115457, 30.718452382792734], [76.79108596230057, 30.71842986558304], [76.79110469343799, 30.718407348370903], [76.79112342456683, 30.718384831156328], [76.79114215568708, 30.718362313939316], [76.79116088679878, 30.71833979671987], [76.79117961790188, 30.718317279497995], [76.79119834899642, 30.71829476227366], [76.79121708008236, 30.718272245046915], [76.79123581115972, 30.71824972781772], [76.79125454222853, 30.718227210586083], [76.79127327328874, 30.71820469335201], [76.79129200434038, 30.71818217611551], [76.79131073538343, 30.718159658876566], [76.79132946641792, 30.718137141635186], [76.79134819744382, 30.718114624391383], [76.79136692846114, 30.718092107145118], [76.7913856594699, 30.718069589896423], [76.79140439047006, 30.718047072645298], [76.79142312146166, 30.718024555391743], [76.79144185244468, 30.718002038135733], [76.79146058341911, 30.71797952087731], [76.79147931438497, 30.717957003616423], [76.79149804534225, 30.71793448635311], [76.79151677629095, 30.717911969087368], [76.79153550723109, 30.717889451819183], [76.79155423816263, 30.71786693454856], [76.79157296908559, 30.717844417275515], [76.7915917, 30.717821900000008], [76.7915917, 30.717821900000008], [76.79161701022258, 30.71783792929134], [76.79164232045342, 30.717853958577365], [76.79166763069252, 30.71786998785807], [76.79169294093988, 30.717886017133488], [76.79171825119549, 30.717902046403598], [76.79174356145937, 30.717918075668393], [76.7917688717315, 30.717934104927902], [76.7917941820119, 30.71795013418209], [76.79181949230055, 30.71796616343098], [76.79184480259747, 30.71798219267457], [76.79187011290264, 30.717998221912854], [76.79189542321606, 30.718014251145828], [76.79192073353775, 30.718030280373505], [76.7919460438677, 30.71804630959586], [76.79197135420591, 30.71806233881293], [76.79199666455237, 30.718078368024692], [76.7920219749071, 30.71809439723114], [76.79204728527007, 30.7181104264323], [76.79207259564133, 30.718126455628138], [76.79209790602083, 30.71814248481867], [76.79212321640858, 30.71815851400391], [76.7921485268046, 30.718174543183835], [76.79217383720888, 30.718190572358463], [76.79219914762142, 30.718206601527775], [76.79222445804221, 30.718222630691802], [76.79224976847127, 30.71823865985051], [76.79227507890857, 30.718254689003906], [76.79230038935415, 30.71827071815201], [76.79232569980799, 30.718286747294815], [76.79235101027008, 30.71830277643231], [76.79237632074043, 30.718318805564486], [76.79240163121904, 30.71833483469137], [76.7924269417059, 30.71835086381295], [76.79245225220103, 30.71836689292921], [76.79247756270442, 30.71838292204018], [76.79250287321607, 30.71839895114585], [76.79252818373597, 30.718414980246195], [76.79255349426413, 30.718431009341252], [76.79257880480056, 30.718447038431], [76.79260411534523, 30.718463067515444], [76.79262942589817, 30.718479096594578], [76.79265473645937, 30.71849512566841], [76.79268004702884, 30.718511154736937], [76.79270535760655, 30.718527183800166], [76.79273066819253, 30.71854321285808], [76.79275597878676, 30.718559241910686], [76.79278128938925, 30.718575270958], [76.7928066, 30.718591299999986], [76.7928066, 30.718591299999986], [76.79283335449935, 30.718608236393266], [76.79286010900789, 30.718625172780616], [76.79288686352568, 30.718642109162033], [76.7929136180527, 30.718659045537514], [76.79294037258892, 30.718675981907086], [76.79296712713438, 30.718692918270733], [76.79299388168906, 30.718709854628433], [76.79302063625296, 30.718726790980213], [76.79304739082609, 30.718743727326064], [76.79307414540844, 30.718760663666], [76.79310090000001, 30.718777600000003]]}}]}